{"type":"FeatureCollection","features":[{"type":"Feature","id":"422_-1228","geometry":{"type":"Polygon","coordinates":[[[-122.85,42.15],[-122.75,42.15],[-122.75,42.25],[-122.85,42.25],[-122.85,42.15]]]},"properties":{"group":"cantharellus","week":"2026-10-05","chance":0.0222,"uncertainty_low":null,"uncertainty_high":null,"applicable":true,"drivers":[],"weather_through":"2026-10-04","model_version":"pnw-pilot-t1-calendar-e2c272b7acfa"}},{"type":"Feature","id":"422_-1227","geometry":{"type":"Polygon","coordinates":[[[-122.75,42.15],[-122.65,42.15],[-122.65,42.25],[-122.75,42.25],[-122.75,42.15]]]},"properties":{"group":"cantharellus","week":"2026-10-05","chance":0.0328,"uncertainty_low":null,"uncertainty_high":null,"applicable":true,"drivers":[],"weather_through":"2026-10-04","model_version":"pnw-pilot-t1-calendar-e2c272b7acfa"}},{"type":"Feature","id":"427_-1221","geometry":{"type":"Polygon","coordinates":[[[-122.15,42.65],[-122.05,42.65],[-122.05,42.75],[-122.15,42.75],[-122.15,42.65]]]},"properties":{"group":"cantharellus","week":"2026-10-05","chance":0.0427,"uncertainty_low":null,"uncertainty_high":null,"applicable":true,"drivers":[],"weather_through":"2026-10-04","model_version":"pnw-pilot-t1-calendar-e2c272b7acfa"}}]}