{"type":"FeatureCollection","features":[{"type":"Feature","id":"420_-1242","geometry":{"type":"Polygon","coordinates":[[[-124.25,41.95],[-124.15,41.95],[-124.15,42.05],[-124.25,42.05],[-124.25,41.95]]]},"properties":{"group":"cantharellus","week":"2026-10-05","chance":0.0488,"uncertainty_low":null,"uncertainty_high":null,"applicable":true,"drivers":[],"weather_through":null,"model_version":"pnw-pilot-t1-calendar-e2c272b7acfa"}},{"type":"Feature","id":"420_-1241","geometry":{"type":"Polygon","coordinates":[[[-124.15,41.95],[-124.05,41.95],[-124.05,42.05],[-124.15,42.05],[-124.15,41.95]]]},"properties":{"group":"cantharellus","week":"2026-10-05","chance":0.0326,"uncertainty_low":null,"uncertainty_high":null,"applicable":true,"drivers":[],"weather_through":null,"model_version":"pnw-pilot-t1-calendar-e2c272b7acfa"}},{"type":"Feature","id":"421_-1243","geometry":{"type":"Polygon","coordinates":[[[-124.35,42.05],[-124.25,42.05],[-124.25,42.15],[-124.35,42.15],[-124.35,42.05]]]},"properties":{"group":"cantharellus","week":"2026-10-05","chance":0.0422,"uncertainty_low":null,"uncertainty_high":null,"applicable":true,"drivers":[],"weather_through":null,"model_version":"pnw-pilot-t1-calendar-e2c272b7acfa"}},{"type":"Feature","id":"421_-1242","geometry":{"type":"Polygon","coordinates":[[[-124.25,42.05],[-124.15,42.05],[-124.15,42.15],[-124.25,42.15],[-124.25,42.05]]]},"properties":{"group":"cantharellus","week":"2026-10-05","chance":0.0488,"uncertainty_low":null,"uncertainty_high":null,"applicable":true,"drivers":[],"weather_through":null,"model_version":"pnw-pilot-t1-calendar-e2c272b7acfa"}},{"type":"Feature","id":"421_-1241","geometry":{"type":"Polygon","coordinates":[[[-124.15,42.05],[-124.05,42.05],[-124.05,42.15],[-124.15,42.15],[-124.15,42.05]]]},"properties":{"group":"cantharellus","week":"2026-10-05","chance":0.0326,"uncertainty_low":null,"uncertainty_high":null,"applicable":true,"drivers":[],"weather_through":null,"model_version":"pnw-pilot-t1-calendar-e2c272b7acfa"}},{"type":"Feature","id":"422_-1244","geometry":{"type":"Polygon","coordinates":[[[-124.45,42.15],[-124.35,42.15],[-124.35,42.25],[-124.45,42.25],[-124.45,42.15]]]},"properties":{"group":"cantharellus","week":"2026-10-05","chance":0.0412,"uncertainty_low":null,"uncertainty_high":null,"applicable":true,"drivers":[],"weather_through":null,"model_version":"pnw-pilot-t1-calendar-e2c272b7acfa"}},{"type":"Feature","id":"422_-1243","geometry":{"type":"Polygon","coordinates":[[[-124.35,42.15],[-124.25,42.15],[-124.25,42.25],[-124.35,42.25],[-124.35,42.15]]]},"properties":{"group":"cantharellus","week":"2026-10-05","chance":0.0422,"uncertainty_low":null,"uncertainty_high":null,"applicable":true,"drivers":[],"weather_through":null,"model_version":"pnw-pilot-t1-calendar-e2c272b7acfa"}},{"type":"Feature","id":"422_-1242","geometry":{"type":"Polygon","coordinates":[[[-124.25,42.15],[-124.15,42.15],[-124.15,42.25],[-124.25,42.25],[-124.25,42.15]]]},"properties":{"group":"cantharellus","week":"2026-10-05","chance":0.0488,"uncertainty_low":null,"uncertainty_high":null,"applicable":true,"drivers":[],"weather_through":null,"model_version":"pnw-pilot-t1-calendar-e2c272b7acfa"}},{"type":"Feature","id":"422_-1241","geometry":{"type":"Polygon","coordinates":[[[-124.15,42.15],[-124.05,42.15],[-124.05,42.25],[-124.15,42.25],[-124.15,42.15]]]},"properties":{"group":"cantharellus","week":"2026-10-05","chance":0.0326,"uncertainty_low":null,"uncertainty_high":null,"applicable":true,"drivers":[],"weather_through":null,"model_version":"pnw-pilot-t1-calendar-e2c272b7acfa"}},{"type":"Feature","id":"423_-1244","geometry":{"type":"Polygon","coordinates":[[[-124.45,42.25],[-124.35,42.25],[-124.35,42.35],[-124.45,42.35],[-124.45,42.25]]]},"properties":{"group":"cantharellus","week":"2026-10-05","chance":0.0412,"uncertainty_low":null,"uncertainty_high":null,"applicable":true,"drivers":[],"weather_through":null,"model_version":"pnw-pilot-t1-calendar-e2c272b7acfa"}},{"type":"Feature","id":"423_-1243","geometry":{"type":"Polygon","coordinates":[[[-124.35,42.25],[-124.25,42.25],[-124.25,42.35],[-124.35,42.35],[-124.35,42.25]]]},"properties":{"group":"cantharellus","week":"2026-10-05","chance":0.0422,"uncertainty_low":null,"uncertainty_high":null,"applicable":true,"drivers":[],"weather_through":null,"model_version":"pnw-pilot-t1-calendar-e2c272b7acfa"}},{"type":"Feature","id":"423_-1242","geometry":{"type":"Polygon","coordinates":[[[-124.25,42.25],[-124.15,42.25],[-124.15,42.35],[-124.25,42.35],[-124.25,42.25]]]},"properties":{"group":"cantharellus","week":"2026-10-05","chance":0.0488,"uncertainty_low":null,"uncertainty_high":null,"applicable":true,"drivers":[],"weather_through":null,"model_version":"pnw-pilot-t1-calendar-e2c272b7acfa"}},{"type":"Feature","id":"423_-1241","geometry":{"type":"Polygon","coordinates":[[[-124.15,42.25],[-124.05,42.25],[-124.05,42.35],[-124.15,42.35],[-124.15,42.25]]]},"properties":{"group":"cantharellus","week":"2026-10-05","chance":0.0326,"uncertainty_low":null,"uncertainty_high":null,"applicable":true,"drivers":[],"weather_through":null,"model_version":"pnw-pilot-t1-calendar-e2c272b7acfa"}},{"type":"Feature","id":"424_-1244","geometry":{"type":"Polygon","coordinates":[[[-124.45,42.35],[-124.35,42.35],[-124.35,42.45],[-124.45,42.45],[-124.45,42.35]]]},"properties":{"group":"cantharellus","week":"2026-10-05","chance":0.0412,"uncertainty_low":null,"uncertainty_high":null,"applicable":true,"drivers":[],"weather_through":null,"model_version":"pnw-pilot-t1-calendar-e2c272b7acfa"}},{"type":"Feature","id":"424_-1243","geometry":{"type":"Polygon","coordinates":[[[-124.35,42.35],[-124.25,42.35],[-124.25,42.45],[-124.35,42.45],[-124.35,42.35]]]},"properties":{"group":"cantharellus","week":"2026-10-05","chance":0.0422,"uncertainty_low":null,"uncertainty_high":null,"applicable":true,"drivers":[],"weather_through":null,"model_version":"pnw-pilot-t1-calendar-e2c272b7acfa"}},{"type":"Feature","id":"424_-1242","geometry":{"type":"Polygon","coordinates":[[[-124.25,42.35],[-124.15,42.35],[-124.15,42.45],[-124.25,42.45],[-124.25,42.35]]]},"properties":{"group":"cantharellus","week":"2026-10-05","chance":0.0488,"uncertainty_low":null,"uncertainty_high":null,"applicable":true,"drivers":[],"weather_through":null,"model_version":"pnw-pilot-t1-calendar-e2c272b7acfa"}},{"type":"Feature","id":"424_-1241","geometry":{"type":"Polygon","coordinates":[[[-124.15,42.35],[-124.05,42.35],[-124.05,42.45],[-124.15,42.45],[-124.15,42.35]]]},"properties":{"group":"cantharellus","week":"2026-10-05","chance":0.0326,"uncertainty_low":null,"uncertainty_high":null,"applicable":true,"drivers":[],"weather_through":null,"model_version":"pnw-pilot-t1-calendar-e2c272b7acfa"}},{"type":"Feature","id":"425_-1244","geometry":{"type":"Polygon","coordinates":[[[-124.45,42.45],[-124.35,42.45],[-124.35,42.55],[-124.45,42.55],[-124.45,42.45]]]},"properties":{"group":"cantharellus","week":"2026-10-05","chance":0.0412,"uncertainty_low":null,"uncertainty_high":null,"applicable":true,"drivers":[],"weather_through":null,"model_version":"pnw-pilot-t1-calendar-e2c272b7acfa"}},{"type":"Feature","id":"425_-1243","geometry":{"type":"Polygon","coordinates":[[[-124.35,42.45],[-124.25,42.45],[-124.25,42.55],[-124.35,42.55],[-124.35,42.45]]]},"properties":{"group":"cantharellus","week":"2026-10-05","chance":0.0422,"uncertainty_low":null,"uncertainty_high":null,"applicable":true,"drivers":[],"weather_through":null,"model_version":"pnw-pilot-t1-calendar-e2c272b7acfa"}},{"type":"Feature","id":"425_-1242","geometry":{"type":"Polygon","coordinates":[[[-124.25,42.45],[-124.15,42.45],[-124.15,42.55],[-124.25,42.55],[-124.25,42.45]]]},"properties":{"group":"cantharellus","week":"2026-10-05","chance":0.0488,"uncertainty_low":null,"uncertainty_high":null,"applicable":true,"drivers":[],"weather_through":null,"model_version":"pnw-pilot-t1-calendar-e2c272b7acfa"}},{"type":"Feature","id":"425_-1241","geometry":{"type":"Polygon","coordinates":[[[-124.15,42.45],[-124.05,42.45],[-124.05,42.55],[-124.15,42.55],[-124.15,42.45]]]},"properties":{"group":"cantharellus","week":"2026-10-05","chance":0.0326,"uncertainty_low":null,"uncertainty_high":null,"applicable":true,"drivers":[],"weather_through":null,"model_version":"pnw-pilot-t1-calendar-e2c272b7acfa"}},{"type":"Feature","id":"426_-1244","geometry":{"type":"Polygon","coordinates":[[[-124.45,42.55],[-124.35,42.55],[-124.35,42.65],[-124.45,42.65],[-124.45,42.55]]]},"properties":{"group":"cantharellus","week":"2026-10-05","chance":0.0412,"uncertainty_low":null,"uncertainty_high":null,"applicable":true,"drivers":[],"weather_through":null,"model_version":"pnw-pilot-t1-calendar-e2c272b7acfa"}},{"type":"Feature","id":"426_-1243","geometry":{"type":"Polygon","coordinates":[[[-124.35,42.55],[-124.25,42.55],[-124.25,42.65],[-124.35,42.65],[-124.35,42.55]]]},"properties":{"group":"cantharellus","week":"2026-10-05","chance":0.0422,"uncertainty_low":null,"uncertainty_high":null,"applicable":true,"drivers":[],"weather_through":null,"model_version":"pnw-pilot-t1-calendar-e2c272b7acfa"}},{"type":"Feature","id":"426_-1242","geometry":{"type":"Polygon","coordinates":[[[-124.25,42.55],[-124.15,42.55],[-124.15,42.65],[-124.25,42.65],[-124.25,42.55]]]},"properties":{"group":"cantharellus","week":"2026-10-05","chance":0.0488,"uncertainty_low":null,"uncertainty_high":null,"applicable":true,"drivers":[],"weather_through":null,"model_version":"pnw-pilot-t1-calendar-e2c272b7acfa"}},{"type":"Feature","id":"426_-1241","geometry":{"type":"Polygon","coordinates":[[[-124.15,42.55],[-124.05,42.55],[-124.05,42.65],[-124.15,42.65],[-124.15,42.55]]]},"properties":{"group":"cantharellus","week":"2026-10-05","chance":0.0326,"uncertainty_low":null,"uncertainty_high":null,"applicable":true,"drivers":[],"weather_through":null,"model_version":"pnw-pilot-t1-calendar-e2c272b7acfa"}},{"type":"Feature","id":"427_-1244","geometry":{"type":"Polygon","coordinates":[[[-124.45,42.65],[-124.35,42.65],[-124.35,42.75],[-124.45,42.75],[-124.45,42.65]]]},"properties":{"group":"cantharellus","week":"2026-10-05","chance":0.0412,"uncertainty_low":null,"uncertainty_high":null,"applicable":true,"drivers":[],"weather_through":null,"model_version":"pnw-pilot-t1-calendar-e2c272b7acfa"}},{"type":"Feature","id":"427_-1243","geometry":{"type":"Polygon","coordinates":[[[-124.35,42.65],[-124.25,42.65],[-124.25,42.75],[-124.35,42.75],[-124.35,42.65]]]},"properties":{"group":"cantharellus","week":"2026-10-05","chance":0.0422,"uncertainty_low":null,"uncertainty_high":null,"applicable":true,"drivers":[],"weather_through":null,"model_version":"pnw-pilot-t1-calendar-e2c272b7acfa"}},{"type":"Feature","id":"427_-1242","geometry":{"type":"Polygon","coordinates":[[[-124.25,42.65],[-124.15,42.65],[-124.15,42.75],[-124.25,42.75],[-124.25,42.65]]]},"properties":{"group":"cantharellus","week":"2026-10-05","chance":0.0488,"uncertainty_low":null,"uncertainty_high":null,"applicable":true,"drivers":[],"weather_through":null,"model_version":"pnw-pilot-t1-calendar-e2c272b7acfa"}},{"type":"Feature","id":"427_-1241","geometry":{"type":"Polygon","coordinates":[[[-124.15,42.65],[-124.05,42.65],[-124.05,42.75],[-124.15,42.75],[-124.15,42.65]]]},"properties":{"group":"cantharellus","week":"2026-10-05","chance":0.0326,"uncertainty_low":null,"uncertainty_high":null,"applicable":true,"drivers":[],"weather_through":null,"model_version":"pnw-pilot-t1-calendar-e2c272b7acfa"}},{"type":"Feature","id":"428_-1245","geometry":{"type":"Polygon","coordinates":[[[-124.55,42.75],[-124.45,42.75],[-124.45,42.85],[-124.55,42.85],[-124.55,42.75]]]},"properties":{"group":"cantharellus","week":"2026-10-05","chance":0.0412,"uncertainty_low":null,"uncertainty_high":null,"applicable":true,"drivers":[],"weather_through":null,"model_version":"pnw-pilot-t1-calendar-e2c272b7acfa"}},{"type":"Feature","id":"428_-1244","geometry":{"type":"Polygon","coordinates":[[[-124.45,42.75],[-124.35,42.75],[-124.35,42.85],[-124.45,42.85],[-124.45,42.75]]]},"properties":{"group":"cantharellus","week":"2026-10-05","chance":0.0412,"uncertainty_low":null,"uncertainty_high":null,"applicable":true,"drivers":[],"weather_through":null,"model_version":"pnw-pilot-t1-calendar-e2c272b7acfa"}},{"type":"Feature","id":"428_-1243","geometry":{"type":"Polygon","coordinates":[[[-124.35,42.75],[-124.25,42.75],[-124.25,42.85],[-124.35,42.85],[-124.35,42.75]]]},"properties":{"group":"cantharellus","week":"2026-10-05","chance":0.0422,"uncertainty_low":null,"uncertainty_high":null,"applicable":true,"drivers":[],"weather_through":null,"model_version":"pnw-pilot-t1-calendar-e2c272b7acfa"}},{"type":"Feature","id":"428_-1242","geometry":{"type":"Polygon","coordinates":[[[-124.25,42.75],[-124.15,42.75],[-124.15,42.85],[-124.25,42.85],[-124.25,42.75]]]},"properties":{"group":"cantharellus","week":"2026-10-05","chance":0.0488,"uncertainty_low":null,"uncertainty_high":null,"applicable":true,"drivers":[],"weather_through":null,"model_version":"pnw-pilot-t1-calendar-e2c272b7acfa"}},{"type":"Feature","id":"428_-1241","geometry":{"type":"Polygon","coordinates":[[[-124.15,42.75],[-124.05,42.75],[-124.05,42.85],[-124.15,42.85],[-124.15,42.75]]]},"properties":{"group":"cantharellus","week":"2026-10-05","chance":0.0437,"uncertainty_low":null,"uncertainty_high":null,"applicable":true,"drivers":[],"weather_through":null,"model_version":"pnw-pilot-t1-calendar-e2c272b7acfa"}},{"type":"Feature","id":"429_-1245","geometry":{"type":"Polygon","coordinates":[[[-124.55,42.85],[-124.45,42.85],[-124.45,42.95],[-124.55,42.95],[-124.55,42.85]]]},"properties":{"group":"cantharellus","week":"2026-10-05","chance":0.0409,"uncertainty_low":null,"uncertainty_high":null,"applicable":true,"drivers":[],"weather_through":null,"model_version":"pnw-pilot-t1-calendar-e2c272b7acfa"}},{"type":"Feature","id":"429_-1244","geometry":{"type":"Polygon","coordinates":[[[-124.45,42.85],[-124.35,42.85],[-124.35,42.95],[-124.45,42.95],[-124.45,42.85]]]},"properties":{"group":"cantharellus","week":"2026-10-05","chance":0.0409,"uncertainty_low":null,"uncertainty_high":null,"applicable":true,"drivers":[],"weather_through":null,"model_version":"pnw-pilot-t1-calendar-e2c272b7acfa"}},{"type":"Feature","id":"429_-1243","geometry":{"type":"Polygon","coordinates":[[[-124.35,42.85],[-124.25,42.85],[-124.25,42.95],[-124.35,42.95],[-124.35,42.85]]]},"properties":{"group":"cantharellus","week":"2026-10-05","chance":0.0419,"uncertainty_low":null,"uncertainty_high":null,"applicable":true,"drivers":[],"weather_through":null,"model_version":"pnw-pilot-t1-calendar-e2c272b7acfa"}},{"type":"Feature","id":"429_-1242","geometry":{"type":"Polygon","coordinates":[[[-124.25,42.85],[-124.15,42.85],[-124.15,42.95],[-124.25,42.95],[-124.25,42.85]]]},"properties":{"group":"cantharellus","week":"2026-10-05","chance":0.0484,"uncertainty_low":null,"uncertainty_high":null,"applicable":true,"drivers":[],"weather_through":null,"model_version":"pnw-pilot-t1-calendar-e2c272b7acfa"}},{"type":"Feature","id":"429_-1241","geometry":{"type":"Polygon","coordinates":[[[-124.15,42.85],[-124.05,42.85],[-124.05,42.95],[-124.15,42.95],[-124.15,42.85]]]},"properties":{"group":"cantharellus","week":"2026-10-05","chance":0.0435,"uncertainty_low":null,"uncertainty_high":null,"applicable":true,"drivers":[],"weather_through":null,"model_version":"pnw-pilot-t1-calendar-e2c272b7acfa"}}]}