{"type":"FeatureCollection","features":[{"type":"Feature","id":"420_-1210","geometry":{"type":"Polygon","coordinates":[[[-121.05,41.95],[-120.95,41.95],[-120.95,42.05],[-121.05,42.05],[-121.05,41.95]]]},"properties":{"group":"cantharellus","week":"2026-10-05","chance":0.023,"uncertainty_low":null,"uncertainty_high":null,"applicable":true,"drivers":[],"weather_through":null,"model_version":"pnw-pilot-t1-calendar-e2c272b7acfa"}},{"type":"Feature","id":"421_-1210","geometry":{"type":"Polygon","coordinates":[[[-121.05,42.05],[-120.95,42.05],[-120.95,42.15],[-121.05,42.15],[-121.05,42.05]]]},"properties":{"group":"cantharellus","week":"2026-10-05","chance":0.023,"uncertainty_low":null,"uncertainty_high":null,"applicable":true,"drivers":[],"weather_through":null,"model_version":"pnw-pilot-t1-calendar-e2c272b7acfa"}},{"type":"Feature","id":"422_-1210","geometry":{"type":"Polygon","coordinates":[[[-121.05,42.15],[-120.95,42.15],[-120.95,42.25],[-121.05,42.25],[-121.05,42.15]]]},"properties":{"group":"cantharellus","week":"2026-10-05","chance":0.023,"uncertainty_low":null,"uncertainty_high":null,"applicable":true,"drivers":[],"weather_through":null,"model_version":"pnw-pilot-t1-calendar-e2c272b7acfa"}},{"type":"Feature","id":"423_-1210","geometry":{"type":"Polygon","coordinates":[[[-121.05,42.25],[-120.95,42.25],[-120.95,42.35],[-121.05,42.35],[-121.05,42.25]]]},"properties":{"group":"cantharellus","week":"2026-10-05","chance":0.0231,"uncertainty_low":null,"uncertainty_high":null,"applicable":true,"drivers":[],"weather_through":null,"model_version":"pnw-pilot-t1-calendar-e2c272b7acfa"}},{"type":"Feature","id":"424_-1210","geometry":{"type":"Polygon","coordinates":[[[-121.05,42.35],[-120.95,42.35],[-120.95,42.45],[-121.05,42.45],[-121.05,42.35]]]},"properties":{"group":"cantharellus","week":"2026-10-05","chance":0.0231,"uncertainty_low":null,"uncertainty_high":null,"applicable":true,"drivers":[],"weather_through":null,"model_version":"pnw-pilot-t1-calendar-e2c272b7acfa"}},{"type":"Feature","id":"425_-1210","geometry":{"type":"Polygon","coordinates":[[[-121.05,42.45],[-120.95,42.45],[-120.95,42.55],[-121.05,42.55],[-121.05,42.45]]]},"properties":{"group":"cantharellus","week":"2026-10-05","chance":0.0231,"uncertainty_low":null,"uncertainty_high":null,"applicable":true,"drivers":[],"weather_through":null,"model_version":"pnw-pilot-t1-calendar-e2c272b7acfa"}},{"type":"Feature","id":"426_-1210","geometry":{"type":"Polygon","coordinates":[[[-121.05,42.55],[-120.95,42.55],[-120.95,42.65],[-121.05,42.65],[-121.05,42.55]]]},"properties":{"group":"cantharellus","week":"2026-10-05","chance":0.0231,"uncertainty_low":null,"uncertainty_high":null,"applicable":true,"drivers":[],"weather_through":null,"model_version":"pnw-pilot-t1-calendar-e2c272b7acfa"}},{"type":"Feature","id":"427_-1210","geometry":{"type":"Polygon","coordinates":[[[-121.05,42.65],[-120.95,42.65],[-120.95,42.75],[-121.05,42.75],[-121.05,42.65]]]},"properties":{"group":"cantharellus","week":"2026-10-05","chance":0.0231,"uncertainty_low":null,"uncertainty_high":null,"applicable":true,"drivers":[],"weather_through":null,"model_version":"pnw-pilot-t1-calendar-e2c272b7acfa"}},{"type":"Feature","id":"428_-1210","geometry":{"type":"Polygon","coordinates":[[[-121.05,42.75],[-120.95,42.75],[-120.95,42.85],[-121.05,42.85],[-121.05,42.75]]]},"properties":{"group":"cantharellus","week":"2026-10-05","chance":0.0313,"uncertainty_low":null,"uncertainty_high":null,"applicable":true,"drivers":[],"weather_through":null,"model_version":"pnw-pilot-t1-calendar-e2c272b7acfa"}},{"type":"Feature","id":"429_-1210","geometry":{"type":"Polygon","coordinates":[[[-121.05,42.85],[-120.95,42.85],[-120.95,42.95],[-121.05,42.95],[-121.05,42.85]]]},"properties":{"group":"cantharellus","week":"2026-10-05","chance":0.0311,"uncertainty_low":null,"uncertainty_high":null,"applicable":true,"drivers":[],"weather_through":null,"model_version":"pnw-pilot-t1-calendar-e2c272b7acfa"}}]}