{"type":"FeatureCollection","features":[{"type":"Feature","id":"420_-1240","geometry":{"type":"Polygon","coordinates":[[[-124.05,41.95],[-123.95,41.95],[-123.95,42.05],[-124.05,42.05],[-124.05,41.95]]]},"properties":{"group":"cantharellus","week":"2026-10-05","chance":0.0225,"uncertainty_low":null,"uncertainty_high":null,"applicable":true,"drivers":[],"weather_through":null,"model_version":"pnw-pilot-t1-calendar-e2c272b7acfa"}},{"type":"Feature","id":"420_-1239","geometry":{"type":"Polygon","coordinates":[[[-123.95,41.95],[-123.85,41.95],[-123.85,42.05],[-123.95,42.05],[-123.95,41.95]]]},"properties":{"group":"cantharellus","week":"2026-10-05","chance":0.0225,"uncertainty_low":null,"uncertainty_high":null,"applicable":true,"drivers":[],"weather_through":null,"model_version":"pnw-pilot-t1-calendar-e2c272b7acfa"}},{"type":"Feature","id":"420_-1238","geometry":{"type":"Polygon","coordinates":[[[-123.85,41.95],[-123.75,41.95],[-123.75,42.05],[-123.85,42.05],[-123.85,41.95]]]},"properties":{"group":"cantharellus","week":"2026-10-05","chance":0.0221,"uncertainty_low":null,"uncertainty_high":null,"applicable":true,"drivers":[],"weather_through":null,"model_version":"pnw-pilot-t1-calendar-e2c272b7acfa"}},{"type":"Feature","id":"420_-1237","geometry":{"type":"Polygon","coordinates":[[[-123.75,41.95],[-123.65,41.95],[-123.65,42.05],[-123.75,42.05],[-123.75,41.95]]]},"properties":{"group":"cantharellus","week":"2026-10-05","chance":0.0221,"uncertainty_low":null,"uncertainty_high":null,"applicable":true,"drivers":[],"weather_through":null,"model_version":"pnw-pilot-t1-calendar-e2c272b7acfa"}},{"type":"Feature","id":"420_-1236","geometry":{"type":"Polygon","coordinates":[[[-123.65,41.95],[-123.55,41.95],[-123.55,42.05],[-123.65,42.05],[-123.65,41.95]]]},"properties":{"group":"cantharellus","week":"2026-10-05","chance":0.0221,"uncertainty_low":null,"uncertainty_high":null,"applicable":true,"drivers":[],"weather_through":null,"model_version":"pnw-pilot-t1-calendar-e2c272b7acfa"}},{"type":"Feature","id":"420_-1235","geometry":{"type":"Polygon","coordinates":[[[-123.55,41.95],[-123.45,41.95],[-123.45,42.05],[-123.55,42.05],[-123.55,41.95]]]},"properties":{"group":"cantharellus","week":"2026-10-05","chance":0.022,"uncertainty_low":null,"uncertainty_high":null,"applicable":true,"drivers":[],"weather_through":null,"model_version":"pnw-pilot-t1-calendar-e2c272b7acfa"}},{"type":"Feature","id":"420_-1234","geometry":{"type":"Polygon","coordinates":[[[-123.45,41.95],[-123.35,41.95],[-123.35,42.05],[-123.45,42.05],[-123.45,41.95]]]},"properties":{"group":"cantharellus","week":"2026-10-05","chance":0.0221,"uncertainty_low":null,"uncertainty_high":null,"applicable":true,"drivers":[],"weather_through":null,"model_version":"pnw-pilot-t1-calendar-e2c272b7acfa"}},{"type":"Feature","id":"420_-1233","geometry":{"type":"Polygon","coordinates":[[[-123.35,41.95],[-123.25,41.95],[-123.25,42.05],[-123.35,42.05],[-123.35,41.95]]]},"properties":{"group":"cantharellus","week":"2026-10-05","chance":0.0166,"uncertainty_low":null,"uncertainty_high":null,"applicable":true,"drivers":[],"weather_through":null,"model_version":"pnw-pilot-t1-calendar-e2c272b7acfa"}},{"type":"Feature","id":"420_-1232","geometry":{"type":"Polygon","coordinates":[[[-123.25,41.95],[-123.15,41.95],[-123.15,42.05],[-123.25,42.05],[-123.25,41.95]]]},"properties":{"group":"cantharellus","week":"2026-10-05","chance":0.0157,"uncertainty_low":null,"uncertainty_high":null,"applicable":true,"drivers":[],"weather_through":null,"model_version":"pnw-pilot-t1-calendar-e2c272b7acfa"}},{"type":"Feature","id":"420_-1231","geometry":{"type":"Polygon","coordinates":[[[-123.15,41.95],[-123.05,41.95],[-123.05,42.05],[-123.15,42.05],[-123.15,41.95]]]},"properties":{"group":"cantharellus","week":"2026-10-05","chance":0.0157,"uncertainty_low":null,"uncertainty_high":null,"applicable":true,"drivers":[],"weather_through":null,"model_version":"pnw-pilot-t1-calendar-e2c272b7acfa"}},{"type":"Feature","id":"421_-1240","geometry":{"type":"Polygon","coordinates":[[[-124.05,42.05],[-123.95,42.05],[-123.95,42.15],[-124.05,42.15],[-124.05,42.05]]]},"properties":{"group":"cantharellus","week":"2026-10-05","chance":0.0225,"uncertainty_low":null,"uncertainty_high":null,"applicable":true,"drivers":[],"weather_through":null,"model_version":"pnw-pilot-t1-calendar-e2c272b7acfa"}},{"type":"Feature","id":"421_-1239","geometry":{"type":"Polygon","coordinates":[[[-123.95,42.05],[-123.85,42.05],[-123.85,42.15],[-123.95,42.15],[-123.95,42.05]]]},"properties":{"group":"cantharellus","week":"2026-10-05","chance":0.0225,"uncertainty_low":null,"uncertainty_high":null,"applicable":true,"drivers":[],"weather_through":null,"model_version":"pnw-pilot-t1-calendar-e2c272b7acfa"}},{"type":"Feature","id":"421_-1238","geometry":{"type":"Polygon","coordinates":[[[-123.85,42.05],[-123.75,42.05],[-123.75,42.15],[-123.85,42.15],[-123.85,42.05]]]},"properties":{"group":"cantharellus","week":"2026-10-05","chance":0.0221,"uncertainty_low":null,"uncertainty_high":null,"applicable":true,"drivers":[],"weather_through":null,"model_version":"pnw-pilot-t1-calendar-e2c272b7acfa"}},{"type":"Feature","id":"421_-1237","geometry":{"type":"Polygon","coordinates":[[[-123.75,42.05],[-123.65,42.05],[-123.65,42.15],[-123.75,42.15],[-123.75,42.05]]]},"properties":{"group":"cantharellus","week":"2026-10-05","chance":0.0221,"uncertainty_low":null,"uncertainty_high":null,"applicable":true,"drivers":[],"weather_through":null,"model_version":"pnw-pilot-t1-calendar-e2c272b7acfa"}},{"type":"Feature","id":"421_-1236","geometry":{"type":"Polygon","coordinates":[[[-123.65,42.05],[-123.55,42.05],[-123.55,42.15],[-123.65,42.15],[-123.65,42.05]]]},"properties":{"group":"cantharellus","week":"2026-10-05","chance":0.0221,"uncertainty_low":null,"uncertainty_high":null,"applicable":true,"drivers":[],"weather_through":null,"model_version":"pnw-pilot-t1-calendar-e2c272b7acfa"}},{"type":"Feature","id":"421_-1235","geometry":{"type":"Polygon","coordinates":[[[-123.55,42.05],[-123.45,42.05],[-123.45,42.15],[-123.55,42.15],[-123.55,42.05]]]},"properties":{"group":"cantharellus","week":"2026-10-05","chance":0.022,"uncertainty_low":null,"uncertainty_high":null,"applicable":true,"drivers":[],"weather_through":null,"model_version":"pnw-pilot-t1-calendar-e2c272b7acfa"}},{"type":"Feature","id":"421_-1234","geometry":{"type":"Polygon","coordinates":[[[-123.45,42.05],[-123.35,42.05],[-123.35,42.15],[-123.45,42.15],[-123.45,42.05]]]},"properties":{"group":"cantharellus","week":"2026-10-05","chance":0.0221,"uncertainty_low":null,"uncertainty_high":null,"applicable":true,"drivers":[],"weather_through":null,"model_version":"pnw-pilot-t1-calendar-e2c272b7acfa"}},{"type":"Feature","id":"421_-1233","geometry":{"type":"Polygon","coordinates":[[[-123.35,42.05],[-123.25,42.05],[-123.25,42.15],[-123.35,42.15],[-123.35,42.05]]]},"properties":{"group":"cantharellus","week":"2026-10-05","chance":0.0166,"uncertainty_low":null,"uncertainty_high":null,"applicable":true,"drivers":[],"weather_through":null,"model_version":"pnw-pilot-t1-calendar-e2c272b7acfa"}},{"type":"Feature","id":"421_-1232","geometry":{"type":"Polygon","coordinates":[[[-123.25,42.05],[-123.15,42.05],[-123.15,42.15],[-123.25,42.15],[-123.25,42.05]]]},"properties":{"group":"cantharellus","week":"2026-10-05","chance":0.0157,"uncertainty_low":null,"uncertainty_high":null,"applicable":true,"drivers":[],"weather_through":null,"model_version":"pnw-pilot-t1-calendar-e2c272b7acfa"}},{"type":"Feature","id":"421_-1231","geometry":{"type":"Polygon","coordinates":[[[-123.15,42.05],[-123.05,42.05],[-123.05,42.15],[-123.15,42.15],[-123.15,42.05]]]},"properties":{"group":"cantharellus","week":"2026-10-05","chance":0.0157,"uncertainty_low":null,"uncertainty_high":null,"applicable":true,"drivers":[],"weather_through":null,"model_version":"pnw-pilot-t1-calendar-e2c272b7acfa"}},{"type":"Feature","id":"422_-1240","geometry":{"type":"Polygon","coordinates":[[[-124.05,42.15],[-123.95,42.15],[-123.95,42.25],[-124.05,42.25],[-124.05,42.15]]]},"properties":{"group":"cantharellus","week":"2026-10-05","chance":0.0225,"uncertainty_low":null,"uncertainty_high":null,"applicable":true,"drivers":[],"weather_through":null,"model_version":"pnw-pilot-t1-calendar-e2c272b7acfa"}},{"type":"Feature","id":"422_-1239","geometry":{"type":"Polygon","coordinates":[[[-123.95,42.15],[-123.85,42.15],[-123.85,42.25],[-123.95,42.25],[-123.95,42.15]]]},"properties":{"group":"cantharellus","week":"2026-10-05","chance":0.0225,"uncertainty_low":null,"uncertainty_high":null,"applicable":true,"drivers":[],"weather_through":null,"model_version":"pnw-pilot-t1-calendar-e2c272b7acfa"}},{"type":"Feature","id":"422_-1238","geometry":{"type":"Polygon","coordinates":[[[-123.85,42.15],[-123.75,42.15],[-123.75,42.25],[-123.85,42.25],[-123.85,42.15]]]},"properties":{"group":"cantharellus","week":"2026-10-05","chance":0.0221,"uncertainty_low":null,"uncertainty_high":null,"applicable":true,"drivers":[],"weather_through":null,"model_version":"pnw-pilot-t1-calendar-e2c272b7acfa"}},{"type":"Feature","id":"422_-1237","geometry":{"type":"Polygon","coordinates":[[[-123.75,42.15],[-123.65,42.15],[-123.65,42.25],[-123.75,42.25],[-123.75,42.15]]]},"properties":{"group":"cantharellus","week":"2026-10-05","chance":0.0221,"uncertainty_low":null,"uncertainty_high":null,"applicable":true,"drivers":[],"weather_through":null,"model_version":"pnw-pilot-t1-calendar-e2c272b7acfa"}},{"type":"Feature","id":"422_-1236","geometry":{"type":"Polygon","coordinates":[[[-123.65,42.15],[-123.55,42.15],[-123.55,42.25],[-123.65,42.25],[-123.65,42.15]]]},"properties":{"group":"cantharellus","week":"2026-10-05","chance":0.0221,"uncertainty_low":null,"uncertainty_high":null,"applicable":true,"drivers":[],"weather_through":null,"model_version":"pnw-pilot-t1-calendar-e2c272b7acfa"}},{"type":"Feature","id":"422_-1235","geometry":{"type":"Polygon","coordinates":[[[-123.55,42.15],[-123.45,42.15],[-123.45,42.25],[-123.55,42.25],[-123.55,42.15]]]},"properties":{"group":"cantharellus","week":"2026-10-05","chance":0.022,"uncertainty_low":null,"uncertainty_high":null,"applicable":true,"drivers":[],"weather_through":null,"model_version":"pnw-pilot-t1-calendar-e2c272b7acfa"}},{"type":"Feature","id":"422_-1234","geometry":{"type":"Polygon","coordinates":[[[-123.45,42.15],[-123.35,42.15],[-123.35,42.25],[-123.45,42.25],[-123.45,42.15]]]},"properties":{"group":"cantharellus","week":"2026-10-05","chance":0.0221,"uncertainty_low":null,"uncertainty_high":null,"applicable":true,"drivers":[],"weather_through":null,"model_version":"pnw-pilot-t1-calendar-e2c272b7acfa"}},{"type":"Feature","id":"422_-1233","geometry":{"type":"Polygon","coordinates":[[[-123.35,42.15],[-123.25,42.15],[-123.25,42.25],[-123.35,42.25],[-123.35,42.15]]]},"properties":{"group":"cantharellus","week":"2026-10-05","chance":0.0166,"uncertainty_low":null,"uncertainty_high":null,"applicable":true,"drivers":[],"weather_through":null,"model_version":"pnw-pilot-t1-calendar-e2c272b7acfa"}},{"type":"Feature","id":"422_-1232","geometry":{"type":"Polygon","coordinates":[[[-123.25,42.15],[-123.15,42.15],[-123.15,42.25],[-123.25,42.25],[-123.25,42.15]]]},"properties":{"group":"cantharellus","week":"2026-10-05","chance":0.0157,"uncertainty_low":null,"uncertainty_high":null,"applicable":true,"drivers":[],"weather_through":null,"model_version":"pnw-pilot-t1-calendar-e2c272b7acfa"}},{"type":"Feature","id":"422_-1231","geometry":{"type":"Polygon","coordinates":[[[-123.15,42.15],[-123.05,42.15],[-123.05,42.25],[-123.15,42.25],[-123.15,42.15]]]},"properties":{"group":"cantharellus","week":"2026-10-05","chance":0.0157,"uncertainty_low":null,"uncertainty_high":null,"applicable":true,"drivers":[],"weather_through":null,"model_version":"pnw-pilot-t1-calendar-e2c272b7acfa"}},{"type":"Feature","id":"423_-1240","geometry":{"type":"Polygon","coordinates":[[[-124.05,42.25],[-123.95,42.25],[-123.95,42.35],[-124.05,42.35],[-124.05,42.25]]]},"properties":{"group":"cantharellus","week":"2026-10-05","chance":0.0225,"uncertainty_low":null,"uncertainty_high":null,"applicable":true,"drivers":[],"weather_through":null,"model_version":"pnw-pilot-t1-calendar-e2c272b7acfa"}},{"type":"Feature","id":"423_-1239","geometry":{"type":"Polygon","coordinates":[[[-123.95,42.25],[-123.85,42.25],[-123.85,42.35],[-123.95,42.35],[-123.95,42.25]]]},"properties":{"group":"cantharellus","week":"2026-10-05","chance":0.0225,"uncertainty_low":null,"uncertainty_high":null,"applicable":true,"drivers":[],"weather_through":null,"model_version":"pnw-pilot-t1-calendar-e2c272b7acfa"}},{"type":"Feature","id":"423_-1238","geometry":{"type":"Polygon","coordinates":[[[-123.85,42.25],[-123.75,42.25],[-123.75,42.35],[-123.85,42.35],[-123.85,42.25]]]},"properties":{"group":"cantharellus","week":"2026-10-05","chance":0.0221,"uncertainty_low":null,"uncertainty_high":null,"applicable":true,"drivers":[],"weather_through":null,"model_version":"pnw-pilot-t1-calendar-e2c272b7acfa"}},{"type":"Feature","id":"423_-1237","geometry":{"type":"Polygon","coordinates":[[[-123.75,42.25],[-123.65,42.25],[-123.65,42.35],[-123.75,42.35],[-123.75,42.25]]]},"properties":{"group":"cantharellus","week":"2026-10-05","chance":0.0221,"uncertainty_low":null,"uncertainty_high":null,"applicable":true,"drivers":[],"weather_through":null,"model_version":"pnw-pilot-t1-calendar-e2c272b7acfa"}},{"type":"Feature","id":"423_-1236","geometry":{"type":"Polygon","coordinates":[[[-123.65,42.25],[-123.55,42.25],[-123.55,42.35],[-123.65,42.35],[-123.65,42.25]]]},"properties":{"group":"cantharellus","week":"2026-10-05","chance":0.0221,"uncertainty_low":null,"uncertainty_high":null,"applicable":true,"drivers":[],"weather_through":null,"model_version":"pnw-pilot-t1-calendar-e2c272b7acfa"}},{"type":"Feature","id":"423_-1235","geometry":{"type":"Polygon","coordinates":[[[-123.55,42.25],[-123.45,42.25],[-123.45,42.35],[-123.55,42.35],[-123.55,42.25]]]},"properties":{"group":"cantharellus","week":"2026-10-05","chance":0.022,"uncertainty_low":null,"uncertainty_high":null,"applicable":true,"drivers":[],"weather_through":null,"model_version":"pnw-pilot-t1-calendar-e2c272b7acfa"}},{"type":"Feature","id":"423_-1234","geometry":{"type":"Polygon","coordinates":[[[-123.45,42.25],[-123.35,42.25],[-123.35,42.35],[-123.45,42.35],[-123.45,42.25]]]},"properties":{"group":"cantharellus","week":"2026-10-05","chance":0.0221,"uncertainty_low":null,"uncertainty_high":null,"applicable":true,"drivers":[],"weather_through":null,"model_version":"pnw-pilot-t1-calendar-e2c272b7acfa"}},{"type":"Feature","id":"423_-1233","geometry":{"type":"Polygon","coordinates":[[[-123.35,42.25],[-123.25,42.25],[-123.25,42.35],[-123.35,42.35],[-123.35,42.25]]]},"properties":{"group":"cantharellus","week":"2026-10-05","chance":0.0166,"uncertainty_low":null,"uncertainty_high":null,"applicable":true,"drivers":[],"weather_through":null,"model_version":"pnw-pilot-t1-calendar-e2c272b7acfa"}},{"type":"Feature","id":"423_-1232","geometry":{"type":"Polygon","coordinates":[[[-123.25,42.25],[-123.15,42.25],[-123.15,42.35],[-123.25,42.35],[-123.25,42.25]]]},"properties":{"group":"cantharellus","week":"2026-10-05","chance":0.0157,"uncertainty_low":null,"uncertainty_high":null,"applicable":true,"drivers":[],"weather_through":null,"model_version":"pnw-pilot-t1-calendar-e2c272b7acfa"}},{"type":"Feature","id":"423_-1231","geometry":{"type":"Polygon","coordinates":[[[-123.15,42.25],[-123.05,42.25],[-123.05,42.35],[-123.15,42.35],[-123.15,42.25]]]},"properties":{"group":"cantharellus","week":"2026-10-05","chance":0.0157,"uncertainty_low":null,"uncertainty_high":null,"applicable":true,"drivers":[],"weather_through":null,"model_version":"pnw-pilot-t1-calendar-e2c272b7acfa"}},{"type":"Feature","id":"424_-1240","geometry":{"type":"Polygon","coordinates":[[[-124.05,42.35],[-123.95,42.35],[-123.95,42.45],[-124.05,42.45],[-124.05,42.35]]]},"properties":{"group":"cantharellus","week":"2026-10-05","chance":0.0225,"uncertainty_low":null,"uncertainty_high":null,"applicable":true,"drivers":[],"weather_through":null,"model_version":"pnw-pilot-t1-calendar-e2c272b7acfa"}},{"type":"Feature","id":"424_-1239","geometry":{"type":"Polygon","coordinates":[[[-123.95,42.35],[-123.85,42.35],[-123.85,42.45],[-123.95,42.45],[-123.95,42.35]]]},"properties":{"group":"cantharellus","week":"2026-10-05","chance":0.0225,"uncertainty_low":null,"uncertainty_high":null,"applicable":true,"drivers":[],"weather_through":null,"model_version":"pnw-pilot-t1-calendar-e2c272b7acfa"}},{"type":"Feature","id":"424_-1238","geometry":{"type":"Polygon","coordinates":[[[-123.85,42.35],[-123.75,42.35],[-123.75,42.45],[-123.85,42.45],[-123.85,42.35]]]},"properties":{"group":"cantharellus","week":"2026-10-05","chance":0.0221,"uncertainty_low":null,"uncertainty_high":null,"applicable":true,"drivers":[],"weather_through":null,"model_version":"pnw-pilot-t1-calendar-e2c272b7acfa"}},{"type":"Feature","id":"424_-1237","geometry":{"type":"Polygon","coordinates":[[[-123.75,42.35],[-123.65,42.35],[-123.65,42.45],[-123.75,42.45],[-123.75,42.35]]]},"properties":{"group":"cantharellus","week":"2026-10-05","chance":0.0221,"uncertainty_low":null,"uncertainty_high":null,"applicable":true,"drivers":[],"weather_through":null,"model_version":"pnw-pilot-t1-calendar-e2c272b7acfa"}},{"type":"Feature","id":"424_-1236","geometry":{"type":"Polygon","coordinates":[[[-123.65,42.35],[-123.55,42.35],[-123.55,42.45],[-123.65,42.45],[-123.65,42.35]]]},"properties":{"group":"cantharellus","week":"2026-10-05","chance":0.0221,"uncertainty_low":null,"uncertainty_high":null,"applicable":true,"drivers":[],"weather_through":null,"model_version":"pnw-pilot-t1-calendar-e2c272b7acfa"}},{"type":"Feature","id":"424_-1235","geometry":{"type":"Polygon","coordinates":[[[-123.55,42.35],[-123.45,42.35],[-123.45,42.45],[-123.55,42.45],[-123.55,42.35]]]},"properties":{"group":"cantharellus","week":"2026-10-05","chance":0.022,"uncertainty_low":null,"uncertainty_high":null,"applicable":true,"drivers":[],"weather_through":null,"model_version":"pnw-pilot-t1-calendar-e2c272b7acfa"}},{"type":"Feature","id":"424_-1234","geometry":{"type":"Polygon","coordinates":[[[-123.45,42.35],[-123.35,42.35],[-123.35,42.45],[-123.45,42.45],[-123.45,42.35]]]},"properties":{"group":"cantharellus","week":"2026-10-05","chance":0.0221,"uncertainty_low":null,"uncertainty_high":null,"applicable":true,"drivers":[],"weather_through":null,"model_version":"pnw-pilot-t1-calendar-e2c272b7acfa"}},{"type":"Feature","id":"424_-1233","geometry":{"type":"Polygon","coordinates":[[[-123.35,42.35],[-123.25,42.35],[-123.25,42.45],[-123.35,42.45],[-123.35,42.35]]]},"properties":{"group":"cantharellus","week":"2026-10-05","chance":0.0166,"uncertainty_low":null,"uncertainty_high":null,"applicable":true,"drivers":[],"weather_through":null,"model_version":"pnw-pilot-t1-calendar-e2c272b7acfa"}},{"type":"Feature","id":"424_-1232","geometry":{"type":"Polygon","coordinates":[[[-123.25,42.35],[-123.15,42.35],[-123.15,42.45],[-123.25,42.45],[-123.25,42.35]]]},"properties":{"group":"cantharellus","week":"2026-10-05","chance":0.0157,"uncertainty_low":null,"uncertainty_high":null,"applicable":true,"drivers":[],"weather_through":null,"model_version":"pnw-pilot-t1-calendar-e2c272b7acfa"}},{"type":"Feature","id":"424_-1231","geometry":{"type":"Polygon","coordinates":[[[-123.15,42.35],[-123.05,42.35],[-123.05,42.45],[-123.15,42.45],[-123.15,42.35]]]},"properties":{"group":"cantharellus","week":"2026-10-05","chance":0.0157,"uncertainty_low":null,"uncertainty_high":null,"applicable":true,"drivers":[],"weather_through":null,"model_version":"pnw-pilot-t1-calendar-e2c272b7acfa"}},{"type":"Feature","id":"425_-1240","geometry":{"type":"Polygon","coordinates":[[[-124.05,42.45],[-123.95,42.45],[-123.95,42.55],[-124.05,42.55],[-124.05,42.45]]]},"properties":{"group":"cantharellus","week":"2026-10-05","chance":0.0225,"uncertainty_low":null,"uncertainty_high":null,"applicable":true,"drivers":[],"weather_through":null,"model_version":"pnw-pilot-t1-calendar-e2c272b7acfa"}},{"type":"Feature","id":"425_-1239","geometry":{"type":"Polygon","coordinates":[[[-123.95,42.45],[-123.85,42.45],[-123.85,42.55],[-123.95,42.55],[-123.95,42.45]]]},"properties":{"group":"cantharellus","week":"2026-10-05","chance":0.0225,"uncertainty_low":null,"uncertainty_high":null,"applicable":true,"drivers":[],"weather_through":null,"model_version":"pnw-pilot-t1-calendar-e2c272b7acfa"}},{"type":"Feature","id":"425_-1238","geometry":{"type":"Polygon","coordinates":[[[-123.85,42.45],[-123.75,42.45],[-123.75,42.55],[-123.85,42.55],[-123.85,42.45]]]},"properties":{"group":"cantharellus","week":"2026-10-05","chance":0.0221,"uncertainty_low":null,"uncertainty_high":null,"applicable":true,"drivers":[],"weather_through":null,"model_version":"pnw-pilot-t1-calendar-e2c272b7acfa"}},{"type":"Feature","id":"425_-1237","geometry":{"type":"Polygon","coordinates":[[[-123.75,42.45],[-123.65,42.45],[-123.65,42.55],[-123.75,42.55],[-123.75,42.45]]]},"properties":{"group":"cantharellus","week":"2026-10-05","chance":0.0221,"uncertainty_low":null,"uncertainty_high":null,"applicable":true,"drivers":[],"weather_through":null,"model_version":"pnw-pilot-t1-calendar-e2c272b7acfa"}},{"type":"Feature","id":"425_-1236","geometry":{"type":"Polygon","coordinates":[[[-123.65,42.45],[-123.55,42.45],[-123.55,42.55],[-123.65,42.55],[-123.65,42.45]]]},"properties":{"group":"cantharellus","week":"2026-10-05","chance":0.0221,"uncertainty_low":null,"uncertainty_high":null,"applicable":true,"drivers":[],"weather_through":null,"model_version":"pnw-pilot-t1-calendar-e2c272b7acfa"}},{"type":"Feature","id":"425_-1235","geometry":{"type":"Polygon","coordinates":[[[-123.55,42.45],[-123.45,42.45],[-123.45,42.55],[-123.55,42.55],[-123.55,42.45]]]},"properties":{"group":"cantharellus","week":"2026-10-05","chance":0.022,"uncertainty_low":null,"uncertainty_high":null,"applicable":true,"drivers":[],"weather_through":null,"model_version":"pnw-pilot-t1-calendar-e2c272b7acfa"}},{"type":"Feature","id":"425_-1234","geometry":{"type":"Polygon","coordinates":[[[-123.45,42.45],[-123.35,42.45],[-123.35,42.55],[-123.45,42.55],[-123.45,42.45]]]},"properties":{"group":"cantharellus","week":"2026-10-05","chance":0.0221,"uncertainty_low":null,"uncertainty_high":null,"applicable":true,"drivers":[],"weather_through":null,"model_version":"pnw-pilot-t1-calendar-e2c272b7acfa"}},{"type":"Feature","id":"425_-1233","geometry":{"type":"Polygon","coordinates":[[[-123.35,42.45],[-123.25,42.45],[-123.25,42.55],[-123.35,42.55],[-123.35,42.45]]]},"properties":{"group":"cantharellus","week":"2026-10-05","chance":0.0166,"uncertainty_low":null,"uncertainty_high":null,"applicable":true,"drivers":[],"weather_through":null,"model_version":"pnw-pilot-t1-calendar-e2c272b7acfa"}},{"type":"Feature","id":"425_-1232","geometry":{"type":"Polygon","coordinates":[[[-123.25,42.45],[-123.15,42.45],[-123.15,42.55],[-123.25,42.55],[-123.25,42.45]]]},"properties":{"group":"cantharellus","week":"2026-10-05","chance":0.0157,"uncertainty_low":null,"uncertainty_high":null,"applicable":true,"drivers":[],"weather_through":null,"model_version":"pnw-pilot-t1-calendar-e2c272b7acfa"}},{"type":"Feature","id":"425_-1231","geometry":{"type":"Polygon","coordinates":[[[-123.15,42.45],[-123.05,42.45],[-123.05,42.55],[-123.15,42.55],[-123.15,42.45]]]},"properties":{"group":"cantharellus","week":"2026-10-05","chance":0.0157,"uncertainty_low":null,"uncertainty_high":null,"applicable":true,"drivers":[],"weather_through":null,"model_version":"pnw-pilot-t1-calendar-e2c272b7acfa"}},{"type":"Feature","id":"426_-1240","geometry":{"type":"Polygon","coordinates":[[[-124.05,42.55],[-123.95,42.55],[-123.95,42.65],[-124.05,42.65],[-124.05,42.55]]]},"properties":{"group":"cantharellus","week":"2026-10-05","chance":0.0225,"uncertainty_low":null,"uncertainty_high":null,"applicable":true,"drivers":[],"weather_through":null,"model_version":"pnw-pilot-t1-calendar-e2c272b7acfa"}},{"type":"Feature","id":"426_-1239","geometry":{"type":"Polygon","coordinates":[[[-123.95,42.55],[-123.85,42.55],[-123.85,42.65],[-123.95,42.65],[-123.95,42.55]]]},"properties":{"group":"cantharellus","week":"2026-10-05","chance":0.0225,"uncertainty_low":null,"uncertainty_high":null,"applicable":true,"drivers":[],"weather_through":null,"model_version":"pnw-pilot-t1-calendar-e2c272b7acfa"}},{"type":"Feature","id":"426_-1238","geometry":{"type":"Polygon","coordinates":[[[-123.85,42.55],[-123.75,42.55],[-123.75,42.65],[-123.85,42.65],[-123.85,42.55]]]},"properties":{"group":"cantharellus","week":"2026-10-05","chance":0.0221,"uncertainty_low":null,"uncertainty_high":null,"applicable":true,"drivers":[],"weather_through":null,"model_version":"pnw-pilot-t1-calendar-e2c272b7acfa"}},{"type":"Feature","id":"426_-1237","geometry":{"type":"Polygon","coordinates":[[[-123.75,42.55],[-123.65,42.55],[-123.65,42.65],[-123.75,42.65],[-123.75,42.55]]]},"properties":{"group":"cantharellus","week":"2026-10-05","chance":0.0221,"uncertainty_low":null,"uncertainty_high":null,"applicable":true,"drivers":[],"weather_through":null,"model_version":"pnw-pilot-t1-calendar-e2c272b7acfa"}},{"type":"Feature","id":"426_-1236","geometry":{"type":"Polygon","coordinates":[[[-123.65,42.55],[-123.55,42.55],[-123.55,42.65],[-123.65,42.65],[-123.65,42.55]]]},"properties":{"group":"cantharellus","week":"2026-10-05","chance":0.0221,"uncertainty_low":null,"uncertainty_high":null,"applicable":true,"drivers":[],"weather_through":null,"model_version":"pnw-pilot-t1-calendar-e2c272b7acfa"}},{"type":"Feature","id":"426_-1235","geometry":{"type":"Polygon","coordinates":[[[-123.55,42.55],[-123.45,42.55],[-123.45,42.65],[-123.55,42.65],[-123.55,42.55]]]},"properties":{"group":"cantharellus","week":"2026-10-05","chance":0.022,"uncertainty_low":null,"uncertainty_high":null,"applicable":true,"drivers":[],"weather_through":null,"model_version":"pnw-pilot-t1-calendar-e2c272b7acfa"}},{"type":"Feature","id":"426_-1234","geometry":{"type":"Polygon","coordinates":[[[-123.45,42.55],[-123.35,42.55],[-123.35,42.65],[-123.45,42.65],[-123.45,42.55]]]},"properties":{"group":"cantharellus","week":"2026-10-05","chance":0.0221,"uncertainty_low":null,"uncertainty_high":null,"applicable":true,"drivers":[],"weather_through":null,"model_version":"pnw-pilot-t1-calendar-e2c272b7acfa"}},{"type":"Feature","id":"426_-1233","geometry":{"type":"Polygon","coordinates":[[[-123.35,42.55],[-123.25,42.55],[-123.25,42.65],[-123.35,42.65],[-123.35,42.55]]]},"properties":{"group":"cantharellus","week":"2026-10-05","chance":0.0166,"uncertainty_low":null,"uncertainty_high":null,"applicable":true,"drivers":[],"weather_through":null,"model_version":"pnw-pilot-t1-calendar-e2c272b7acfa"}},{"type":"Feature","id":"426_-1232","geometry":{"type":"Polygon","coordinates":[[[-123.25,42.55],[-123.15,42.55],[-123.15,42.65],[-123.25,42.65],[-123.25,42.55]]]},"properties":{"group":"cantharellus","week":"2026-10-05","chance":0.0157,"uncertainty_low":null,"uncertainty_high":null,"applicable":true,"drivers":[],"weather_through":null,"model_version":"pnw-pilot-t1-calendar-e2c272b7acfa"}},{"type":"Feature","id":"426_-1231","geometry":{"type":"Polygon","coordinates":[[[-123.15,42.55],[-123.05,42.55],[-123.05,42.65],[-123.15,42.65],[-123.15,42.55]]]},"properties":{"group":"cantharellus","week":"2026-10-05","chance":0.0157,"uncertainty_low":null,"uncertainty_high":null,"applicable":true,"drivers":[],"weather_through":null,"model_version":"pnw-pilot-t1-calendar-e2c272b7acfa"}},{"type":"Feature","id":"427_-1240","geometry":{"type":"Polygon","coordinates":[[[-124.05,42.65],[-123.95,42.65],[-123.95,42.75],[-124.05,42.75],[-124.05,42.65]]]},"properties":{"group":"cantharellus","week":"2026-10-05","chance":0.0225,"uncertainty_low":null,"uncertainty_high":null,"applicable":true,"drivers":[],"weather_through":null,"model_version":"pnw-pilot-t1-calendar-e2c272b7acfa"}},{"type":"Feature","id":"427_-1239","geometry":{"type":"Polygon","coordinates":[[[-123.95,42.65],[-123.85,42.65],[-123.85,42.75],[-123.95,42.75],[-123.95,42.65]]]},"properties":{"group":"cantharellus","week":"2026-10-05","chance":0.0225,"uncertainty_low":null,"uncertainty_high":null,"applicable":true,"drivers":[],"weather_through":null,"model_version":"pnw-pilot-t1-calendar-e2c272b7acfa"}},{"type":"Feature","id":"427_-1238","geometry":{"type":"Polygon","coordinates":[[[-123.85,42.65],[-123.75,42.65],[-123.75,42.75],[-123.85,42.75],[-123.85,42.65]]]},"properties":{"group":"cantharellus","week":"2026-10-05","chance":0.0221,"uncertainty_low":null,"uncertainty_high":null,"applicable":true,"drivers":[],"weather_through":null,"model_version":"pnw-pilot-t1-calendar-e2c272b7acfa"}},{"type":"Feature","id":"427_-1237","geometry":{"type":"Polygon","coordinates":[[[-123.75,42.65],[-123.65,42.65],[-123.65,42.75],[-123.75,42.75],[-123.75,42.65]]]},"properties":{"group":"cantharellus","week":"2026-10-05","chance":0.0221,"uncertainty_low":null,"uncertainty_high":null,"applicable":true,"drivers":[],"weather_through":null,"model_version":"pnw-pilot-t1-calendar-e2c272b7acfa"}},{"type":"Feature","id":"427_-1236","geometry":{"type":"Polygon","coordinates":[[[-123.65,42.65],[-123.55,42.65],[-123.55,42.75],[-123.65,42.75],[-123.65,42.65]]]},"properties":{"group":"cantharellus","week":"2026-10-05","chance":0.0221,"uncertainty_low":null,"uncertainty_high":null,"applicable":true,"drivers":[],"weather_through":null,"model_version":"pnw-pilot-t1-calendar-e2c272b7acfa"}},{"type":"Feature","id":"427_-1235","geometry":{"type":"Polygon","coordinates":[[[-123.55,42.65],[-123.45,42.65],[-123.45,42.75],[-123.55,42.75],[-123.55,42.65]]]},"properties":{"group":"cantharellus","week":"2026-10-05","chance":0.022,"uncertainty_low":null,"uncertainty_high":null,"applicable":true,"drivers":[],"weather_through":null,"model_version":"pnw-pilot-t1-calendar-e2c272b7acfa"}},{"type":"Feature","id":"427_-1234","geometry":{"type":"Polygon","coordinates":[[[-123.45,42.65],[-123.35,42.65],[-123.35,42.75],[-123.45,42.75],[-123.45,42.65]]]},"properties":{"group":"cantharellus","week":"2026-10-05","chance":0.0221,"uncertainty_low":null,"uncertainty_high":null,"applicable":true,"drivers":[],"weather_through":null,"model_version":"pnw-pilot-t1-calendar-e2c272b7acfa"}},{"type":"Feature","id":"427_-1233","geometry":{"type":"Polygon","coordinates":[[[-123.35,42.65],[-123.25,42.65],[-123.25,42.75],[-123.35,42.75],[-123.35,42.65]]]},"properties":{"group":"cantharellus","week":"2026-10-05","chance":0.0166,"uncertainty_low":null,"uncertainty_high":null,"applicable":true,"drivers":[],"weather_through":null,"model_version":"pnw-pilot-t1-calendar-e2c272b7acfa"}},{"type":"Feature","id":"427_-1232","geometry":{"type":"Polygon","coordinates":[[[-123.25,42.65],[-123.15,42.65],[-123.15,42.75],[-123.25,42.75],[-123.25,42.65]]]},"properties":{"group":"cantharellus","week":"2026-10-05","chance":0.0157,"uncertainty_low":null,"uncertainty_high":null,"applicable":true,"drivers":[],"weather_through":null,"model_version":"pnw-pilot-t1-calendar-e2c272b7acfa"}},{"type":"Feature","id":"427_-1231","geometry":{"type":"Polygon","coordinates":[[[-123.15,42.65],[-123.05,42.65],[-123.05,42.75],[-123.15,42.75],[-123.15,42.65]]]},"properties":{"group":"cantharellus","week":"2026-10-05","chance":0.0157,"uncertainty_low":null,"uncertainty_high":null,"applicable":true,"drivers":[],"weather_through":null,"model_version":"pnw-pilot-t1-calendar-e2c272b7acfa"}},{"type":"Feature","id":"428_-1240","geometry":{"type":"Polygon","coordinates":[[[-124.05,42.75],[-123.95,42.75],[-123.95,42.85],[-124.05,42.85],[-124.05,42.75]]]},"properties":{"group":"cantharellus","week":"2026-10-05","chance":0.0303,"uncertainty_low":null,"uncertainty_high":null,"applicable":true,"drivers":[],"weather_through":null,"model_version":"pnw-pilot-t1-calendar-e2c272b7acfa"}},{"type":"Feature","id":"428_-1239","geometry":{"type":"Polygon","coordinates":[[[-123.95,42.75],[-123.85,42.75],[-123.85,42.85],[-123.95,42.85],[-123.95,42.75]]]},"properties":{"group":"cantharellus","week":"2026-10-05","chance":0.0303,"uncertainty_low":null,"uncertainty_high":null,"applicable":true,"drivers":[],"weather_through":null,"model_version":"pnw-pilot-t1-calendar-e2c272b7acfa"}},{"type":"Feature","id":"428_-1238","geometry":{"type":"Polygon","coordinates":[[[-123.85,42.75],[-123.75,42.75],[-123.75,42.85],[-123.85,42.85],[-123.85,42.75]]]},"properties":{"group":"cantharellus","week":"2026-10-05","chance":0.0318,"uncertainty_low":null,"uncertainty_high":null,"applicable":true,"drivers":[],"weather_through":null,"model_version":"pnw-pilot-t1-calendar-e2c272b7acfa"}},{"type":"Feature","id":"428_-1237","geometry":{"type":"Polygon","coordinates":[[[-123.75,42.75],[-123.65,42.75],[-123.65,42.85],[-123.75,42.85],[-123.75,42.75]]]},"properties":{"group":"cantharellus","week":"2026-10-05","chance":0.0318,"uncertainty_low":null,"uncertainty_high":null,"applicable":true,"drivers":[],"weather_through":null,"model_version":"pnw-pilot-t1-calendar-e2c272b7acfa"}},{"type":"Feature","id":"428_-1236","geometry":{"type":"Polygon","coordinates":[[[-123.65,42.75],[-123.55,42.75],[-123.55,42.85],[-123.65,42.85],[-123.65,42.75]]]},"properties":{"group":"cantharellus","week":"2026-10-05","chance":0.0318,"uncertainty_low":null,"uncertainty_high":null,"applicable":true,"drivers":[],"weather_through":null,"model_version":"pnw-pilot-t1-calendar-e2c272b7acfa"}},{"type":"Feature","id":"428_-1235","geometry":{"type":"Polygon","coordinates":[[[-123.55,42.75],[-123.45,42.75],[-123.45,42.85],[-123.55,42.85],[-123.55,42.75]]]},"properties":{"group":"cantharellus","week":"2026-10-05","chance":0.0317,"uncertainty_low":null,"uncertainty_high":null,"applicable":true,"drivers":[],"weather_through":null,"model_version":"pnw-pilot-t1-calendar-e2c272b7acfa"}},{"type":"Feature","id":"428_-1234","geometry":{"type":"Polygon","coordinates":[[[-123.45,42.75],[-123.35,42.75],[-123.35,42.85],[-123.45,42.85],[-123.45,42.75]]]},"properties":{"group":"cantharellus","week":"2026-10-05","chance":0.0318,"uncertainty_low":null,"uncertainty_high":null,"applicable":true,"drivers":[],"weather_through":null,"model_version":"pnw-pilot-t1-calendar-e2c272b7acfa"}},{"type":"Feature","id":"428_-1233","geometry":{"type":"Polygon","coordinates":[[[-123.35,42.75],[-123.25,42.75],[-123.25,42.85],[-123.35,42.85],[-123.35,42.75]]]},"properties":{"group":"cantharellus","week":"2026-10-05","chance":0.0256,"uncertainty_low":null,"uncertainty_high":null,"applicable":true,"drivers":[],"weather_through":null,"model_version":"pnw-pilot-t1-calendar-e2c272b7acfa"}},{"type":"Feature","id":"428_-1232","geometry":{"type":"Polygon","coordinates":[[[-123.25,42.75],[-123.15,42.75],[-123.15,42.85],[-123.25,42.85],[-123.25,42.75]]]},"properties":{"group":"cantharellus","week":"2026-10-05","chance":0.0239,"uncertainty_low":null,"uncertainty_high":null,"applicable":true,"drivers":[],"weather_through":null,"model_version":"pnw-pilot-t1-calendar-e2c272b7acfa"}},{"type":"Feature","id":"428_-1231","geometry":{"type":"Polygon","coordinates":[[[-123.15,42.75],[-123.05,42.75],[-123.05,42.85],[-123.15,42.85],[-123.15,42.75]]]},"properties":{"group":"cantharellus","week":"2026-10-05","chance":0.0239,"uncertainty_low":null,"uncertainty_high":null,"applicable":true,"drivers":[],"weather_through":null,"model_version":"pnw-pilot-t1-calendar-e2c272b7acfa"}},{"type":"Feature","id":"429_-1240","geometry":{"type":"Polygon","coordinates":[[[-124.05,42.85],[-123.95,42.85],[-123.95,42.95],[-124.05,42.95],[-124.05,42.85]]]},"properties":{"group":"cantharellus","week":"2026-10-05","chance":0.0301,"uncertainty_low":null,"uncertainty_high":null,"applicable":true,"drivers":[],"weather_through":null,"model_version":"pnw-pilot-t1-calendar-e2c272b7acfa"}},{"type":"Feature","id":"429_-1239","geometry":{"type":"Polygon","coordinates":[[[-123.95,42.85],[-123.85,42.85],[-123.85,42.95],[-123.95,42.95],[-123.95,42.85]]]},"properties":{"group":"cantharellus","week":"2026-10-05","chance":0.0301,"uncertainty_low":null,"uncertainty_high":null,"applicable":true,"drivers":[],"weather_through":null,"model_version":"pnw-pilot-t1-calendar-e2c272b7acfa"}},{"type":"Feature","id":"429_-1238","geometry":{"type":"Polygon","coordinates":[[[-123.85,42.85],[-123.75,42.85],[-123.75,42.95],[-123.85,42.95],[-123.85,42.85]]]},"properties":{"group":"cantharellus","week":"2026-10-05","chance":0.0316,"uncertainty_low":null,"uncertainty_high":null,"applicable":true,"drivers":[],"weather_through":null,"model_version":"pnw-pilot-t1-calendar-e2c272b7acfa"}},{"type":"Feature","id":"429_-1237","geometry":{"type":"Polygon","coordinates":[[[-123.75,42.85],[-123.65,42.85],[-123.65,42.95],[-123.75,42.95],[-123.75,42.85]]]},"properties":{"group":"cantharellus","week":"2026-10-05","chance":0.0316,"uncertainty_low":null,"uncertainty_high":null,"applicable":true,"drivers":[],"weather_through":null,"model_version":"pnw-pilot-t1-calendar-e2c272b7acfa"}},{"type":"Feature","id":"429_-1236","geometry":{"type":"Polygon","coordinates":[[[-123.65,42.85],[-123.55,42.85],[-123.55,42.95],[-123.65,42.95],[-123.65,42.85]]]},"properties":{"group":"cantharellus","week":"2026-10-05","chance":0.0316,"uncertainty_low":null,"uncertainty_high":null,"applicable":true,"drivers":[],"weather_through":null,"model_version":"pnw-pilot-t1-calendar-e2c272b7acfa"}},{"type":"Feature","id":"429_-1235","geometry":{"type":"Polygon","coordinates":[[[-123.55,42.85],[-123.45,42.85],[-123.45,42.95],[-123.55,42.95],[-123.55,42.85]]]},"properties":{"group":"cantharellus","week":"2026-10-05","chance":0.0315,"uncertainty_low":null,"uncertainty_high":null,"applicable":true,"drivers":[],"weather_through":null,"model_version":"pnw-pilot-t1-calendar-e2c272b7acfa"}},{"type":"Feature","id":"429_-1234","geometry":{"type":"Polygon","coordinates":[[[-123.45,42.85],[-123.35,42.85],[-123.35,42.95],[-123.45,42.95],[-123.45,42.85]]]},"properties":{"group":"cantharellus","week":"2026-10-05","chance":0.0316,"uncertainty_low":null,"uncertainty_high":null,"applicable":true,"drivers":[],"weather_through":null,"model_version":"pnw-pilot-t1-calendar-e2c272b7acfa"}},{"type":"Feature","id":"429_-1233","geometry":{"type":"Polygon","coordinates":[[[-123.35,42.85],[-123.25,42.85],[-123.25,42.95],[-123.35,42.95],[-123.35,42.85]]]},"properties":{"group":"cantharellus","week":"2026-10-05","chance":0.0254,"uncertainty_low":null,"uncertainty_high":null,"applicable":true,"drivers":[],"weather_through":null,"model_version":"pnw-pilot-t1-calendar-e2c272b7acfa"}},{"type":"Feature","id":"429_-1232","geometry":{"type":"Polygon","coordinates":[[[-123.25,42.85],[-123.15,42.85],[-123.15,42.95],[-123.25,42.95],[-123.25,42.85]]]},"properties":{"group":"cantharellus","week":"2026-10-05","chance":0.0237,"uncertainty_low":null,"uncertainty_high":null,"applicable":true,"drivers":[],"weather_through":null,"model_version":"pnw-pilot-t1-calendar-e2c272b7acfa"}},{"type":"Feature","id":"429_-1231","geometry":{"type":"Polygon","coordinates":[[[-123.15,42.85],[-123.05,42.85],[-123.05,42.95],[-123.15,42.95],[-123.15,42.85]]]},"properties":{"group":"cantharellus","week":"2026-10-05","chance":0.0237,"uncertainty_low":null,"uncertainty_high":null,"applicable":true,"drivers":[],"weather_through":null,"model_version":"pnw-pilot-t1-calendar-e2c272b7acfa"}}]}