{"type":"FeatureCollection","features":[{"type":"Feature","id":"420_-1220","geometry":{"type":"Polygon","coordinates":[[[-122.05,41.95],[-121.95,41.95],[-121.95,42.05],[-122.05,42.05],[-122.05,41.95]]]},"properties":{"group":"cantharellus","week":"2026-10-05","chance":0.0475,"uncertainty_low":null,"uncertainty_high":null,"applicable":true,"drivers":[],"weather_through":null,"model_version":"pnw-pilot-t1-calendar-e2c272b7acfa"}},{"type":"Feature","id":"420_-1219","geometry":{"type":"Polygon","coordinates":[[[-121.95,41.95],[-121.85,41.95],[-121.85,42.05],[-121.95,42.05],[-121.95,41.95]]]},"properties":{"group":"cantharellus","week":"2026-10-05","chance":0.0494,"uncertainty_low":null,"uncertainty_high":null,"applicable":true,"drivers":[],"weather_through":null,"model_version":"pnw-pilot-t1-calendar-e2c272b7acfa"}},{"type":"Feature","id":"420_-1218","geometry":{"type":"Polygon","coordinates":[[[-121.85,41.95],[-121.75,41.95],[-121.75,42.05],[-121.85,42.05],[-121.85,41.95]]]},"properties":{"group":"cantharellus","week":"2026-10-05","chance":0.0367,"uncertainty_low":null,"uncertainty_high":null,"applicable":true,"drivers":[],"weather_through":null,"model_version":"pnw-pilot-t1-calendar-e2c272b7acfa"}},{"type":"Feature","id":"420_-1217","geometry":{"type":"Polygon","coordinates":[[[-121.75,41.95],[-121.65,41.95],[-121.65,42.05],[-121.75,42.05],[-121.75,41.95]]]},"properties":{"group":"cantharellus","week":"2026-10-05","chance":0.0367,"uncertainty_low":null,"uncertainty_high":null,"applicable":true,"drivers":[],"weather_through":null,"model_version":"pnw-pilot-t1-calendar-e2c272b7acfa"}},{"type":"Feature","id":"420_-1216","geometry":{"type":"Polygon","coordinates":[[[-121.65,41.95],[-121.55,41.95],[-121.55,42.05],[-121.65,42.05],[-121.65,41.95]]]},"properties":{"group":"cantharellus","week":"2026-10-05","chance":0.0417,"uncertainty_low":null,"uncertainty_high":null,"applicable":true,"drivers":[],"weather_through":null,"model_version":"pnw-pilot-t1-calendar-e2c272b7acfa"}},{"type":"Feature","id":"420_-1215","geometry":{"type":"Polygon","coordinates":[[[-121.55,41.95],[-121.45,41.95],[-121.45,42.05],[-121.55,42.05],[-121.55,41.95]]]},"properties":{"group":"cantharellus","week":"2026-10-05","chance":0.0237,"uncertainty_low":null,"uncertainty_high":null,"applicable":true,"drivers":[],"weather_through":null,"model_version":"pnw-pilot-t1-calendar-e2c272b7acfa"}},{"type":"Feature","id":"420_-1214","geometry":{"type":"Polygon","coordinates":[[[-121.45,41.95],[-121.35,41.95],[-121.35,42.05],[-121.45,42.05],[-121.45,41.95]]]},"properties":{"group":"cantharellus","week":"2026-10-05","chance":0.0223,"uncertainty_low":null,"uncertainty_high":null,"applicable":true,"drivers":[],"weather_through":null,"model_version":"pnw-pilot-t1-calendar-e2c272b7acfa"}},{"type":"Feature","id":"420_-1213","geometry":{"type":"Polygon","coordinates":[[[-121.35,41.95],[-121.25,41.95],[-121.25,42.05],[-121.35,42.05],[-121.35,41.95]]]},"properties":{"group":"cantharellus","week":"2026-10-05","chance":0.0223,"uncertainty_low":null,"uncertainty_high":null,"applicable":true,"drivers":[],"weather_through":null,"model_version":"pnw-pilot-t1-calendar-e2c272b7acfa"}},{"type":"Feature","id":"420_-1212","geometry":{"type":"Polygon","coordinates":[[[-121.25,41.95],[-121.15,41.95],[-121.15,42.05],[-121.25,42.05],[-121.25,41.95]]]},"properties":{"group":"cantharellus","week":"2026-10-05","chance":0.0223,"uncertainty_low":null,"uncertainty_high":null,"applicable":true,"drivers":[],"weather_through":null,"model_version":"pnw-pilot-t1-calendar-e2c272b7acfa"}},{"type":"Feature","id":"420_-1211","geometry":{"type":"Polygon","coordinates":[[[-121.15,41.95],[-121.05,41.95],[-121.05,42.05],[-121.15,42.05],[-121.15,41.95]]]},"properties":{"group":"cantharellus","week":"2026-10-05","chance":0.023,"uncertainty_low":null,"uncertainty_high":null,"applicable":true,"drivers":[],"weather_through":null,"model_version":"pnw-pilot-t1-calendar-e2c272b7acfa"}},{"type":"Feature","id":"421_-1220","geometry":{"type":"Polygon","coordinates":[[[-122.05,42.05],[-121.95,42.05],[-121.95,42.15],[-122.05,42.15],[-122.05,42.05]]]},"properties":{"group":"cantharellus","week":"2026-10-05","chance":0.0475,"uncertainty_low":null,"uncertainty_high":null,"applicable":true,"drivers":[],"weather_through":null,"model_version":"pnw-pilot-t1-calendar-e2c272b7acfa"}},{"type":"Feature","id":"421_-1219","geometry":{"type":"Polygon","coordinates":[[[-121.95,42.05],[-121.85,42.05],[-121.85,42.15],[-121.95,42.15],[-121.95,42.05]]]},"properties":{"group":"cantharellus","week":"2026-10-05","chance":0.0494,"uncertainty_low":null,"uncertainty_high":null,"applicable":true,"drivers":[],"weather_through":null,"model_version":"pnw-pilot-t1-calendar-e2c272b7acfa"}},{"type":"Feature","id":"421_-1218","geometry":{"type":"Polygon","coordinates":[[[-121.85,42.05],[-121.75,42.05],[-121.75,42.15],[-121.85,42.15],[-121.85,42.05]]]},"properties":{"group":"cantharellus","week":"2026-10-05","chance":0.0367,"uncertainty_low":null,"uncertainty_high":null,"applicable":true,"drivers":[],"weather_through":null,"model_version":"pnw-pilot-t1-calendar-e2c272b7acfa"}},{"type":"Feature","id":"421_-1217","geometry":{"type":"Polygon","coordinates":[[[-121.75,42.05],[-121.65,42.05],[-121.65,42.15],[-121.75,42.15],[-121.75,42.05]]]},"properties":{"group":"cantharellus","week":"2026-10-05","chance":0.0367,"uncertainty_low":null,"uncertainty_high":null,"applicable":true,"drivers":[],"weather_through":null,"model_version":"pnw-pilot-t1-calendar-e2c272b7acfa"}},{"type":"Feature","id":"421_-1216","geometry":{"type":"Polygon","coordinates":[[[-121.65,42.05],[-121.55,42.05],[-121.55,42.15],[-121.65,42.15],[-121.65,42.05]]]},"properties":{"group":"cantharellus","week":"2026-10-05","chance":0.0417,"uncertainty_low":null,"uncertainty_high":null,"applicable":true,"drivers":[],"weather_through":null,"model_version":"pnw-pilot-t1-calendar-e2c272b7acfa"}},{"type":"Feature","id":"421_-1215","geometry":{"type":"Polygon","coordinates":[[[-121.55,42.05],[-121.45,42.05],[-121.45,42.15],[-121.55,42.15],[-121.55,42.05]]]},"properties":{"group":"cantharellus","week":"2026-10-05","chance":0.0237,"uncertainty_low":null,"uncertainty_high":null,"applicable":true,"drivers":[],"weather_through":null,"model_version":"pnw-pilot-t1-calendar-e2c272b7acfa"}},{"type":"Feature","id":"421_-1214","geometry":{"type":"Polygon","coordinates":[[[-121.45,42.05],[-121.35,42.05],[-121.35,42.15],[-121.45,42.15],[-121.45,42.05]]]},"properties":{"group":"cantharellus","week":"2026-10-05","chance":0.0223,"uncertainty_low":null,"uncertainty_high":null,"applicable":true,"drivers":[],"weather_through":null,"model_version":"pnw-pilot-t1-calendar-e2c272b7acfa"}},{"type":"Feature","id":"421_-1213","geometry":{"type":"Polygon","coordinates":[[[-121.35,42.05],[-121.25,42.05],[-121.25,42.15],[-121.35,42.15],[-121.35,42.05]]]},"properties":{"group":"cantharellus","week":"2026-10-05","chance":0.0223,"uncertainty_low":null,"uncertainty_high":null,"applicable":true,"drivers":[],"weather_through":null,"model_version":"pnw-pilot-t1-calendar-e2c272b7acfa"}},{"type":"Feature","id":"421_-1212","geometry":{"type":"Polygon","coordinates":[[[-121.25,42.05],[-121.15,42.05],[-121.15,42.15],[-121.25,42.15],[-121.25,42.05]]]},"properties":{"group":"cantharellus","week":"2026-10-05","chance":0.0223,"uncertainty_low":null,"uncertainty_high":null,"applicable":true,"drivers":[],"weather_through":null,"model_version":"pnw-pilot-t1-calendar-e2c272b7acfa"}},{"type":"Feature","id":"421_-1211","geometry":{"type":"Polygon","coordinates":[[[-121.15,42.05],[-121.05,42.05],[-121.05,42.15],[-121.15,42.15],[-121.15,42.05]]]},"properties":{"group":"cantharellus","week":"2026-10-05","chance":0.023,"uncertainty_low":null,"uncertainty_high":null,"applicable":true,"drivers":[],"weather_through":null,"model_version":"pnw-pilot-t1-calendar-e2c272b7acfa"}},{"type":"Feature","id":"422_-1220","geometry":{"type":"Polygon","coordinates":[[[-122.05,42.15],[-121.95,42.15],[-121.95,42.25],[-122.05,42.25],[-122.05,42.15]]]},"properties":{"group":"cantharellus","week":"2026-10-05","chance":0.0475,"uncertainty_low":null,"uncertainty_high":null,"applicable":true,"drivers":[],"weather_through":null,"model_version":"pnw-pilot-t1-calendar-e2c272b7acfa"}},{"type":"Feature","id":"422_-1219","geometry":{"type":"Polygon","coordinates":[[[-121.95,42.15],[-121.85,42.15],[-121.85,42.25],[-121.95,42.25],[-121.95,42.15]]]},"properties":{"group":"cantharellus","week":"2026-10-05","chance":0.0494,"uncertainty_low":null,"uncertainty_high":null,"applicable":true,"drivers":[],"weather_through":null,"model_version":"pnw-pilot-t1-calendar-e2c272b7acfa"}},{"type":"Feature","id":"422_-1218","geometry":{"type":"Polygon","coordinates":[[[-121.85,42.15],[-121.75,42.15],[-121.75,42.25],[-121.85,42.25],[-121.85,42.15]]]},"properties":{"group":"cantharellus","week":"2026-10-05","chance":0.0367,"uncertainty_low":null,"uncertainty_high":null,"applicable":true,"drivers":[],"weather_through":null,"model_version":"pnw-pilot-t1-calendar-e2c272b7acfa"}},{"type":"Feature","id":"422_-1217","geometry":{"type":"Polygon","coordinates":[[[-121.75,42.15],[-121.65,42.15],[-121.65,42.25],[-121.75,42.25],[-121.75,42.15]]]},"properties":{"group":"cantharellus","week":"2026-10-05","chance":0.0367,"uncertainty_low":null,"uncertainty_high":null,"applicable":true,"drivers":[],"weather_through":null,"model_version":"pnw-pilot-t1-calendar-e2c272b7acfa"}},{"type":"Feature","id":"422_-1216","geometry":{"type":"Polygon","coordinates":[[[-121.65,42.15],[-121.55,42.15],[-121.55,42.25],[-121.65,42.25],[-121.65,42.15]]]},"properties":{"group":"cantharellus","week":"2026-10-05","chance":0.0417,"uncertainty_low":null,"uncertainty_high":null,"applicable":true,"drivers":[],"weather_through":null,"model_version":"pnw-pilot-t1-calendar-e2c272b7acfa"}},{"type":"Feature","id":"422_-1215","geometry":{"type":"Polygon","coordinates":[[[-121.55,42.15],[-121.45,42.15],[-121.45,42.25],[-121.55,42.25],[-121.55,42.15]]]},"properties":{"group":"cantharellus","week":"2026-10-05","chance":0.0237,"uncertainty_low":null,"uncertainty_high":null,"applicable":true,"drivers":[],"weather_through":null,"model_version":"pnw-pilot-t1-calendar-e2c272b7acfa"}},{"type":"Feature","id":"422_-1214","geometry":{"type":"Polygon","coordinates":[[[-121.45,42.15],[-121.35,42.15],[-121.35,42.25],[-121.45,42.25],[-121.45,42.15]]]},"properties":{"group":"cantharellus","week":"2026-10-05","chance":0.0223,"uncertainty_low":null,"uncertainty_high":null,"applicable":true,"drivers":[],"weather_through":null,"model_version":"pnw-pilot-t1-calendar-e2c272b7acfa"}},{"type":"Feature","id":"422_-1213","geometry":{"type":"Polygon","coordinates":[[[-121.35,42.15],[-121.25,42.15],[-121.25,42.25],[-121.35,42.25],[-121.35,42.15]]]},"properties":{"group":"cantharellus","week":"2026-10-05","chance":0.0223,"uncertainty_low":null,"uncertainty_high":null,"applicable":true,"drivers":[],"weather_through":null,"model_version":"pnw-pilot-t1-calendar-e2c272b7acfa"}},{"type":"Feature","id":"422_-1212","geometry":{"type":"Polygon","coordinates":[[[-121.25,42.15],[-121.15,42.15],[-121.15,42.25],[-121.25,42.25],[-121.25,42.15]]]},"properties":{"group":"cantharellus","week":"2026-10-05","chance":0.0223,"uncertainty_low":null,"uncertainty_high":null,"applicable":true,"drivers":[],"weather_through":null,"model_version":"pnw-pilot-t1-calendar-e2c272b7acfa"}},{"type":"Feature","id":"422_-1211","geometry":{"type":"Polygon","coordinates":[[[-121.15,42.15],[-121.05,42.15],[-121.05,42.25],[-121.15,42.25],[-121.15,42.15]]]},"properties":{"group":"cantharellus","week":"2026-10-05","chance":0.023,"uncertainty_low":null,"uncertainty_high":null,"applicable":true,"drivers":[],"weather_through":null,"model_version":"pnw-pilot-t1-calendar-e2c272b7acfa"}},{"type":"Feature","id":"423_-1220","geometry":{"type":"Polygon","coordinates":[[[-122.05,42.25],[-121.95,42.25],[-121.95,42.35],[-122.05,42.35],[-122.05,42.25]]]},"properties":{"group":"cantharellus","week":"2026-10-05","chance":0.0496,"uncertainty_low":null,"uncertainty_high":null,"applicable":true,"drivers":[],"weather_through":null,"model_version":"pnw-pilot-t1-calendar-e2c272b7acfa"}},{"type":"Feature","id":"423_-1219","geometry":{"type":"Polygon","coordinates":[[[-121.95,42.25],[-121.85,42.25],[-121.85,42.35],[-121.95,42.35],[-121.95,42.25]]]},"properties":{"group":"cantharellus","week":"2026-10-05","chance":0.0515,"uncertainty_low":null,"uncertainty_high":null,"applicable":true,"drivers":[],"weather_through":null,"model_version":"pnw-pilot-t1-calendar-e2c272b7acfa"}},{"type":"Feature","id":"423_-1218","geometry":{"type":"Polygon","coordinates":[[[-121.85,42.25],[-121.75,42.25],[-121.75,42.35],[-121.85,42.35],[-121.85,42.25]]]},"properties":{"group":"cantharellus","week":"2026-10-05","chance":0.0369,"uncertainty_low":null,"uncertainty_high":null,"applicable":true,"drivers":[],"weather_through":null,"model_version":"pnw-pilot-t1-calendar-e2c272b7acfa"}},{"type":"Feature","id":"423_-1217","geometry":{"type":"Polygon","coordinates":[[[-121.75,42.25],[-121.65,42.25],[-121.65,42.35],[-121.75,42.35],[-121.75,42.25]]]},"properties":{"group":"cantharellus","week":"2026-10-05","chance":0.0369,"uncertainty_low":null,"uncertainty_high":null,"applicable":true,"drivers":[],"weather_through":null,"model_version":"pnw-pilot-t1-calendar-e2c272b7acfa"}},{"type":"Feature","id":"423_-1216","geometry":{"type":"Polygon","coordinates":[[[-121.65,42.25],[-121.55,42.25],[-121.55,42.35],[-121.65,42.35],[-121.65,42.25]]]},"properties":{"group":"cantharellus","week":"2026-10-05","chance":0.0419,"uncertainty_low":null,"uncertainty_high":null,"applicable":true,"drivers":[],"weather_through":null,"model_version":"pnw-pilot-t1-calendar-e2c272b7acfa"}},{"type":"Feature","id":"423_-1215","geometry":{"type":"Polygon","coordinates":[[[-121.55,42.25],[-121.45,42.25],[-121.45,42.35],[-121.55,42.35],[-121.55,42.25]]]},"properties":{"group":"cantharellus","week":"2026-10-05","chance":0.0238,"uncertainty_low":null,"uncertainty_high":null,"applicable":true,"drivers":[],"weather_through":null,"model_version":"pnw-pilot-t1-calendar-e2c272b7acfa"}},{"type":"Feature","id":"423_-1214","geometry":{"type":"Polygon","coordinates":[[[-121.45,42.25],[-121.35,42.25],[-121.35,42.35],[-121.45,42.35],[-121.45,42.25]]]},"properties":{"group":"cantharellus","week":"2026-10-05","chance":0.0224,"uncertainty_low":null,"uncertainty_high":null,"applicable":true,"drivers":[],"weather_through":null,"model_version":"pnw-pilot-t1-calendar-e2c272b7acfa"}},{"type":"Feature","id":"423_-1213","geometry":{"type":"Polygon","coordinates":[[[-121.35,42.25],[-121.25,42.25],[-121.25,42.35],[-121.35,42.35],[-121.35,42.25]]]},"properties":{"group":"cantharellus","week":"2026-10-05","chance":0.0224,"uncertainty_low":null,"uncertainty_high":null,"applicable":true,"drivers":[],"weather_through":null,"model_version":"pnw-pilot-t1-calendar-e2c272b7acfa"}},{"type":"Feature","id":"423_-1212","geometry":{"type":"Polygon","coordinates":[[[-121.25,42.25],[-121.15,42.25],[-121.15,42.35],[-121.25,42.35],[-121.25,42.25]]]},"properties":{"group":"cantharellus","week":"2026-10-05","chance":0.0224,"uncertainty_low":null,"uncertainty_high":null,"applicable":true,"drivers":[],"weather_through":null,"model_version":"pnw-pilot-t1-calendar-e2c272b7acfa"}},{"type":"Feature","id":"423_-1211","geometry":{"type":"Polygon","coordinates":[[[-121.15,42.25],[-121.05,42.25],[-121.05,42.35],[-121.15,42.35],[-121.15,42.25]]]},"properties":{"group":"cantharellus","week":"2026-10-05","chance":0.0231,"uncertainty_low":null,"uncertainty_high":null,"applicable":true,"drivers":[],"weather_through":null,"model_version":"pnw-pilot-t1-calendar-e2c272b7acfa"}},{"type":"Feature","id":"424_-1220","geometry":{"type":"Polygon","coordinates":[[[-122.05,42.35],[-121.95,42.35],[-121.95,42.45],[-122.05,42.45],[-122.05,42.35]]]},"properties":{"group":"cantharellus","week":"2026-10-05","chance":0.0496,"uncertainty_low":null,"uncertainty_high":null,"applicable":true,"drivers":[],"weather_through":null,"model_version":"pnw-pilot-t1-calendar-e2c272b7acfa"}},{"type":"Feature","id":"424_-1219","geometry":{"type":"Polygon","coordinates":[[[-121.95,42.35],[-121.85,42.35],[-121.85,42.45],[-121.95,42.45],[-121.95,42.35]]]},"properties":{"group":"cantharellus","week":"2026-10-05","chance":0.0515,"uncertainty_low":null,"uncertainty_high":null,"applicable":true,"drivers":[],"weather_through":null,"model_version":"pnw-pilot-t1-calendar-e2c272b7acfa"}},{"type":"Feature","id":"424_-1218","geometry":{"type":"Polygon","coordinates":[[[-121.85,42.35],[-121.75,42.35],[-121.75,42.45],[-121.85,42.45],[-121.85,42.35]]]},"properties":{"group":"cantharellus","week":"2026-10-05","chance":0.0369,"uncertainty_low":null,"uncertainty_high":null,"applicable":true,"drivers":[],"weather_through":null,"model_version":"pnw-pilot-t1-calendar-e2c272b7acfa"}},{"type":"Feature","id":"424_-1217","geometry":{"type":"Polygon","coordinates":[[[-121.75,42.35],[-121.65,42.35],[-121.65,42.45],[-121.75,42.45],[-121.75,42.35]]]},"properties":{"group":"cantharellus","week":"2026-10-05","chance":0.0369,"uncertainty_low":null,"uncertainty_high":null,"applicable":true,"drivers":[],"weather_through":null,"model_version":"pnw-pilot-t1-calendar-e2c272b7acfa"}},{"type":"Feature","id":"424_-1216","geometry":{"type":"Polygon","coordinates":[[[-121.65,42.35],[-121.55,42.35],[-121.55,42.45],[-121.65,42.45],[-121.65,42.35]]]},"properties":{"group":"cantharellus","week":"2026-10-05","chance":0.0419,"uncertainty_low":null,"uncertainty_high":null,"applicable":true,"drivers":[],"weather_through":null,"model_version":"pnw-pilot-t1-calendar-e2c272b7acfa"}},{"type":"Feature","id":"424_-1215","geometry":{"type":"Polygon","coordinates":[[[-121.55,42.35],[-121.45,42.35],[-121.45,42.45],[-121.55,42.45],[-121.55,42.35]]]},"properties":{"group":"cantharellus","week":"2026-10-05","chance":0.0238,"uncertainty_low":null,"uncertainty_high":null,"applicable":true,"drivers":[],"weather_through":null,"model_version":"pnw-pilot-t1-calendar-e2c272b7acfa"}},{"type":"Feature","id":"424_-1214","geometry":{"type":"Polygon","coordinates":[[[-121.45,42.35],[-121.35,42.35],[-121.35,42.45],[-121.45,42.45],[-121.45,42.35]]]},"properties":{"group":"cantharellus","week":"2026-10-05","chance":0.0224,"uncertainty_low":null,"uncertainty_high":null,"applicable":true,"drivers":[],"weather_through":null,"model_version":"pnw-pilot-t1-calendar-e2c272b7acfa"}},{"type":"Feature","id":"424_-1213","geometry":{"type":"Polygon","coordinates":[[[-121.35,42.35],[-121.25,42.35],[-121.25,42.45],[-121.35,42.45],[-121.35,42.35]]]},"properties":{"group":"cantharellus","week":"2026-10-05","chance":0.0224,"uncertainty_low":null,"uncertainty_high":null,"applicable":true,"drivers":[],"weather_through":null,"model_version":"pnw-pilot-t1-calendar-e2c272b7acfa"}},{"type":"Feature","id":"424_-1212","geometry":{"type":"Polygon","coordinates":[[[-121.25,42.35],[-121.15,42.35],[-121.15,42.45],[-121.25,42.45],[-121.25,42.35]]]},"properties":{"group":"cantharellus","week":"2026-10-05","chance":0.0224,"uncertainty_low":null,"uncertainty_high":null,"applicable":true,"drivers":[],"weather_through":null,"model_version":"pnw-pilot-t1-calendar-e2c272b7acfa"}},{"type":"Feature","id":"424_-1211","geometry":{"type":"Polygon","coordinates":[[[-121.15,42.35],[-121.05,42.35],[-121.05,42.45],[-121.15,42.45],[-121.15,42.35]]]},"properties":{"group":"cantharellus","week":"2026-10-05","chance":0.0231,"uncertainty_low":null,"uncertainty_high":null,"applicable":true,"drivers":[],"weather_through":null,"model_version":"pnw-pilot-t1-calendar-e2c272b7acfa"}},{"type":"Feature","id":"425_-1220","geometry":{"type":"Polygon","coordinates":[[[-122.05,42.45],[-121.95,42.45],[-121.95,42.55],[-122.05,42.55],[-122.05,42.45]]]},"properties":{"group":"cantharellus","week":"2026-10-05","chance":0.0496,"uncertainty_low":null,"uncertainty_high":null,"applicable":true,"drivers":[],"weather_through":null,"model_version":"pnw-pilot-t1-calendar-e2c272b7acfa"}},{"type":"Feature","id":"425_-1219","geometry":{"type":"Polygon","coordinates":[[[-121.95,42.45],[-121.85,42.45],[-121.85,42.55],[-121.95,42.55],[-121.95,42.45]]]},"properties":{"group":"cantharellus","week":"2026-10-05","chance":0.0515,"uncertainty_low":null,"uncertainty_high":null,"applicable":true,"drivers":[],"weather_through":null,"model_version":"pnw-pilot-t1-calendar-e2c272b7acfa"}},{"type":"Feature","id":"425_-1218","geometry":{"type":"Polygon","coordinates":[[[-121.85,42.45],[-121.75,42.45],[-121.75,42.55],[-121.85,42.55],[-121.85,42.45]]]},"properties":{"group":"cantharellus","week":"2026-10-05","chance":0.0369,"uncertainty_low":null,"uncertainty_high":null,"applicable":true,"drivers":[],"weather_through":null,"model_version":"pnw-pilot-t1-calendar-e2c272b7acfa"}},{"type":"Feature","id":"425_-1217","geometry":{"type":"Polygon","coordinates":[[[-121.75,42.45],[-121.65,42.45],[-121.65,42.55],[-121.75,42.55],[-121.75,42.45]]]},"properties":{"group":"cantharellus","week":"2026-10-05","chance":0.0369,"uncertainty_low":null,"uncertainty_high":null,"applicable":true,"drivers":[],"weather_through":null,"model_version":"pnw-pilot-t1-calendar-e2c272b7acfa"}},{"type":"Feature","id":"425_-1216","geometry":{"type":"Polygon","coordinates":[[[-121.65,42.45],[-121.55,42.45],[-121.55,42.55],[-121.65,42.55],[-121.65,42.45]]]},"properties":{"group":"cantharellus","week":"2026-10-05","chance":0.0419,"uncertainty_low":null,"uncertainty_high":null,"applicable":true,"drivers":[],"weather_through":null,"model_version":"pnw-pilot-t1-calendar-e2c272b7acfa"}},{"type":"Feature","id":"425_-1215","geometry":{"type":"Polygon","coordinates":[[[-121.55,42.45],[-121.45,42.45],[-121.45,42.55],[-121.55,42.55],[-121.55,42.45]]]},"properties":{"group":"cantharellus","week":"2026-10-05","chance":0.0238,"uncertainty_low":null,"uncertainty_high":null,"applicable":true,"drivers":[],"weather_through":null,"model_version":"pnw-pilot-t1-calendar-e2c272b7acfa"}},{"type":"Feature","id":"425_-1214","geometry":{"type":"Polygon","coordinates":[[[-121.45,42.45],[-121.35,42.45],[-121.35,42.55],[-121.45,42.55],[-121.45,42.45]]]},"properties":{"group":"cantharellus","week":"2026-10-05","chance":0.0224,"uncertainty_low":null,"uncertainty_high":null,"applicable":true,"drivers":[],"weather_through":null,"model_version":"pnw-pilot-t1-calendar-e2c272b7acfa"}},{"type":"Feature","id":"425_-1213","geometry":{"type":"Polygon","coordinates":[[[-121.35,42.45],[-121.25,42.45],[-121.25,42.55],[-121.35,42.55],[-121.35,42.45]]]},"properties":{"group":"cantharellus","week":"2026-10-05","chance":0.0224,"uncertainty_low":null,"uncertainty_high":null,"applicable":true,"drivers":[],"weather_through":null,"model_version":"pnw-pilot-t1-calendar-e2c272b7acfa"}},{"type":"Feature","id":"425_-1212","geometry":{"type":"Polygon","coordinates":[[[-121.25,42.45],[-121.15,42.45],[-121.15,42.55],[-121.25,42.55],[-121.25,42.45]]]},"properties":{"group":"cantharellus","week":"2026-10-05","chance":0.0224,"uncertainty_low":null,"uncertainty_high":null,"applicable":true,"drivers":[],"weather_through":null,"model_version":"pnw-pilot-t1-calendar-e2c272b7acfa"}},{"type":"Feature","id":"425_-1211","geometry":{"type":"Polygon","coordinates":[[[-121.15,42.45],[-121.05,42.45],[-121.05,42.55],[-121.15,42.55],[-121.15,42.45]]]},"properties":{"group":"cantharellus","week":"2026-10-05","chance":0.0231,"uncertainty_low":null,"uncertainty_high":null,"applicable":true,"drivers":[],"weather_through":null,"model_version":"pnw-pilot-t1-calendar-e2c272b7acfa"}},{"type":"Feature","id":"426_-1220","geometry":{"type":"Polygon","coordinates":[[[-122.05,42.55],[-121.95,42.55],[-121.95,42.65],[-122.05,42.65],[-122.05,42.55]]]},"properties":{"group":"cantharellus","week":"2026-10-05","chance":0.0496,"uncertainty_low":null,"uncertainty_high":null,"applicable":true,"drivers":[],"weather_through":null,"model_version":"pnw-pilot-t1-calendar-e2c272b7acfa"}},{"type":"Feature","id":"426_-1219","geometry":{"type":"Polygon","coordinates":[[[-121.95,42.55],[-121.85,42.55],[-121.85,42.65],[-121.95,42.65],[-121.95,42.55]]]},"properties":{"group":"cantharellus","week":"2026-10-05","chance":0.0515,"uncertainty_low":null,"uncertainty_high":null,"applicable":true,"drivers":[],"weather_through":null,"model_version":"pnw-pilot-t1-calendar-e2c272b7acfa"}},{"type":"Feature","id":"426_-1218","geometry":{"type":"Polygon","coordinates":[[[-121.85,42.55],[-121.75,42.55],[-121.75,42.65],[-121.85,42.65],[-121.85,42.55]]]},"properties":{"group":"cantharellus","week":"2026-10-05","chance":0.0369,"uncertainty_low":null,"uncertainty_high":null,"applicable":true,"drivers":[],"weather_through":null,"model_version":"pnw-pilot-t1-calendar-e2c272b7acfa"}},{"type":"Feature","id":"426_-1217","geometry":{"type":"Polygon","coordinates":[[[-121.75,42.55],[-121.65,42.55],[-121.65,42.65],[-121.75,42.65],[-121.75,42.55]]]},"properties":{"group":"cantharellus","week":"2026-10-05","chance":0.0369,"uncertainty_low":null,"uncertainty_high":null,"applicable":true,"drivers":[],"weather_through":null,"model_version":"pnw-pilot-t1-calendar-e2c272b7acfa"}},{"type":"Feature","id":"426_-1216","geometry":{"type":"Polygon","coordinates":[[[-121.65,42.55],[-121.55,42.55],[-121.55,42.65],[-121.65,42.65],[-121.65,42.55]]]},"properties":{"group":"cantharellus","week":"2026-10-05","chance":0.0419,"uncertainty_low":null,"uncertainty_high":null,"applicable":true,"drivers":[],"weather_through":null,"model_version":"pnw-pilot-t1-calendar-e2c272b7acfa"}},{"type":"Feature","id":"426_-1215","geometry":{"type":"Polygon","coordinates":[[[-121.55,42.55],[-121.45,42.55],[-121.45,42.65],[-121.55,42.65],[-121.55,42.55]]]},"properties":{"group":"cantharellus","week":"2026-10-05","chance":0.0238,"uncertainty_low":null,"uncertainty_high":null,"applicable":true,"drivers":[],"weather_through":null,"model_version":"pnw-pilot-t1-calendar-e2c272b7acfa"}},{"type":"Feature","id":"426_-1214","geometry":{"type":"Polygon","coordinates":[[[-121.45,42.55],[-121.35,42.55],[-121.35,42.65],[-121.45,42.65],[-121.45,42.55]]]},"properties":{"group":"cantharellus","week":"2026-10-05","chance":0.0224,"uncertainty_low":null,"uncertainty_high":null,"applicable":true,"drivers":[],"weather_through":null,"model_version":"pnw-pilot-t1-calendar-e2c272b7acfa"}},{"type":"Feature","id":"426_-1213","geometry":{"type":"Polygon","coordinates":[[[-121.35,42.55],[-121.25,42.55],[-121.25,42.65],[-121.35,42.65],[-121.35,42.55]]]},"properties":{"group":"cantharellus","week":"2026-10-05","chance":0.0224,"uncertainty_low":null,"uncertainty_high":null,"applicable":true,"drivers":[],"weather_through":null,"model_version":"pnw-pilot-t1-calendar-e2c272b7acfa"}},{"type":"Feature","id":"426_-1212","geometry":{"type":"Polygon","coordinates":[[[-121.25,42.55],[-121.15,42.55],[-121.15,42.65],[-121.25,42.65],[-121.25,42.55]]]},"properties":{"group":"cantharellus","week":"2026-10-05","chance":0.0224,"uncertainty_low":null,"uncertainty_high":null,"applicable":true,"drivers":[],"weather_through":null,"model_version":"pnw-pilot-t1-calendar-e2c272b7acfa"}},{"type":"Feature","id":"426_-1211","geometry":{"type":"Polygon","coordinates":[[[-121.15,42.55],[-121.05,42.55],[-121.05,42.65],[-121.15,42.65],[-121.15,42.55]]]},"properties":{"group":"cantharellus","week":"2026-10-05","chance":0.0231,"uncertainty_low":null,"uncertainty_high":null,"applicable":true,"drivers":[],"weather_through":null,"model_version":"pnw-pilot-t1-calendar-e2c272b7acfa"}},{"type":"Feature","id":"427_-1220","geometry":{"type":"Polygon","coordinates":[[[-122.05,42.65],[-121.95,42.65],[-121.95,42.75],[-122.05,42.75],[-122.05,42.65]]]},"properties":{"group":"cantharellus","week":"2026-10-05","chance":0.0496,"uncertainty_low":null,"uncertainty_high":null,"applicable":true,"drivers":[],"weather_through":null,"model_version":"pnw-pilot-t1-calendar-e2c272b7acfa"}},{"type":"Feature","id":"427_-1219","geometry":{"type":"Polygon","coordinates":[[[-121.95,42.65],[-121.85,42.65],[-121.85,42.75],[-121.95,42.75],[-121.95,42.65]]]},"properties":{"group":"cantharellus","week":"2026-10-05","chance":0.0515,"uncertainty_low":null,"uncertainty_high":null,"applicable":true,"drivers":[],"weather_through":null,"model_version":"pnw-pilot-t1-calendar-e2c272b7acfa"}},{"type":"Feature","id":"427_-1218","geometry":{"type":"Polygon","coordinates":[[[-121.85,42.65],[-121.75,42.65],[-121.75,42.75],[-121.85,42.75],[-121.85,42.65]]]},"properties":{"group":"cantharellus","week":"2026-10-05","chance":0.0369,"uncertainty_low":null,"uncertainty_high":null,"applicable":true,"drivers":[],"weather_through":null,"model_version":"pnw-pilot-t1-calendar-e2c272b7acfa"}},{"type":"Feature","id":"427_-1217","geometry":{"type":"Polygon","coordinates":[[[-121.75,42.65],[-121.65,42.65],[-121.65,42.75],[-121.75,42.75],[-121.75,42.65]]]},"properties":{"group":"cantharellus","week":"2026-10-05","chance":0.0369,"uncertainty_low":null,"uncertainty_high":null,"applicable":true,"drivers":[],"weather_through":null,"model_version":"pnw-pilot-t1-calendar-e2c272b7acfa"}},{"type":"Feature","id":"427_-1216","geometry":{"type":"Polygon","coordinates":[[[-121.65,42.65],[-121.55,42.65],[-121.55,42.75],[-121.65,42.75],[-121.65,42.65]]]},"properties":{"group":"cantharellus","week":"2026-10-05","chance":0.0419,"uncertainty_low":null,"uncertainty_high":null,"applicable":true,"drivers":[],"weather_through":null,"model_version":"pnw-pilot-t1-calendar-e2c272b7acfa"}},{"type":"Feature","id":"427_-1215","geometry":{"type":"Polygon","coordinates":[[[-121.55,42.65],[-121.45,42.65],[-121.45,42.75],[-121.55,42.75],[-121.55,42.65]]]},"properties":{"group":"cantharellus","week":"2026-10-05","chance":0.0238,"uncertainty_low":null,"uncertainty_high":null,"applicable":true,"drivers":[],"weather_through":null,"model_version":"pnw-pilot-t1-calendar-e2c272b7acfa"}},{"type":"Feature","id":"427_-1214","geometry":{"type":"Polygon","coordinates":[[[-121.45,42.65],[-121.35,42.65],[-121.35,42.75],[-121.45,42.75],[-121.45,42.65]]]},"properties":{"group":"cantharellus","week":"2026-10-05","chance":0.0224,"uncertainty_low":null,"uncertainty_high":null,"applicable":true,"drivers":[],"weather_through":null,"model_version":"pnw-pilot-t1-calendar-e2c272b7acfa"}},{"type":"Feature","id":"427_-1213","geometry":{"type":"Polygon","coordinates":[[[-121.35,42.65],[-121.25,42.65],[-121.25,42.75],[-121.35,42.75],[-121.35,42.65]]]},"properties":{"group":"cantharellus","week":"2026-10-05","chance":0.0224,"uncertainty_low":null,"uncertainty_high":null,"applicable":true,"drivers":[],"weather_through":null,"model_version":"pnw-pilot-t1-calendar-e2c272b7acfa"}},{"type":"Feature","id":"427_-1212","geometry":{"type":"Polygon","coordinates":[[[-121.25,42.65],[-121.15,42.65],[-121.15,42.75],[-121.25,42.75],[-121.25,42.65]]]},"properties":{"group":"cantharellus","week":"2026-10-05","chance":0.0224,"uncertainty_low":null,"uncertainty_high":null,"applicable":true,"drivers":[],"weather_through":null,"model_version":"pnw-pilot-t1-calendar-e2c272b7acfa"}},{"type":"Feature","id":"427_-1211","geometry":{"type":"Polygon","coordinates":[[[-121.15,42.65],[-121.05,42.65],[-121.05,42.75],[-121.15,42.75],[-121.15,42.65]]]},"properties":{"group":"cantharellus","week":"2026-10-05","chance":0.0231,"uncertainty_low":null,"uncertainty_high":null,"applicable":true,"drivers":[],"weather_through":null,"model_version":"pnw-pilot-t1-calendar-e2c272b7acfa"}},{"type":"Feature","id":"428_-1220","geometry":{"type":"Polygon","coordinates":[[[-122.05,42.75],[-121.95,42.75],[-121.95,42.85],[-122.05,42.85],[-122.05,42.75]]]},"properties":{"group":"cantharellus","week":"2026-10-05","chance":0.0684,"uncertainty_low":null,"uncertainty_high":null,"applicable":true,"drivers":[],"weather_through":null,"model_version":"pnw-pilot-t1-calendar-e2c272b7acfa"}},{"type":"Feature","id":"428_-1219","geometry":{"type":"Polygon","coordinates":[[[-121.95,42.75],[-121.85,42.75],[-121.85,42.85],[-121.95,42.85],[-121.95,42.75]]]},"properties":{"group":"cantharellus","week":"2026-10-05","chance":0.071,"uncertainty_low":null,"uncertainty_high":null,"applicable":true,"drivers":[],"weather_through":null,"model_version":"pnw-pilot-t1-calendar-e2c272b7acfa"}},{"type":"Feature","id":"428_-1218","geometry":{"type":"Polygon","coordinates":[[[-121.85,42.75],[-121.75,42.75],[-121.75,42.85],[-121.85,42.85],[-121.85,42.75]]]},"properties":{"group":"cantharellus","week":"2026-10-05","chance":0.0498,"uncertainty_low":null,"uncertainty_high":null,"applicable":true,"drivers":[],"weather_through":null,"model_version":"pnw-pilot-t1-calendar-e2c272b7acfa"}},{"type":"Feature","id":"428_-1217","geometry":{"type":"Polygon","coordinates":[[[-121.75,42.75],[-121.65,42.75],[-121.65,42.85],[-121.75,42.85],[-121.75,42.75]]]},"properties":{"group":"cantharellus","week":"2026-10-05","chance":0.0498,"uncertainty_low":null,"uncertainty_high":null,"applicable":true,"drivers":[],"weather_through":null,"model_version":"pnw-pilot-t1-calendar-e2c272b7acfa"}},{"type":"Feature","id":"428_-1216","geometry":{"type":"Polygon","coordinates":[[[-121.65,42.75],[-121.55,42.75],[-121.55,42.85],[-121.65,42.85],[-121.65,42.75]]]},"properties":{"group":"cantharellus","week":"2026-10-05","chance":0.0564,"uncertainty_low":null,"uncertainty_high":null,"applicable":true,"drivers":[],"weather_through":null,"model_version":"pnw-pilot-t1-calendar-e2c272b7acfa"}},{"type":"Feature","id":"428_-1215","geometry":{"type":"Polygon","coordinates":[[[-121.55,42.75],[-121.45,42.75],[-121.45,42.85],[-121.55,42.85],[-121.55,42.75]]]},"properties":{"group":"cantharellus","week":"2026-10-05","chance":0.0323,"uncertainty_low":null,"uncertainty_high":null,"applicable":true,"drivers":[],"weather_through":null,"model_version":"pnw-pilot-t1-calendar-e2c272b7acfa"}},{"type":"Feature","id":"428_-1214","geometry":{"type":"Polygon","coordinates":[[[-121.45,42.75],[-121.35,42.75],[-121.35,42.85],[-121.45,42.85],[-121.45,42.75]]]},"properties":{"group":"cantharellus","week":"2026-10-05","chance":0.0304,"uncertainty_low":null,"uncertainty_high":null,"applicable":true,"drivers":[],"weather_through":null,"model_version":"pnw-pilot-t1-calendar-e2c272b7acfa"}},{"type":"Feature","id":"428_-1213","geometry":{"type":"Polygon","coordinates":[[[-121.35,42.75],[-121.25,42.75],[-121.25,42.85],[-121.35,42.85],[-121.35,42.75]]]},"properties":{"group":"cantharellus","week":"2026-10-05","chance":0.0304,"uncertainty_low":null,"uncertainty_high":null,"applicable":true,"drivers":[],"weather_through":null,"model_version":"pnw-pilot-t1-calendar-e2c272b7acfa"}},{"type":"Feature","id":"428_-1212","geometry":{"type":"Polygon","coordinates":[[[-121.25,42.75],[-121.15,42.75],[-121.15,42.85],[-121.25,42.85],[-121.25,42.75]]]},"properties":{"group":"cantharellus","week":"2026-10-05","chance":0.0304,"uncertainty_low":null,"uncertainty_high":null,"applicable":true,"drivers":[],"weather_through":null,"model_version":"pnw-pilot-t1-calendar-e2c272b7acfa"}},{"type":"Feature","id":"428_-1211","geometry":{"type":"Polygon","coordinates":[[[-121.15,42.75],[-121.05,42.75],[-121.05,42.85],[-121.15,42.85],[-121.15,42.75]]]},"properties":{"group":"cantharellus","week":"2026-10-05","chance":0.0313,"uncertainty_low":null,"uncertainty_high":null,"applicable":true,"drivers":[],"weather_through":null,"model_version":"pnw-pilot-t1-calendar-e2c272b7acfa"}},{"type":"Feature","id":"429_-1220","geometry":{"type":"Polygon","coordinates":[[[-122.05,42.85],[-121.95,42.85],[-121.95,42.95],[-122.05,42.95],[-122.05,42.85]]]},"properties":{"group":"cantharellus","week":"2026-10-05","chance":0.068,"uncertainty_low":null,"uncertainty_high":null,"applicable":true,"drivers":[],"weather_through":null,"model_version":"pnw-pilot-t1-calendar-e2c272b7acfa"}},{"type":"Feature","id":"429_-1219","geometry":{"type":"Polygon","coordinates":[[[-121.95,42.85],[-121.85,42.85],[-121.85,42.95],[-121.95,42.95],[-121.95,42.85]]]},"properties":{"group":"cantharellus","week":"2026-10-05","chance":0.0705,"uncertainty_low":null,"uncertainty_high":null,"applicable":true,"drivers":[],"weather_through":null,"model_version":"pnw-pilot-t1-calendar-e2c272b7acfa"}},{"type":"Feature","id":"429_-1218","geometry":{"type":"Polygon","coordinates":[[[-121.85,42.85],[-121.75,42.85],[-121.75,42.95],[-121.85,42.95],[-121.85,42.85]]]},"properties":{"group":"cantharellus","week":"2026-10-05","chance":0.0494,"uncertainty_low":null,"uncertainty_high":null,"applicable":true,"drivers":[],"weather_through":null,"model_version":"pnw-pilot-t1-calendar-e2c272b7acfa"}},{"type":"Feature","id":"429_-1217","geometry":{"type":"Polygon","coordinates":[[[-121.75,42.85],[-121.65,42.85],[-121.65,42.95],[-121.75,42.95],[-121.75,42.85]]]},"properties":{"group":"cantharellus","week":"2026-10-05","chance":0.0494,"uncertainty_low":null,"uncertainty_high":null,"applicable":true,"drivers":[],"weather_through":null,"model_version":"pnw-pilot-t1-calendar-e2c272b7acfa"}},{"type":"Feature","id":"429_-1216","geometry":{"type":"Polygon","coordinates":[[[-121.65,42.85],[-121.55,42.85],[-121.55,42.95],[-121.65,42.95],[-121.65,42.85]]]},"properties":{"group":"cantharellus","week":"2026-10-05","chance":0.056,"uncertainty_low":null,"uncertainty_high":null,"applicable":true,"drivers":[],"weather_through":null,"model_version":"pnw-pilot-t1-calendar-e2c272b7acfa"}},{"type":"Feature","id":"429_-1215","geometry":{"type":"Polygon","coordinates":[[[-121.55,42.85],[-121.45,42.85],[-121.45,42.95],[-121.55,42.95],[-121.55,42.85]]]},"properties":{"group":"cantharellus","week":"2026-10-05","chance":0.0321,"uncertainty_low":null,"uncertainty_high":null,"applicable":true,"drivers":[],"weather_through":null,"model_version":"pnw-pilot-t1-calendar-e2c272b7acfa"}},{"type":"Feature","id":"429_-1214","geometry":{"type":"Polygon","coordinates":[[[-121.45,42.85],[-121.35,42.85],[-121.35,42.95],[-121.45,42.95],[-121.45,42.85]]]},"properties":{"group":"cantharellus","week":"2026-10-05","chance":0.0302,"uncertainty_low":null,"uncertainty_high":null,"applicable":true,"drivers":[],"weather_through":null,"model_version":"pnw-pilot-t1-calendar-e2c272b7acfa"}},{"type":"Feature","id":"429_-1213","geometry":{"type":"Polygon","coordinates":[[[-121.35,42.85],[-121.25,42.85],[-121.25,42.95],[-121.35,42.95],[-121.35,42.85]]]},"properties":{"group":"cantharellus","week":"2026-10-05","chance":0.0302,"uncertainty_low":null,"uncertainty_high":null,"applicable":true,"drivers":[],"weather_through":null,"model_version":"pnw-pilot-t1-calendar-e2c272b7acfa"}},{"type":"Feature","id":"429_-1212","geometry":{"type":"Polygon","coordinates":[[[-121.25,42.85],[-121.15,42.85],[-121.15,42.95],[-121.25,42.95],[-121.25,42.85]]]},"properties":{"group":"cantharellus","week":"2026-10-05","chance":0.0302,"uncertainty_low":null,"uncertainty_high":null,"applicable":true,"drivers":[],"weather_through":null,"model_version":"pnw-pilot-t1-calendar-e2c272b7acfa"}},{"type":"Feature","id":"429_-1211","geometry":{"type":"Polygon","coordinates":[[[-121.15,42.85],[-121.05,42.85],[-121.05,42.95],[-121.15,42.95],[-121.15,42.85]]]},"properties":{"group":"cantharellus","week":"2026-10-05","chance":0.0311,"uncertainty_low":null,"uncertainty_high":null,"applicable":true,"drivers":[],"weather_through":null,"model_version":"pnw-pilot-t1-calendar-e2c272b7acfa"}}]}