{"type":"FeatureCollection","features":[{"type":"Feature","id":"430_-1246","geometry":{"type":"Polygon","coordinates":[[[-124.65,42.95],[-124.55,42.95],[-124.55,43.05],[-124.65,43.05],[-124.65,42.95]]]},"properties":{"group":"cantharellus","week":"2026-10-05","chance":0.0409,"uncertainty_low":null,"uncertainty_high":null,"applicable":true,"drivers":[],"weather_through":null,"model_version":"pnw-pilot-t1-calendar-e2c272b7acfa"}},{"type":"Feature","id":"430_-1245","geometry":{"type":"Polygon","coordinates":[[[-124.55,42.95],[-124.45,42.95],[-124.45,43.05],[-124.55,43.05],[-124.55,42.95]]]},"properties":{"group":"cantharellus","week":"2026-10-05","chance":0.0409,"uncertainty_low":null,"uncertainty_high":null,"applicable":true,"drivers":[],"weather_through":null,"model_version":"pnw-pilot-t1-calendar-e2c272b7acfa"}},{"type":"Feature","id":"430_-1244","geometry":{"type":"Polygon","coordinates":[[[-124.45,42.95],[-124.35,42.95],[-124.35,43.05],[-124.45,43.05],[-124.45,42.95]]]},"properties":{"group":"cantharellus","week":"2026-10-05","chance":0.0409,"uncertainty_low":null,"uncertainty_high":null,"applicable":true,"drivers":[],"weather_through":null,"model_version":"pnw-pilot-t1-calendar-e2c272b7acfa"}},{"type":"Feature","id":"430_-1243","geometry":{"type":"Polygon","coordinates":[[[-124.35,42.95],[-124.25,42.95],[-124.25,43.05],[-124.35,43.05],[-124.35,42.95]]]},"properties":{"group":"cantharellus","week":"2026-10-05","chance":0.0419,"uncertainty_low":null,"uncertainty_high":null,"applicable":true,"drivers":[],"weather_through":null,"model_version":"pnw-pilot-t1-calendar-e2c272b7acfa"}},{"type":"Feature","id":"430_-1242","geometry":{"type":"Polygon","coordinates":[[[-124.25,42.95],[-124.15,42.95],[-124.15,43.05],[-124.25,43.05],[-124.25,42.95]]]},"properties":{"group":"cantharellus","week":"2026-10-05","chance":0.0484,"uncertainty_low":null,"uncertainty_high":null,"applicable":true,"drivers":[],"weather_through":null,"model_version":"pnw-pilot-t1-calendar-e2c272b7acfa"}},{"type":"Feature","id":"430_-1241","geometry":{"type":"Polygon","coordinates":[[[-124.15,42.95],[-124.05,42.95],[-124.05,43.05],[-124.15,43.05],[-124.15,42.95]]]},"properties":{"group":"cantharellus","week":"2026-10-05","chance":0.0435,"uncertainty_low":null,"uncertainty_high":null,"applicable":true,"drivers":[],"weather_through":null,"model_version":"pnw-pilot-t1-calendar-e2c272b7acfa"}},{"type":"Feature","id":"431_-1245","geometry":{"type":"Polygon","coordinates":[[[-124.55,43.05],[-124.45,43.05],[-124.45,43.15],[-124.55,43.15],[-124.55,43.05]]]},"properties":{"group":"cantharellus","week":"2026-10-05","chance":0.0561,"uncertainty_low":null,"uncertainty_high":null,"applicable":true,"drivers":[],"weather_through":null,"model_version":"pnw-pilot-t1-calendar-e2c272b7acfa"}},{"type":"Feature","id":"431_-1244","geometry":{"type":"Polygon","coordinates":[[[-124.45,43.05],[-124.35,43.05],[-124.35,43.15],[-124.45,43.15],[-124.45,43.05]]]},"properties":{"group":"cantharellus","week":"2026-10-05","chance":0.0561,"uncertainty_low":null,"uncertainty_high":null,"applicable":true,"drivers":[],"weather_through":null,"model_version":"pnw-pilot-t1-calendar-e2c272b7acfa"}},{"type":"Feature","id":"431_-1243","geometry":{"type":"Polygon","coordinates":[[[-124.35,43.05],[-124.25,43.05],[-124.25,43.15],[-124.35,43.15],[-124.35,43.05]]]},"properties":{"group":"cantharellus","week":"2026-10-05","chance":0.0575,"uncertainty_low":null,"uncertainty_high":null,"applicable":true,"drivers":[],"weather_through":null,"model_version":"pnw-pilot-t1-calendar-e2c272b7acfa"}},{"type":"Feature","id":"431_-1242","geometry":{"type":"Polygon","coordinates":[[[-124.25,43.05],[-124.15,43.05],[-124.15,43.15],[-124.25,43.15],[-124.25,43.05]]]},"properties":{"group":"cantharellus","week":"2026-10-05","chance":0.0663,"uncertainty_low":null,"uncertainty_high":null,"applicable":true,"drivers":[],"weather_through":null,"model_version":"pnw-pilot-t1-calendar-e2c272b7acfa"}},{"type":"Feature","id":"431_-1241","geometry":{"type":"Polygon","coordinates":[[[-124.15,43.05],[-124.05,43.05],[-124.05,43.15],[-124.15,43.15],[-124.15,43.05]]]},"properties":{"group":"cantharellus","week":"2026-10-05","chance":0.0596,"uncertainty_low":null,"uncertainty_high":null,"applicable":true,"drivers":[],"weather_through":null,"model_version":"pnw-pilot-t1-calendar-e2c272b7acfa"}},{"type":"Feature","id":"432_-1245","geometry":{"type":"Polygon","coordinates":[[[-124.55,43.15],[-124.45,43.15],[-124.45,43.25],[-124.55,43.25],[-124.55,43.15]]]},"properties":{"group":"cantharellus","week":"2026-10-05","chance":0.0561,"uncertainty_low":null,"uncertainty_high":null,"applicable":true,"drivers":[],"weather_through":null,"model_version":"pnw-pilot-t1-calendar-e2c272b7acfa"}},{"type":"Feature","id":"432_-1244","geometry":{"type":"Polygon","coordinates":[[[-124.45,43.15],[-124.35,43.15],[-124.35,43.25],[-124.45,43.25],[-124.45,43.15]]]},"properties":{"group":"cantharellus","week":"2026-10-05","chance":0.0561,"uncertainty_low":null,"uncertainty_high":null,"applicable":true,"drivers":[],"weather_through":null,"model_version":"pnw-pilot-t1-calendar-e2c272b7acfa"}},{"type":"Feature","id":"432_-1243","geometry":{"type":"Polygon","coordinates":[[[-124.35,43.15],[-124.25,43.15],[-124.25,43.25],[-124.35,43.25],[-124.35,43.15]]]},"properties":{"group":"cantharellus","week":"2026-10-05","chance":0.0575,"uncertainty_low":null,"uncertainty_high":null,"applicable":true,"drivers":[],"weather_through":null,"model_version":"pnw-pilot-t1-calendar-e2c272b7acfa"}},{"type":"Feature","id":"432_-1242","geometry":{"type":"Polygon","coordinates":[[[-124.25,43.15],[-124.15,43.15],[-124.15,43.25],[-124.25,43.25],[-124.25,43.15]]]},"properties":{"group":"cantharellus","week":"2026-10-05","chance":0.0663,"uncertainty_low":null,"uncertainty_high":null,"applicable":true,"drivers":[],"weather_through":null,"model_version":"pnw-pilot-t1-calendar-e2c272b7acfa"}},{"type":"Feature","id":"432_-1241","geometry":{"type":"Polygon","coordinates":[[[-124.15,43.15],[-124.05,43.15],[-124.05,43.25],[-124.15,43.25],[-124.15,43.15]]]},"properties":{"group":"cantharellus","week":"2026-10-05","chance":0.0596,"uncertainty_low":null,"uncertainty_high":null,"applicable":true,"drivers":[],"weather_through":null,"model_version":"pnw-pilot-t1-calendar-e2c272b7acfa"}},{"type":"Feature","id":"433_-1245","geometry":{"type":"Polygon","coordinates":[[[-124.55,43.25],[-124.45,43.25],[-124.45,43.35],[-124.55,43.35],[-124.55,43.25]]]},"properties":{"group":"cantharellus","week":"2026-10-05","chance":0.0561,"uncertainty_low":null,"uncertainty_high":null,"applicable":true,"drivers":[],"weather_through":null,"model_version":"pnw-pilot-t1-calendar-e2c272b7acfa"}},{"type":"Feature","id":"433_-1244","geometry":{"type":"Polygon","coordinates":[[[-124.45,43.25],[-124.35,43.25],[-124.35,43.35],[-124.45,43.35],[-124.45,43.25]]]},"properties":{"group":"cantharellus","week":"2026-10-05","chance":0.0561,"uncertainty_low":null,"uncertainty_high":null,"applicable":true,"drivers":[],"weather_through":null,"model_version":"pnw-pilot-t1-calendar-e2c272b7acfa"}},{"type":"Feature","id":"433_-1243","geometry":{"type":"Polygon","coordinates":[[[-124.35,43.25],[-124.25,43.25],[-124.25,43.35],[-124.35,43.35],[-124.35,43.25]]]},"properties":{"group":"cantharellus","week":"2026-10-05","chance":0.0575,"uncertainty_low":null,"uncertainty_high":null,"applicable":true,"drivers":[],"weather_through":null,"model_version":"pnw-pilot-t1-calendar-e2c272b7acfa"}},{"type":"Feature","id":"433_-1242","geometry":{"type":"Polygon","coordinates":[[[-124.25,43.25],[-124.15,43.25],[-124.15,43.35],[-124.25,43.35],[-124.25,43.25]]]},"properties":{"group":"cantharellus","week":"2026-10-05","chance":0.0663,"uncertainty_low":null,"uncertainty_high":null,"applicable":true,"drivers":[],"weather_through":null,"model_version":"pnw-pilot-t1-calendar-e2c272b7acfa"}},{"type":"Feature","id":"433_-1241","geometry":{"type":"Polygon","coordinates":[[[-124.15,43.25],[-124.05,43.25],[-124.05,43.35],[-124.15,43.35],[-124.15,43.25]]]},"properties":{"group":"cantharellus","week":"2026-10-05","chance":0.0596,"uncertainty_low":null,"uncertainty_high":null,"applicable":true,"drivers":[],"weather_through":null,"model_version":"pnw-pilot-t1-calendar-e2c272b7acfa"}},{"type":"Feature","id":"434_-1244","geometry":{"type":"Polygon","coordinates":[[[-124.45,43.35],[-124.35,43.35],[-124.35,43.45],[-124.45,43.45],[-124.45,43.35]]]},"properties":{"group":"cantharellus","week":"2026-10-05","chance":0.0555,"uncertainty_low":null,"uncertainty_high":null,"applicable":true,"drivers":[],"weather_through":null,"model_version":"pnw-pilot-t1-calendar-e2c272b7acfa"}},{"type":"Feature","id":"434_-1243","geometry":{"type":"Polygon","coordinates":[[[-124.35,43.35],[-124.25,43.35],[-124.25,43.45],[-124.35,43.45],[-124.35,43.35]]]},"properties":{"group":"cantharellus","week":"2026-10-05","chance":0.0568,"uncertainty_low":null,"uncertainty_high":null,"applicable":true,"drivers":[],"weather_through":null,"model_version":"pnw-pilot-t1-calendar-e2c272b7acfa"}},{"type":"Feature","id":"434_-1242","geometry":{"type":"Polygon","coordinates":[[[-124.25,43.35],[-124.15,43.35],[-124.15,43.45],[-124.25,43.45],[-124.25,43.35]]]},"properties":{"group":"cantharellus","week":"2026-10-05","chance":0.0655,"uncertainty_low":null,"uncertainty_high":null,"applicable":true,"drivers":[],"weather_through":null,"model_version":"pnw-pilot-t1-calendar-e2c272b7acfa"}},{"type":"Feature","id":"434_-1241","geometry":{"type":"Polygon","coordinates":[[[-124.15,43.35],[-124.05,43.35],[-124.05,43.45],[-124.15,43.45],[-124.15,43.35]]]},"properties":{"group":"cantharellus","week":"2026-10-05","chance":0.0589,"uncertainty_low":null,"uncertainty_high":null,"applicable":true,"drivers":[],"weather_through":null,"model_version":"pnw-pilot-t1-calendar-e2c272b7acfa"}},{"type":"Feature","id":"435_-1243","geometry":{"type":"Polygon","coordinates":[[[-124.35,43.45],[-124.25,43.45],[-124.25,43.55],[-124.35,43.55],[-124.35,43.45]]]},"properties":{"group":"cantharellus","week":"2026-10-05","chance":0.0584,"uncertainty_low":null,"uncertainty_high":null,"applicable":true,"drivers":[],"weather_through":null,"model_version":"pnw-pilot-t1-calendar-e2c272b7acfa"}},{"type":"Feature","id":"435_-1242","geometry":{"type":"Polygon","coordinates":[[[-124.25,43.45],[-124.15,43.45],[-124.15,43.55],[-124.25,43.55],[-124.25,43.45]]]},"properties":{"group":"cantharellus","week":"2026-10-05","chance":0.0674,"uncertainty_low":null,"uncertainty_high":null,"applicable":true,"drivers":[],"weather_through":null,"model_version":"pnw-pilot-t1-calendar-e2c272b7acfa"}},{"type":"Feature","id":"435_-1241","geometry":{"type":"Polygon","coordinates":[[[-124.15,43.45],[-124.05,43.45],[-124.05,43.55],[-124.15,43.55],[-124.15,43.45]]]},"properties":{"group":"cantharellus","week":"2026-10-05","chance":0.0606,"uncertainty_low":null,"uncertainty_high":null,"applicable":true,"drivers":[],"weather_through":null,"model_version":"pnw-pilot-t1-calendar-e2c272b7acfa"}},{"type":"Feature","id":"436_-1243","geometry":{"type":"Polygon","coordinates":[[[-124.35,43.55],[-124.25,43.55],[-124.25,43.65],[-124.35,43.65],[-124.35,43.55]]]},"properties":{"group":"cantharellus","week":"2026-10-05","chance":0.0584,"uncertainty_low":null,"uncertainty_high":null,"applicable":true,"drivers":[],"weather_through":null,"model_version":"pnw-pilot-t1-calendar-e2c272b7acfa"}},{"type":"Feature","id":"436_-1242","geometry":{"type":"Polygon","coordinates":[[[-124.25,43.55],[-124.15,43.55],[-124.15,43.65],[-124.25,43.65],[-124.25,43.55]]]},"properties":{"group":"cantharellus","week":"2026-10-05","chance":0.0674,"uncertainty_low":null,"uncertainty_high":null,"applicable":true,"drivers":[],"weather_through":null,"model_version":"pnw-pilot-t1-calendar-e2c272b7acfa"}},{"type":"Feature","id":"436_-1241","geometry":{"type":"Polygon","coordinates":[[[-124.15,43.55],[-124.05,43.55],[-124.05,43.65],[-124.15,43.65],[-124.15,43.55]]]},"properties":{"group":"cantharellus","week":"2026-10-05","chance":0.0606,"uncertainty_low":null,"uncertainty_high":null,"applicable":true,"drivers":[],"weather_through":null,"model_version":"pnw-pilot-t1-calendar-e2c272b7acfa"}},{"type":"Feature","id":"437_-1243","geometry":{"type":"Polygon","coordinates":[[[-124.35,43.65],[-124.25,43.65],[-124.25,43.75],[-124.35,43.75],[-124.35,43.65]]]},"properties":{"group":"cantharellus","week":"2026-10-05","chance":0.0586,"uncertainty_low":null,"uncertainty_high":null,"applicable":true,"drivers":[],"weather_through":null,"model_version":"pnw-pilot-t1-calendar-e2c272b7acfa"}},{"type":"Feature","id":"437_-1242","geometry":{"type":"Polygon","coordinates":[[[-124.25,43.65],[-124.15,43.65],[-124.15,43.75],[-124.25,43.75],[-124.25,43.65]]]},"properties":{"group":"cantharellus","week":"2026-10-05","chance":0.0676,"uncertainty_low":null,"uncertainty_high":null,"applicable":true,"drivers":[],"weather_through":null,"model_version":"pnw-pilot-t1-calendar-e2c272b7acfa"}},{"type":"Feature","id":"437_-1241","geometry":{"type":"Polygon","coordinates":[[[-124.15,43.65],[-124.05,43.65],[-124.05,43.75],[-124.15,43.75],[-124.15,43.65]]]},"properties":{"group":"cantharellus","week":"2026-10-05","chance":0.0607,"uncertainty_low":null,"uncertainty_high":null,"applicable":true,"drivers":[],"weather_through":null,"model_version":"pnw-pilot-t1-calendar-e2c272b7acfa"}},{"type":"Feature","id":"438_-1242","geometry":{"type":"Polygon","coordinates":[[[-124.25,43.75],[-124.15,43.75],[-124.15,43.85],[-124.25,43.85],[-124.25,43.75]]]},"properties":{"group":"cantharellus","week":"2026-10-05","chance":0.0841,"uncertainty_low":null,"uncertainty_high":null,"applicable":true,"drivers":[],"weather_through":null,"model_version":"pnw-pilot-t1-calendar-e2c272b7acfa"}},{"type":"Feature","id":"438_-1241","geometry":{"type":"Polygon","coordinates":[[[-124.15,43.75],[-124.05,43.75],[-124.05,43.85],[-124.15,43.85],[-124.15,43.75]]]},"properties":{"group":"cantharellus","week":"2026-10-05","chance":0.0631,"uncertainty_low":null,"uncertainty_high":null,"applicable":true,"drivers":[],"weather_through":null,"model_version":"pnw-pilot-t1-calendar-e2c272b7acfa"}},{"type":"Feature","id":"439_-1242","geometry":{"type":"Polygon","coordinates":[[[-124.25,43.85],[-124.15,43.85],[-124.15,43.95],[-124.25,43.95],[-124.25,43.85]]]},"properties":{"group":"cantharellus","week":"2026-10-05","chance":0.0841,"uncertainty_low":null,"uncertainty_high":null,"applicable":true,"drivers":[],"weather_through":null,"model_version":"pnw-pilot-t1-calendar-e2c272b7acfa"}},{"type":"Feature","id":"439_-1241","geometry":{"type":"Polygon","coordinates":[[[-124.15,43.85],[-124.05,43.85],[-124.05,43.95],[-124.15,43.95],[-124.15,43.85]]]},"properties":{"group":"cantharellus","week":"2026-10-05","chance":0.0667,"uncertainty_low":null,"uncertainty_high":null,"applicable":true,"drivers":[],"weather_through":null,"model_version":"pnw-pilot-t1-calendar-e2c272b7acfa"}}]}