{"type":"FeatureCollection","features":[{"type":"Feature","id":"436_-1220","geometry":{"type":"Polygon","coordinates":[[[-122.05,43.55],[-121.95,43.55],[-121.95,43.65],[-122.05,43.65],[-122.05,43.55]]]},"properties":{"group":"cantharellus","week":"2026-10-05","chance":0.0704,"uncertainty_low":null,"uncertainty_high":null,"applicable":true,"drivers":[],"weather_through":"2026-10-04","model_version":"pnw-pilot-t1-calendar-e2c272b7acfa"}},{"type":"Feature","id":"439_-1214","geometry":{"type":"Polygon","coordinates":[[[-121.45,43.85],[-121.35,43.85],[-121.35,43.95],[-121.45,43.95],[-121.45,43.85]]]},"properties":{"group":"cantharellus","week":"2026-10-05","chance":0.0311,"uncertainty_low":null,"uncertainty_high":null,"applicable":true,"drivers":[],"weather_through":"2026-10-04","model_version":"pnw-pilot-t1-calendar-e2c272b7acfa"}}]}