{"type":"FeatureCollection","features":[{"type":"Feature","id":"430_-1240","geometry":{"type":"Polygon","coordinates":[[[-124.05,42.95],[-123.95,42.95],[-123.95,43.05],[-124.05,43.05],[-124.05,42.95]]]},"properties":{"group":"cantharellus","week":"2026-10-05","chance":0.0301,"uncertainty_low":null,"uncertainty_high":null,"applicable":true,"drivers":[],"weather_through":null,"model_version":"pnw-pilot-t1-calendar-e2c272b7acfa"}},{"type":"Feature","id":"430_-1239","geometry":{"type":"Polygon","coordinates":[[[-123.95,42.95],[-123.85,42.95],[-123.85,43.05],[-123.95,43.05],[-123.95,42.95]]]},"properties":{"group":"cantharellus","week":"2026-10-05","chance":0.0301,"uncertainty_low":null,"uncertainty_high":null,"applicable":true,"drivers":[],"weather_through":null,"model_version":"pnw-pilot-t1-calendar-e2c272b7acfa"}},{"type":"Feature","id":"430_-1238","geometry":{"type":"Polygon","coordinates":[[[-123.85,42.95],[-123.75,42.95],[-123.75,43.05],[-123.85,43.05],[-123.85,42.95]]]},"properties":{"group":"cantharellus","week":"2026-10-05","chance":0.0316,"uncertainty_low":null,"uncertainty_high":null,"applicable":true,"drivers":[],"weather_through":null,"model_version":"pnw-pilot-t1-calendar-e2c272b7acfa"}},{"type":"Feature","id":"430_-1237","geometry":{"type":"Polygon","coordinates":[[[-123.75,42.95],[-123.65,42.95],[-123.65,43.05],[-123.75,43.05],[-123.75,42.95]]]},"properties":{"group":"cantharellus","week":"2026-10-05","chance":0.0316,"uncertainty_low":null,"uncertainty_high":null,"applicable":true,"drivers":[],"weather_through":null,"model_version":"pnw-pilot-t1-calendar-e2c272b7acfa"}},{"type":"Feature","id":"430_-1236","geometry":{"type":"Polygon","coordinates":[[[-123.65,42.95],[-123.55,42.95],[-123.55,43.05],[-123.65,43.05],[-123.65,42.95]]]},"properties":{"group":"cantharellus","week":"2026-10-05","chance":0.0316,"uncertainty_low":null,"uncertainty_high":null,"applicable":true,"drivers":[],"weather_through":null,"model_version":"pnw-pilot-t1-calendar-e2c272b7acfa"}},{"type":"Feature","id":"430_-1235","geometry":{"type":"Polygon","coordinates":[[[-123.55,42.95],[-123.45,42.95],[-123.45,43.05],[-123.55,43.05],[-123.55,42.95]]]},"properties":{"group":"cantharellus","week":"2026-10-05","chance":0.0315,"uncertainty_low":null,"uncertainty_high":null,"applicable":true,"drivers":[],"weather_through":null,"model_version":"pnw-pilot-t1-calendar-e2c272b7acfa"}},{"type":"Feature","id":"430_-1234","geometry":{"type":"Polygon","coordinates":[[[-123.45,42.95],[-123.35,42.95],[-123.35,43.05],[-123.45,43.05],[-123.45,42.95]]]},"properties":{"group":"cantharellus","week":"2026-10-05","chance":0.0316,"uncertainty_low":null,"uncertainty_high":null,"applicable":true,"drivers":[],"weather_through":null,"model_version":"pnw-pilot-t1-calendar-e2c272b7acfa"}},{"type":"Feature","id":"430_-1233","geometry":{"type":"Polygon","coordinates":[[[-123.35,42.95],[-123.25,42.95],[-123.25,43.05],[-123.35,43.05],[-123.35,42.95]]]},"properties":{"group":"cantharellus","week":"2026-10-05","chance":0.0254,"uncertainty_low":null,"uncertainty_high":null,"applicable":true,"drivers":[],"weather_through":null,"model_version":"pnw-pilot-t1-calendar-e2c272b7acfa"}},{"type":"Feature","id":"430_-1232","geometry":{"type":"Polygon","coordinates":[[[-123.25,42.95],[-123.15,42.95],[-123.15,43.05],[-123.25,43.05],[-123.25,42.95]]]},"properties":{"group":"cantharellus","week":"2026-10-05","chance":0.0237,"uncertainty_low":null,"uncertainty_high":null,"applicable":true,"drivers":[],"weather_through":null,"model_version":"pnw-pilot-t1-calendar-e2c272b7acfa"}},{"type":"Feature","id":"430_-1231","geometry":{"type":"Polygon","coordinates":[[[-123.15,42.95],[-123.05,42.95],[-123.05,43.05],[-123.15,43.05],[-123.15,42.95]]]},"properties":{"group":"cantharellus","week":"2026-10-05","chance":0.0237,"uncertainty_low":null,"uncertainty_high":null,"applicable":true,"drivers":[],"weather_through":null,"model_version":"pnw-pilot-t1-calendar-e2c272b7acfa"}},{"type":"Feature","id":"431_-1240","geometry":{"type":"Polygon","coordinates":[[[-124.05,43.05],[-123.95,43.05],[-123.95,43.15],[-124.05,43.15],[-124.05,43.05]]]},"properties":{"group":"cantharellus","week":"2026-10-05","chance":0.0415,"uncertainty_low":null,"uncertainty_high":null,"applicable":true,"drivers":[],"weather_through":null,"model_version":"pnw-pilot-t1-calendar-e2c272b7acfa"}},{"type":"Feature","id":"431_-1239","geometry":{"type":"Polygon","coordinates":[[[-123.95,43.05],[-123.85,43.05],[-123.85,43.15],[-123.95,43.15],[-123.95,43.05]]]},"properties":{"group":"cantharellus","week":"2026-10-05","chance":0.0415,"uncertainty_low":null,"uncertainty_high":null,"applicable":true,"drivers":[],"weather_through":null,"model_version":"pnw-pilot-t1-calendar-e2c272b7acfa"}},{"type":"Feature","id":"431_-1238","geometry":{"type":"Polygon","coordinates":[[[-123.85,43.05],[-123.75,43.05],[-123.75,43.15],[-123.85,43.15],[-123.85,43.05]]]},"properties":{"group":"cantharellus","week":"2026-10-05","chance":0.0435,"uncertainty_low":null,"uncertainty_high":null,"applicable":true,"drivers":[],"weather_through":null,"model_version":"pnw-pilot-t1-calendar-e2c272b7acfa"}},{"type":"Feature","id":"431_-1237","geometry":{"type":"Polygon","coordinates":[[[-123.75,43.05],[-123.65,43.05],[-123.65,43.15],[-123.75,43.15],[-123.75,43.05]]]},"properties":{"group":"cantharellus","week":"2026-10-05","chance":0.0435,"uncertainty_low":null,"uncertainty_high":null,"applicable":true,"drivers":[],"weather_through":null,"model_version":"pnw-pilot-t1-calendar-e2c272b7acfa"}},{"type":"Feature","id":"431_-1236","geometry":{"type":"Polygon","coordinates":[[[-123.65,43.05],[-123.55,43.05],[-123.55,43.15],[-123.65,43.15],[-123.65,43.05]]]},"properties":{"group":"cantharellus","week":"2026-10-05","chance":0.0435,"uncertainty_low":null,"uncertainty_high":null,"applicable":true,"drivers":[],"weather_through":null,"model_version":"pnw-pilot-t1-calendar-e2c272b7acfa"}},{"type":"Feature","id":"431_-1235","geometry":{"type":"Polygon","coordinates":[[[-123.55,43.05],[-123.45,43.05],[-123.45,43.15],[-123.55,43.15],[-123.55,43.05]]]},"properties":{"group":"cantharellus","week":"2026-10-05","chance":0.0441,"uncertainty_low":null,"uncertainty_high":null,"applicable":true,"drivers":[],"weather_through":null,"model_version":"pnw-pilot-t1-calendar-e2c272b7acfa"}},{"type":"Feature","id":"431_-1234","geometry":{"type":"Polygon","coordinates":[[[-123.45,43.05],[-123.35,43.05],[-123.35,43.15],[-123.45,43.15],[-123.45,43.05]]]},"properties":{"group":"cantharellus","week":"2026-10-05","chance":0.0337,"uncertainty_low":null,"uncertainty_high":null,"applicable":true,"drivers":[],"weather_through":null,"model_version":"pnw-pilot-t1-calendar-e2c272b7acfa"}},{"type":"Feature","id":"431_-1233","geometry":{"type":"Polygon","coordinates":[[[-123.35,43.05],[-123.25,43.05],[-123.25,43.15],[-123.35,43.15],[-123.35,43.05]]]},"properties":{"group":"cantharellus","week":"2026-10-05","chance":0.0258,"uncertainty_low":null,"uncertainty_high":null,"applicable":true,"drivers":[],"weather_through":null,"model_version":"pnw-pilot-t1-calendar-e2c272b7acfa"}},{"type":"Feature","id":"431_-1232","geometry":{"type":"Polygon","coordinates":[[[-123.25,43.05],[-123.15,43.05],[-123.15,43.15],[-123.25,43.15],[-123.25,43.05]]]},"properties":{"group":"cantharellus","week":"2026-10-05","chance":0.0241,"uncertainty_low":null,"uncertainty_high":null,"applicable":true,"drivers":[],"weather_through":null,"model_version":"pnw-pilot-t1-calendar-e2c272b7acfa"}},{"type":"Feature","id":"431_-1231","geometry":{"type":"Polygon","coordinates":[[[-123.15,43.05],[-123.05,43.05],[-123.05,43.15],[-123.15,43.15],[-123.15,43.05]]]},"properties":{"group":"cantharellus","week":"2026-10-05","chance":0.0241,"uncertainty_low":null,"uncertainty_high":null,"applicable":true,"drivers":[],"weather_through":null,"model_version":"pnw-pilot-t1-calendar-e2c272b7acfa"}},{"type":"Feature","id":"432_-1240","geometry":{"type":"Polygon","coordinates":[[[-124.05,43.15],[-123.95,43.15],[-123.95,43.25],[-124.05,43.25],[-124.05,43.15]]]},"properties":{"group":"cantharellus","week":"2026-10-05","chance":0.0461,"uncertainty_low":null,"uncertainty_high":null,"applicable":true,"drivers":[],"weather_through":null,"model_version":"pnw-pilot-t1-calendar-e2c272b7acfa"}},{"type":"Feature","id":"432_-1239","geometry":{"type":"Polygon","coordinates":[[[-123.95,43.15],[-123.85,43.15],[-123.85,43.25],[-123.95,43.25],[-123.95,43.15]]]},"properties":{"group":"cantharellus","week":"2026-10-05","chance":0.0462,"uncertainty_low":null,"uncertainty_high":null,"applicable":true,"drivers":[],"weather_through":null,"model_version":"pnw-pilot-t1-calendar-e2c272b7acfa"}},{"type":"Feature","id":"432_-1238","geometry":{"type":"Polygon","coordinates":[[[-123.85,43.15],[-123.75,43.15],[-123.75,43.25],[-123.85,43.25],[-123.85,43.15]]]},"properties":{"group":"cantharellus","week":"2026-10-05","chance":0.0484,"uncertainty_low":null,"uncertainty_high":null,"applicable":true,"drivers":[],"weather_through":null,"model_version":"pnw-pilot-t1-calendar-e2c272b7acfa"}},{"type":"Feature","id":"432_-1237","geometry":{"type":"Polygon","coordinates":[[[-123.75,43.15],[-123.65,43.15],[-123.65,43.25],[-123.75,43.25],[-123.75,43.15]]]},"properties":{"group":"cantharellus","week":"2026-10-05","chance":0.0484,"uncertainty_low":null,"uncertainty_high":null,"applicable":true,"drivers":[],"weather_through":null,"model_version":"pnw-pilot-t1-calendar-e2c272b7acfa"}},{"type":"Feature","id":"432_-1236","geometry":{"type":"Polygon","coordinates":[[[-123.65,43.15],[-123.55,43.15],[-123.55,43.25],[-123.65,43.25],[-123.65,43.15]]]},"properties":{"group":"cantharellus","week":"2026-10-05","chance":0.0484,"uncertainty_low":null,"uncertainty_high":null,"applicable":true,"drivers":[],"weather_through":null,"model_version":"pnw-pilot-t1-calendar-e2c272b7acfa"}},{"type":"Feature","id":"432_-1235","geometry":{"type":"Polygon","coordinates":[[[-123.55,43.15],[-123.45,43.15],[-123.45,43.25],[-123.55,43.25],[-123.55,43.15]]]},"properties":{"group":"cantharellus","week":"2026-10-05","chance":0.049,"uncertainty_low":null,"uncertainty_high":null,"applicable":true,"drivers":[],"weather_through":null,"model_version":"pnw-pilot-t1-calendar-e2c272b7acfa"}},{"type":"Feature","id":"432_-1234","geometry":{"type":"Polygon","coordinates":[[[-123.45,43.15],[-123.35,43.15],[-123.35,43.25],[-123.45,43.25],[-123.45,43.15]]]},"properties":{"group":"cantharellus","week":"2026-10-05","chance":0.0337,"uncertainty_low":null,"uncertainty_high":null,"applicable":true,"drivers":[],"weather_through":null,"model_version":"pnw-pilot-t1-calendar-e2c272b7acfa"}},{"type":"Feature","id":"432_-1233","geometry":{"type":"Polygon","coordinates":[[[-123.35,43.15],[-123.25,43.15],[-123.25,43.25],[-123.35,43.25],[-123.35,43.15]]]},"properties":{"group":"cantharellus","week":"2026-10-05","chance":0.0258,"uncertainty_low":null,"uncertainty_high":null,"applicable":true,"drivers":[],"weather_through":null,"model_version":"pnw-pilot-t1-calendar-e2c272b7acfa"}},{"type":"Feature","id":"432_-1232","geometry":{"type":"Polygon","coordinates":[[[-123.25,43.15],[-123.15,43.15],[-123.15,43.25],[-123.25,43.25],[-123.25,43.15]]]},"properties":{"group":"cantharellus","week":"2026-10-05","chance":0.0241,"uncertainty_low":null,"uncertainty_high":null,"applicable":true,"drivers":[],"weather_through":null,"model_version":"pnw-pilot-t1-calendar-e2c272b7acfa"}},{"type":"Feature","id":"432_-1231","geometry":{"type":"Polygon","coordinates":[[[-123.15,43.15],[-123.05,43.15],[-123.05,43.25],[-123.15,43.25],[-123.15,43.15]]]},"properties":{"group":"cantharellus","week":"2026-10-05","chance":0.0241,"uncertainty_low":null,"uncertainty_high":null,"applicable":true,"drivers":[],"weather_through":null,"model_version":"pnw-pilot-t1-calendar-e2c272b7acfa"}},{"type":"Feature","id":"433_-1240","geometry":{"type":"Polygon","coordinates":[[[-124.05,43.25],[-123.95,43.25],[-123.95,43.35],[-124.05,43.35],[-124.05,43.25]]]},"properties":{"group":"cantharellus","week":"2026-10-05","chance":0.0461,"uncertainty_low":null,"uncertainty_high":null,"applicable":true,"drivers":[],"weather_through":null,"model_version":"pnw-pilot-t1-calendar-e2c272b7acfa"}},{"type":"Feature","id":"433_-1239","geometry":{"type":"Polygon","coordinates":[[[-123.95,43.25],[-123.85,43.25],[-123.85,43.35],[-123.95,43.35],[-123.95,43.25]]]},"properties":{"group":"cantharellus","week":"2026-10-05","chance":0.0462,"uncertainty_low":null,"uncertainty_high":null,"applicable":true,"drivers":[],"weather_through":null,"model_version":"pnw-pilot-t1-calendar-e2c272b7acfa"}},{"type":"Feature","id":"433_-1238","geometry":{"type":"Polygon","coordinates":[[[-123.85,43.25],[-123.75,43.25],[-123.75,43.35],[-123.85,43.35],[-123.85,43.25]]]},"properties":{"group":"cantharellus","week":"2026-10-05","chance":0.0484,"uncertainty_low":null,"uncertainty_high":null,"applicable":true,"drivers":[],"weather_through":null,"model_version":"pnw-pilot-t1-calendar-e2c272b7acfa"}},{"type":"Feature","id":"433_-1237","geometry":{"type":"Polygon","coordinates":[[[-123.75,43.25],[-123.65,43.25],[-123.65,43.35],[-123.75,43.35],[-123.75,43.25]]]},"properties":{"group":"cantharellus","week":"2026-10-05","chance":0.0484,"uncertainty_low":null,"uncertainty_high":null,"applicable":true,"drivers":[],"weather_through":null,"model_version":"pnw-pilot-t1-calendar-e2c272b7acfa"}},{"type":"Feature","id":"433_-1236","geometry":{"type":"Polygon","coordinates":[[[-123.65,43.25],[-123.55,43.25],[-123.55,43.35],[-123.65,43.35],[-123.65,43.25]]]},"properties":{"group":"cantharellus","week":"2026-10-05","chance":0.0484,"uncertainty_low":null,"uncertainty_high":null,"applicable":true,"drivers":[],"weather_through":null,"model_version":"pnw-pilot-t1-calendar-e2c272b7acfa"}},{"type":"Feature","id":"433_-1235","geometry":{"type":"Polygon","coordinates":[[[-123.55,43.25],[-123.45,43.25],[-123.45,43.35],[-123.55,43.35],[-123.55,43.25]]]},"properties":{"group":"cantharellus","week":"2026-10-05","chance":0.049,"uncertainty_low":null,"uncertainty_high":null,"applicable":true,"drivers":[],"weather_through":null,"model_version":"pnw-pilot-t1-calendar-e2c272b7acfa"}},{"type":"Feature","id":"433_-1234","geometry":{"type":"Polygon","coordinates":[[[-123.45,43.25],[-123.35,43.25],[-123.35,43.35],[-123.45,43.35],[-123.45,43.25]]]},"properties":{"group":"cantharellus","week":"2026-10-05","chance":0.0337,"uncertainty_low":null,"uncertainty_high":null,"applicable":true,"drivers":[],"weather_through":null,"model_version":"pnw-pilot-t1-calendar-e2c272b7acfa"}},{"type":"Feature","id":"433_-1233","geometry":{"type":"Polygon","coordinates":[[[-123.35,43.25],[-123.25,43.25],[-123.25,43.35],[-123.35,43.35],[-123.35,43.25]]]},"properties":{"group":"cantharellus","week":"2026-10-05","chance":0.0258,"uncertainty_low":null,"uncertainty_high":null,"applicable":true,"drivers":[],"weather_through":null,"model_version":"pnw-pilot-t1-calendar-e2c272b7acfa"}},{"type":"Feature","id":"433_-1232","geometry":{"type":"Polygon","coordinates":[[[-123.25,43.25],[-123.15,43.25],[-123.15,43.35],[-123.25,43.35],[-123.25,43.25]]]},"properties":{"group":"cantharellus","week":"2026-10-05","chance":0.0241,"uncertainty_low":null,"uncertainty_high":null,"applicable":true,"drivers":[],"weather_through":null,"model_version":"pnw-pilot-t1-calendar-e2c272b7acfa"}},{"type":"Feature","id":"433_-1231","geometry":{"type":"Polygon","coordinates":[[[-123.15,43.25],[-123.05,43.25],[-123.05,43.35],[-123.15,43.35],[-123.15,43.25]]]},"properties":{"group":"cantharellus","week":"2026-10-05","chance":0.0241,"uncertainty_low":null,"uncertainty_high":null,"applicable":true,"drivers":[],"weather_through":null,"model_version":"pnw-pilot-t1-calendar-e2c272b7acfa"}},{"type":"Feature","id":"434_-1240","geometry":{"type":"Polygon","coordinates":[[[-124.05,43.35],[-123.95,43.35],[-123.95,43.45],[-124.05,43.45],[-124.05,43.35]]]},"properties":{"group":"cantharellus","week":"2026-10-05","chance":0.0456,"uncertainty_low":null,"uncertainty_high":null,"applicable":true,"drivers":[],"weather_through":null,"model_version":"pnw-pilot-t1-calendar-e2c272b7acfa"}},{"type":"Feature","id":"434_-1239","geometry":{"type":"Polygon","coordinates":[[[-123.95,43.35],[-123.85,43.35],[-123.85,43.45],[-123.95,43.45],[-123.95,43.35]]]},"properties":{"group":"cantharellus","week":"2026-10-05","chance":0.0456,"uncertainty_low":null,"uncertainty_high":null,"applicable":true,"drivers":[],"weather_through":null,"model_version":"pnw-pilot-t1-calendar-e2c272b7acfa"}},{"type":"Feature","id":"434_-1238","geometry":{"type":"Polygon","coordinates":[[[-123.85,43.35],[-123.75,43.35],[-123.75,43.45],[-123.85,43.45],[-123.85,43.35]]]},"properties":{"group":"cantharellus","week":"2026-10-05","chance":0.0479,"uncertainty_low":null,"uncertainty_high":null,"applicable":true,"drivers":[],"weather_through":null,"model_version":"pnw-pilot-t1-calendar-e2c272b7acfa"}},{"type":"Feature","id":"434_-1237","geometry":{"type":"Polygon","coordinates":[[[-123.75,43.35],[-123.65,43.35],[-123.65,43.45],[-123.75,43.45],[-123.75,43.35]]]},"properties":{"group":"cantharellus","week":"2026-10-05","chance":0.0479,"uncertainty_low":null,"uncertainty_high":null,"applicable":true,"drivers":[],"weather_through":null,"model_version":"pnw-pilot-t1-calendar-e2c272b7acfa"}},{"type":"Feature","id":"434_-1236","geometry":{"type":"Polygon","coordinates":[[[-123.65,43.35],[-123.55,43.35],[-123.55,43.45],[-123.65,43.45],[-123.65,43.35]]]},"properties":{"group":"cantharellus","week":"2026-10-05","chance":0.0479,"uncertainty_low":null,"uncertainty_high":null,"applicable":true,"drivers":[],"weather_through":null,"model_version":"pnw-pilot-t1-calendar-e2c272b7acfa"}},{"type":"Feature","id":"434_-1235","geometry":{"type":"Polygon","coordinates":[[[-123.55,43.35],[-123.45,43.35],[-123.45,43.45],[-123.55,43.45],[-123.55,43.35]]]},"properties":{"group":"cantharellus","week":"2026-10-05","chance":0.0484,"uncertainty_low":null,"uncertainty_high":null,"applicable":true,"drivers":[],"weather_through":null,"model_version":"pnw-pilot-t1-calendar-e2c272b7acfa"}},{"type":"Feature","id":"434_-1234","geometry":{"type":"Polygon","coordinates":[[[-123.45,43.35],[-123.35,43.35],[-123.35,43.45],[-123.45,43.45],[-123.45,43.35]]]},"properties":{"group":"cantharellus","week":"2026-10-05","chance":0.0333,"uncertainty_low":null,"uncertainty_high":null,"applicable":true,"drivers":[],"weather_through":null,"model_version":"pnw-pilot-t1-calendar-e2c272b7acfa"}},{"type":"Feature","id":"434_-1233","geometry":{"type":"Polygon","coordinates":[[[-123.35,43.35],[-123.25,43.35],[-123.25,43.45],[-123.35,43.45],[-123.35,43.35]]]},"properties":{"group":"cantharellus","week":"2026-10-05","chance":0.0255,"uncertainty_low":null,"uncertainty_high":null,"applicable":true,"drivers":[],"weather_through":null,"model_version":"pnw-pilot-t1-calendar-e2c272b7acfa"}},{"type":"Feature","id":"434_-1232","geometry":{"type":"Polygon","coordinates":[[[-123.25,43.35],[-123.15,43.35],[-123.15,43.45],[-123.25,43.45],[-123.25,43.35]]]},"properties":{"group":"cantharellus","week":"2026-10-05","chance":0.0238,"uncertainty_low":null,"uncertainty_high":null,"applicable":true,"drivers":[],"weather_through":null,"model_version":"pnw-pilot-t1-calendar-e2c272b7acfa"}},{"type":"Feature","id":"434_-1231","geometry":{"type":"Polygon","coordinates":[[[-123.15,43.35],[-123.05,43.35],[-123.05,43.45],[-123.15,43.45],[-123.15,43.35]]]},"properties":{"group":"cantharellus","week":"2026-10-05","chance":0.0238,"uncertainty_low":null,"uncertainty_high":null,"applicable":true,"drivers":[],"weather_through":null,"model_version":"pnw-pilot-t1-calendar-e2c272b7acfa"}},{"type":"Feature","id":"435_-1240","geometry":{"type":"Polygon","coordinates":[[[-124.05,43.45],[-123.95,43.45],[-123.95,43.55],[-124.05,43.55],[-124.05,43.45]]]},"properties":{"group":"cantharellus","week":"2026-10-05","chance":0.0469,"uncertainty_low":null,"uncertainty_high":null,"applicable":true,"drivers":[],"weather_through":null,"model_version":"pnw-pilot-t1-calendar-e2c272b7acfa"}},{"type":"Feature","id":"435_-1239","geometry":{"type":"Polygon","coordinates":[[[-123.95,43.45],[-123.85,43.45],[-123.85,43.55],[-123.95,43.55],[-123.95,43.45]]]},"properties":{"group":"cantharellus","week":"2026-10-05","chance":0.0485,"uncertainty_low":null,"uncertainty_high":null,"applicable":true,"drivers":[],"weather_through":null,"model_version":"pnw-pilot-t1-calendar-e2c272b7acfa"}},{"type":"Feature","id":"435_-1238","geometry":{"type":"Polygon","coordinates":[[[-123.85,43.45],[-123.75,43.45],[-123.75,43.55],[-123.85,43.55],[-123.85,43.45]]]},"properties":{"group":"cantharellus","week":"2026-10-05","chance":0.0508,"uncertainty_low":null,"uncertainty_high":null,"applicable":true,"drivers":[],"weather_through":null,"model_version":"pnw-pilot-t1-calendar-e2c272b7acfa"}},{"type":"Feature","id":"435_-1237","geometry":{"type":"Polygon","coordinates":[[[-123.75,43.45],[-123.65,43.45],[-123.65,43.55],[-123.75,43.55],[-123.75,43.45]]]},"properties":{"group":"cantharellus","week":"2026-10-05","chance":0.0508,"uncertainty_low":null,"uncertainty_high":null,"applicable":true,"drivers":[],"weather_through":null,"model_version":"pnw-pilot-t1-calendar-e2c272b7acfa"}},{"type":"Feature","id":"435_-1236","geometry":{"type":"Polygon","coordinates":[[[-123.65,43.45],[-123.55,43.45],[-123.55,43.55],[-123.65,43.55],[-123.65,43.45]]]},"properties":{"group":"cantharellus","week":"2026-10-05","chance":0.0508,"uncertainty_low":null,"uncertainty_high":null,"applicable":true,"drivers":[],"weather_through":null,"model_version":"pnw-pilot-t1-calendar-e2c272b7acfa"}},{"type":"Feature","id":"435_-1235","geometry":{"type":"Polygon","coordinates":[[[-123.55,43.45],[-123.45,43.45],[-123.45,43.55],[-123.55,43.55],[-123.55,43.45]]]},"properties":{"group":"cantharellus","week":"2026-10-05","chance":0.0514,"uncertainty_low":null,"uncertainty_high":null,"applicable":true,"drivers":[],"weather_through":null,"model_version":"pnw-pilot-t1-calendar-e2c272b7acfa"}},{"type":"Feature","id":"435_-1234","geometry":{"type":"Polygon","coordinates":[[[-123.45,43.45],[-123.35,43.45],[-123.35,43.55],[-123.45,43.55],[-123.45,43.45]]]},"properties":{"group":"cantharellus","week":"2026-10-05","chance":0.0354,"uncertainty_low":null,"uncertainty_high":null,"applicable":true,"drivers":[],"weather_through":null,"model_version":"pnw-pilot-t1-calendar-e2c272b7acfa"}},{"type":"Feature","id":"435_-1233","geometry":{"type":"Polygon","coordinates":[[[-123.35,43.45],[-123.25,43.45],[-123.25,43.55],[-123.35,43.55],[-123.35,43.45]]]},"properties":{"group":"cantharellus","week":"2026-10-05","chance":0.0262,"uncertainty_low":null,"uncertainty_high":null,"applicable":true,"drivers":[],"weather_through":null,"model_version":"pnw-pilot-t1-calendar-e2c272b7acfa"}},{"type":"Feature","id":"435_-1232","geometry":{"type":"Polygon","coordinates":[[[-123.25,43.45],[-123.15,43.45],[-123.15,43.55],[-123.25,43.55],[-123.25,43.45]]]},"properties":{"group":"cantharellus","week":"2026-10-05","chance":0.0241,"uncertainty_low":null,"uncertainty_high":null,"applicable":true,"drivers":[],"weather_through":null,"model_version":"pnw-pilot-t1-calendar-e2c272b7acfa"}},{"type":"Feature","id":"435_-1231","geometry":{"type":"Polygon","coordinates":[[[-123.15,43.45],[-123.05,43.45],[-123.05,43.55],[-123.15,43.55],[-123.15,43.45]]]},"properties":{"group":"cantharellus","week":"2026-10-05","chance":0.0241,"uncertainty_low":null,"uncertainty_high":null,"applicable":true,"drivers":[],"weather_through":null,"model_version":"pnw-pilot-t1-calendar-e2c272b7acfa"}},{"type":"Feature","id":"436_-1240","geometry":{"type":"Polygon","coordinates":[[[-124.05,43.55],[-123.95,43.55],[-123.95,43.65],[-124.05,43.65],[-124.05,43.55]]]},"properties":{"group":"cantharellus","week":"2026-10-05","chance":0.0469,"uncertainty_low":null,"uncertainty_high":null,"applicable":true,"drivers":[],"weather_through":null,"model_version":"pnw-pilot-t1-calendar-e2c272b7acfa"}},{"type":"Feature","id":"436_-1239","geometry":{"type":"Polygon","coordinates":[[[-123.95,43.55],[-123.85,43.55],[-123.85,43.65],[-123.95,43.65],[-123.95,43.55]]]},"properties":{"group":"cantharellus","week":"2026-10-05","chance":0.0485,"uncertainty_low":null,"uncertainty_high":null,"applicable":true,"drivers":[],"weather_through":null,"model_version":"pnw-pilot-t1-calendar-e2c272b7acfa"}},{"type":"Feature","id":"436_-1238","geometry":{"type":"Polygon","coordinates":[[[-123.85,43.55],[-123.75,43.55],[-123.75,43.65],[-123.85,43.65],[-123.85,43.55]]]},"properties":{"group":"cantharellus","week":"2026-10-05","chance":0.0508,"uncertainty_low":null,"uncertainty_high":null,"applicable":true,"drivers":[],"weather_through":null,"model_version":"pnw-pilot-t1-calendar-e2c272b7acfa"}},{"type":"Feature","id":"436_-1237","geometry":{"type":"Polygon","coordinates":[[[-123.75,43.55],[-123.65,43.55],[-123.65,43.65],[-123.75,43.65],[-123.75,43.55]]]},"properties":{"group":"cantharellus","week":"2026-10-05","chance":0.0508,"uncertainty_low":null,"uncertainty_high":null,"applicable":true,"drivers":[],"weather_through":null,"model_version":"pnw-pilot-t1-calendar-e2c272b7acfa"}},{"type":"Feature","id":"436_-1236","geometry":{"type":"Polygon","coordinates":[[[-123.65,43.55],[-123.55,43.55],[-123.55,43.65],[-123.65,43.65],[-123.65,43.55]]]},"properties":{"group":"cantharellus","week":"2026-10-05","chance":0.0508,"uncertainty_low":null,"uncertainty_high":null,"applicable":true,"drivers":[],"weather_through":null,"model_version":"pnw-pilot-t1-calendar-e2c272b7acfa"}},{"type":"Feature","id":"436_-1235","geometry":{"type":"Polygon","coordinates":[[[-123.55,43.55],[-123.45,43.55],[-123.45,43.65],[-123.55,43.65],[-123.55,43.55]]]},"properties":{"group":"cantharellus","week":"2026-10-05","chance":0.0514,"uncertainty_low":null,"uncertainty_high":null,"applicable":true,"drivers":[],"weather_through":null,"model_version":"pnw-pilot-t1-calendar-e2c272b7acfa"}},{"type":"Feature","id":"436_-1234","geometry":{"type":"Polygon","coordinates":[[[-123.45,43.55],[-123.35,43.55],[-123.35,43.65],[-123.45,43.65],[-123.45,43.55]]]},"properties":{"group":"cantharellus","week":"2026-10-05","chance":0.0354,"uncertainty_low":null,"uncertainty_high":null,"applicable":true,"drivers":[],"weather_through":null,"model_version":"pnw-pilot-t1-calendar-e2c272b7acfa"}},{"type":"Feature","id":"436_-1233","geometry":{"type":"Polygon","coordinates":[[[-123.35,43.55],[-123.25,43.55],[-123.25,43.65],[-123.35,43.65],[-123.35,43.55]]]},"properties":{"group":"cantharellus","week":"2026-10-05","chance":0.0262,"uncertainty_low":null,"uncertainty_high":null,"applicable":true,"drivers":[],"weather_through":null,"model_version":"pnw-pilot-t1-calendar-e2c272b7acfa"}},{"type":"Feature","id":"436_-1232","geometry":{"type":"Polygon","coordinates":[[[-123.25,43.55],[-123.15,43.55],[-123.15,43.65],[-123.25,43.65],[-123.25,43.55]]]},"properties":{"group":"cantharellus","week":"2026-10-05","chance":0.0241,"uncertainty_low":null,"uncertainty_high":null,"applicable":true,"drivers":[],"weather_through":null,"model_version":"pnw-pilot-t1-calendar-e2c272b7acfa"}},{"type":"Feature","id":"436_-1231","geometry":{"type":"Polygon","coordinates":[[[-123.15,43.55],[-123.05,43.55],[-123.05,43.65],[-123.15,43.65],[-123.15,43.55]]]},"properties":{"group":"cantharellus","week":"2026-10-05","chance":0.0241,"uncertainty_low":null,"uncertainty_high":null,"applicable":true,"drivers":[],"weather_through":null,"model_version":"pnw-pilot-t1-calendar-e2c272b7acfa"}},{"type":"Feature","id":"437_-1240","geometry":{"type":"Polygon","coordinates":[[[-124.05,43.65],[-123.95,43.65],[-123.95,43.75],[-124.05,43.75],[-124.05,43.65]]]},"properties":{"group":"cantharellus","week":"2026-10-05","chance":0.0471,"uncertainty_low":null,"uncertainty_high":null,"applicable":true,"drivers":[],"weather_through":null,"model_version":"pnw-pilot-t1-calendar-e2c272b7acfa"}},{"type":"Feature","id":"437_-1239","geometry":{"type":"Polygon","coordinates":[[[-123.95,43.65],[-123.85,43.65],[-123.85,43.75],[-123.95,43.75],[-123.95,43.65]]]},"properties":{"group":"cantharellus","week":"2026-10-05","chance":0.0486,"uncertainty_low":null,"uncertainty_high":null,"applicable":true,"drivers":[],"weather_through":null,"model_version":"pnw-pilot-t1-calendar-e2c272b7acfa"}},{"type":"Feature","id":"437_-1238","geometry":{"type":"Polygon","coordinates":[[[-123.85,43.65],[-123.75,43.65],[-123.75,43.75],[-123.85,43.75],[-123.85,43.65]]]},"properties":{"group":"cantharellus","week":"2026-10-05","chance":0.0509,"uncertainty_low":null,"uncertainty_high":null,"applicable":true,"drivers":[],"weather_through":null,"model_version":"pnw-pilot-t1-calendar-e2c272b7acfa"}},{"type":"Feature","id":"437_-1237","geometry":{"type":"Polygon","coordinates":[[[-123.75,43.65],[-123.65,43.65],[-123.65,43.75],[-123.75,43.75],[-123.75,43.65]]]},"properties":{"group":"cantharellus","week":"2026-10-05","chance":0.0509,"uncertainty_low":null,"uncertainty_high":null,"applicable":true,"drivers":[],"weather_through":null,"model_version":"pnw-pilot-t1-calendar-e2c272b7acfa"}},{"type":"Feature","id":"437_-1236","geometry":{"type":"Polygon","coordinates":[[[-123.65,43.65],[-123.55,43.65],[-123.55,43.75],[-123.65,43.75],[-123.65,43.65]]]},"properties":{"group":"cantharellus","week":"2026-10-05","chance":0.0509,"uncertainty_low":null,"uncertainty_high":null,"applicable":true,"drivers":[],"weather_through":null,"model_version":"pnw-pilot-t1-calendar-e2c272b7acfa"}},{"type":"Feature","id":"437_-1235","geometry":{"type":"Polygon","coordinates":[[[-123.55,43.65],[-123.45,43.65],[-123.45,43.75],[-123.55,43.75],[-123.55,43.65]]]},"properties":{"group":"cantharellus","week":"2026-10-05","chance":0.0516,"uncertainty_low":null,"uncertainty_high":null,"applicable":true,"drivers":[],"weather_through":null,"model_version":"pnw-pilot-t1-calendar-e2c272b7acfa"}},{"type":"Feature","id":"437_-1234","geometry":{"type":"Polygon","coordinates":[[[-123.45,43.65],[-123.35,43.65],[-123.35,43.75],[-123.45,43.75],[-123.45,43.65]]]},"properties":{"group":"cantharellus","week":"2026-10-05","chance":0.0355,"uncertainty_low":null,"uncertainty_high":null,"applicable":true,"drivers":[],"weather_through":null,"model_version":"pnw-pilot-t1-calendar-e2c272b7acfa"}},{"type":"Feature","id":"437_-1233","geometry":{"type":"Polygon","coordinates":[[[-123.35,43.65],[-123.25,43.65],[-123.25,43.75],[-123.35,43.75],[-123.35,43.65]]]},"properties":{"group":"cantharellus","week":"2026-10-05","chance":0.0262,"uncertainty_low":null,"uncertainty_high":null,"applicable":true,"drivers":[],"weather_through":null,"model_version":"pnw-pilot-t1-calendar-e2c272b7acfa"}},{"type":"Feature","id":"437_-1232","geometry":{"type":"Polygon","coordinates":[[[-123.25,43.65],[-123.15,43.65],[-123.15,43.75],[-123.25,43.75],[-123.25,43.65]]]},"properties":{"group":"cantharellus","week":"2026-10-05","chance":0.0242,"uncertainty_low":null,"uncertainty_high":null,"applicable":true,"drivers":[],"weather_through":null,"model_version":"pnw-pilot-t1-calendar-e2c272b7acfa"}},{"type":"Feature","id":"437_-1231","geometry":{"type":"Polygon","coordinates":[[[-123.15,43.65],[-123.05,43.65],[-123.05,43.75],[-123.15,43.75],[-123.15,43.65]]]},"properties":{"group":"cantharellus","week":"2026-10-05","chance":0.0242,"uncertainty_low":null,"uncertainty_high":null,"applicable":true,"drivers":[],"weather_through":null,"model_version":"pnw-pilot-t1-calendar-e2c272b7acfa"}},{"type":"Feature","id":"438_-1240","geometry":{"type":"Polygon","coordinates":[[[-124.05,43.75],[-123.95,43.75],[-123.95,43.85],[-124.05,43.85],[-124.05,43.75]]]},"properties":{"group":"cantharellus","week":"2026-10-05","chance":0.0489,"uncertainty_low":null,"uncertainty_high":null,"applicable":true,"drivers":[],"weather_through":null,"model_version":"pnw-pilot-t1-calendar-e2c272b7acfa"}},{"type":"Feature","id":"438_-1239","geometry":{"type":"Polygon","coordinates":[[[-123.95,43.75],[-123.85,43.75],[-123.85,43.85],[-123.95,43.85],[-123.95,43.75]]]},"properties":{"group":"cantharellus","week":"2026-10-05","chance":0.0505,"uncertainty_low":null,"uncertainty_high":null,"applicable":true,"drivers":[],"weather_through":null,"model_version":"pnw-pilot-t1-calendar-e2c272b7acfa"}},{"type":"Feature","id":"438_-1238","geometry":{"type":"Polygon","coordinates":[[[-123.85,43.75],[-123.75,43.75],[-123.75,43.85],[-123.85,43.85],[-123.85,43.75]]]},"properties":{"group":"cantharellus","week":"2026-10-05","chance":0.0529,"uncertainty_low":null,"uncertainty_high":null,"applicable":true,"drivers":[],"weather_through":null,"model_version":"pnw-pilot-t1-calendar-e2c272b7acfa"}},{"type":"Feature","id":"438_-1237","geometry":{"type":"Polygon","coordinates":[[[-123.75,43.75],[-123.65,43.75],[-123.65,43.85],[-123.75,43.85],[-123.75,43.75]]]},"properties":{"group":"cantharellus","week":"2026-10-05","chance":0.0529,"uncertainty_low":null,"uncertainty_high":null,"applicable":true,"drivers":[],"weather_through":null,"model_version":"pnw-pilot-t1-calendar-e2c272b7acfa"}},{"type":"Feature","id":"438_-1236","geometry":{"type":"Polygon","coordinates":[[[-123.65,43.75],[-123.55,43.75],[-123.55,43.85],[-123.65,43.85],[-123.65,43.75]]]},"properties":{"group":"cantharellus","week":"2026-10-05","chance":0.0529,"uncertainty_low":null,"uncertainty_high":null,"applicable":true,"drivers":[],"weather_through":null,"model_version":"pnw-pilot-t1-calendar-e2c272b7acfa"}},{"type":"Feature","id":"438_-1235","geometry":{"type":"Polygon","coordinates":[[[-123.55,43.75],[-123.45,43.75],[-123.45,43.85],[-123.55,43.85],[-123.55,43.75]]]},"properties":{"group":"cantharellus","week":"2026-10-05","chance":0.0536,"uncertainty_low":null,"uncertainty_high":null,"applicable":true,"drivers":[],"weather_through":null,"model_version":"pnw-pilot-t1-calendar-e2c272b7acfa"}},{"type":"Feature","id":"438_-1234","geometry":{"type":"Polygon","coordinates":[[[-123.45,43.75],[-123.35,43.75],[-123.35,43.85],[-123.45,43.85],[-123.45,43.75]]]},"properties":{"group":"cantharellus","week":"2026-10-05","chance":0.0355,"uncertainty_low":null,"uncertainty_high":null,"applicable":true,"drivers":[],"weather_through":null,"model_version":"pnw-pilot-t1-calendar-e2c272b7acfa"}},{"type":"Feature","id":"438_-1233","geometry":{"type":"Polygon","coordinates":[[[-123.35,43.75],[-123.25,43.75],[-123.25,43.85],[-123.35,43.85],[-123.35,43.75]]]},"properties":{"group":"cantharellus","week":"2026-10-05","chance":0.0262,"uncertainty_low":null,"uncertainty_high":null,"applicable":true,"drivers":[],"weather_through":null,"model_version":"pnw-pilot-t1-calendar-e2c272b7acfa"}},{"type":"Feature","id":"438_-1232","geometry":{"type":"Polygon","coordinates":[[[-123.25,43.75],[-123.15,43.75],[-123.15,43.85],[-123.25,43.85],[-123.25,43.75]]]},"properties":{"group":"cantharellus","week":"2026-10-05","chance":0.0242,"uncertainty_low":null,"uncertainty_high":null,"applicable":true,"drivers":[],"weather_through":null,"model_version":"pnw-pilot-t1-calendar-e2c272b7acfa"}},{"type":"Feature","id":"438_-1231","geometry":{"type":"Polygon","coordinates":[[[-123.15,43.75],[-123.05,43.75],[-123.05,43.85],[-123.15,43.85],[-123.15,43.75]]]},"properties":{"group":"cantharellus","week":"2026-10-05","chance":0.0242,"uncertainty_low":null,"uncertainty_high":null,"applicable":true,"drivers":[],"weather_through":null,"model_version":"pnw-pilot-t1-calendar-e2c272b7acfa"}},{"type":"Feature","id":"439_-1240","geometry":{"type":"Polygon","coordinates":[[[-124.05,43.85],[-123.95,43.85],[-123.95,43.95],[-124.05,43.95],[-124.05,43.85]]]},"properties":{"group":"cantharellus","week":"2026-10-05","chance":0.0593,"uncertainty_low":null,"uncertainty_high":null,"applicable":true,"drivers":[],"weather_through":null,"model_version":"pnw-pilot-t1-calendar-e2c272b7acfa"}},{"type":"Feature","id":"439_-1239","geometry":{"type":"Polygon","coordinates":[[[-123.95,43.85],[-123.85,43.85],[-123.85,43.95],[-123.95,43.95],[-123.95,43.85]]]},"properties":{"group":"cantharellus","week":"2026-10-05","chance":0.0612,"uncertainty_low":null,"uncertainty_high":null,"applicable":true,"drivers":[],"weather_through":null,"model_version":"pnw-pilot-t1-calendar-e2c272b7acfa"}},{"type":"Feature","id":"439_-1238","geometry":{"type":"Polygon","coordinates":[[[-123.85,43.85],[-123.75,43.85],[-123.75,43.95],[-123.85,43.95],[-123.85,43.85]]]},"properties":{"group":"cantharellus","week":"2026-10-05","chance":0.0642,"uncertainty_low":null,"uncertainty_high":null,"applicable":true,"drivers":[],"weather_through":null,"model_version":"pnw-pilot-t1-calendar-e2c272b7acfa"}},{"type":"Feature","id":"439_-1237","geometry":{"type":"Polygon","coordinates":[[[-123.75,43.85],[-123.65,43.85],[-123.65,43.95],[-123.75,43.95],[-123.75,43.85]]]},"properties":{"group":"cantharellus","week":"2026-10-05","chance":0.0642,"uncertainty_low":null,"uncertainty_high":null,"applicable":true,"drivers":[],"weather_through":null,"model_version":"pnw-pilot-t1-calendar-e2c272b7acfa"}},{"type":"Feature","id":"439_-1236","geometry":{"type":"Polygon","coordinates":[[[-123.65,43.85],[-123.55,43.85],[-123.55,43.95],[-123.65,43.95],[-123.65,43.85]]]},"properties":{"group":"cantharellus","week":"2026-10-05","chance":0.0642,"uncertainty_low":null,"uncertainty_high":null,"applicable":true,"drivers":[],"weather_through":null,"model_version":"pnw-pilot-t1-calendar-e2c272b7acfa"}},{"type":"Feature","id":"439_-1235","geometry":{"type":"Polygon","coordinates":[[[-123.55,43.85],[-123.45,43.85],[-123.45,43.95],[-123.55,43.95],[-123.55,43.85]]]},"properties":{"group":"cantharellus","week":"2026-10-05","chance":0.0649,"uncertainty_low":null,"uncertainty_high":null,"applicable":true,"drivers":[],"weather_through":null,"model_version":"pnw-pilot-t1-calendar-e2c272b7acfa"}},{"type":"Feature","id":"439_-1234","geometry":{"type":"Polygon","coordinates":[[[-123.45,43.85],[-123.35,43.85],[-123.35,43.95],[-123.45,43.95],[-123.45,43.85]]]},"properties":{"group":"cantharellus","week":"2026-10-05","chance":0.0355,"uncertainty_low":null,"uncertainty_high":null,"applicable":true,"drivers":[],"weather_through":null,"model_version":"pnw-pilot-t1-calendar-e2c272b7acfa"}},{"type":"Feature","id":"439_-1233","geometry":{"type":"Polygon","coordinates":[[[-123.35,43.85],[-123.25,43.85],[-123.25,43.95],[-123.35,43.95],[-123.35,43.85]]]},"properties":{"group":"cantharellus","week":"2026-10-05","chance":0.0262,"uncertainty_low":null,"uncertainty_high":null,"applicable":true,"drivers":[],"weather_through":null,"model_version":"pnw-pilot-t1-calendar-e2c272b7acfa"}},{"type":"Feature","id":"439_-1232","geometry":{"type":"Polygon","coordinates":[[[-123.25,43.85],[-123.15,43.85],[-123.15,43.95],[-123.25,43.95],[-123.25,43.85]]]},"properties":{"group":"cantharellus","week":"2026-10-05","chance":0.0242,"uncertainty_low":null,"uncertainty_high":null,"applicable":true,"drivers":[],"weather_through":null,"model_version":"pnw-pilot-t1-calendar-e2c272b7acfa"}},{"type":"Feature","id":"439_-1231","geometry":{"type":"Polygon","coordinates":[[[-123.15,43.85],[-123.05,43.85],[-123.05,43.95],[-123.15,43.95],[-123.15,43.85]]]},"properties":{"group":"cantharellus","week":"2026-10-05","chance":0.0242,"uncertainty_low":null,"uncertainty_high":null,"applicable":true,"drivers":[],"weather_through":null,"model_version":"pnw-pilot-t1-calendar-e2c272b7acfa"}}]}