{"type":"FeatureCollection","features":[{"type":"Feature","id":"430_-1210","geometry":{"type":"Polygon","coordinates":[[[-121.05,42.95],[-120.95,42.95],[-120.95,43.05],[-121.05,43.05],[-121.05,42.95]]]},"properties":{"group":"cantharellus","week":"2026-10-05","chance":0.0311,"uncertainty_low":null,"uncertainty_high":null,"applicable":true,"drivers":[],"weather_through":null,"model_version":"pnw-pilot-t1-calendar-e2c272b7acfa"}},{"type":"Feature","id":"431_-1210","geometry":{"type":"Polygon","coordinates":[[[-121.05,43.05],[-120.95,43.05],[-120.95,43.15],[-121.05,43.15],[-121.05,43.05]]]},"properties":{"group":"cantharellus","week":"2026-10-05","chance":0.0311,"uncertainty_low":null,"uncertainty_high":null,"applicable":true,"drivers":[],"weather_through":null,"model_version":"pnw-pilot-t1-calendar-e2c272b7acfa"}},{"type":"Feature","id":"432_-1210","geometry":{"type":"Polygon","coordinates":[[[-121.05,43.15],[-120.95,43.15],[-120.95,43.25],[-121.05,43.25],[-121.05,43.15]]]},"properties":{"group":"cantharellus","week":"2026-10-05","chance":0.0311,"uncertainty_low":null,"uncertainty_high":null,"applicable":true,"drivers":[],"weather_through":null,"model_version":"pnw-pilot-t1-calendar-e2c272b7acfa"}},{"type":"Feature","id":"433_-1210","geometry":{"type":"Polygon","coordinates":[[[-121.05,43.25],[-120.95,43.25],[-120.95,43.35],[-121.05,43.35],[-121.05,43.25]]]},"properties":{"group":"cantharellus","week":"2026-10-05","chance":0.0311,"uncertainty_low":null,"uncertainty_high":null,"applicable":true,"drivers":[],"weather_through":null,"model_version":"pnw-pilot-t1-calendar-e2c272b7acfa"}},{"type":"Feature","id":"434_-1210","geometry":{"type":"Polygon","coordinates":[[[-121.05,43.35],[-120.95,43.35],[-120.95,43.45],[-121.05,43.45],[-121.05,43.35]]]},"properties":{"group":"cantharellus","week":"2026-10-05","chance":0.0307,"uncertainty_low":null,"uncertainty_high":null,"applicable":true,"drivers":[],"weather_through":null,"model_version":"pnw-pilot-t1-calendar-e2c272b7acfa"}},{"type":"Feature","id":"435_-1210","geometry":{"type":"Polygon","coordinates":[[[-121.05,43.45],[-120.95,43.45],[-120.95,43.55],[-121.05,43.55],[-121.05,43.45]]]},"properties":{"group":"cantharellus","week":"2026-10-05","chance":0.0322,"uncertainty_low":null,"uncertainty_high":null,"applicable":true,"drivers":[],"weather_through":null,"model_version":"pnw-pilot-t1-calendar-e2c272b7acfa"}},{"type":"Feature","id":"436_-1210","geometry":{"type":"Polygon","coordinates":[[[-121.05,43.55],[-120.95,43.55],[-120.95,43.65],[-121.05,43.65],[-121.05,43.55]]]},"properties":{"group":"cantharellus","week":"2026-10-05","chance":0.0322,"uncertainty_low":null,"uncertainty_high":null,"applicable":true,"drivers":[],"weather_through":null,"model_version":"pnw-pilot-t1-calendar-e2c272b7acfa"}},{"type":"Feature","id":"437_-1210","geometry":{"type":"Polygon","coordinates":[[[-121.05,43.65],[-120.95,43.65],[-120.95,43.75],[-121.05,43.75],[-121.05,43.65]]]},"properties":{"group":"cantharellus","week":"2026-10-05","chance":0.0323,"uncertainty_low":null,"uncertainty_high":null,"applicable":true,"drivers":[],"weather_through":null,"model_version":"pnw-pilot-t1-calendar-e2c272b7acfa"}},{"type":"Feature","id":"438_-1210","geometry":{"type":"Polygon","coordinates":[[[-121.05,43.75],[-120.95,43.75],[-120.95,43.85],[-121.05,43.85],[-121.05,43.75]]]},"properties":{"group":"cantharellus","week":"2026-10-05","chance":0.032,"uncertainty_low":null,"uncertainty_high":null,"applicable":true,"drivers":[],"weather_through":null,"model_version":"pnw-pilot-t1-calendar-e2c272b7acfa"}},{"type":"Feature","id":"439_-1210","geometry":{"type":"Polygon","coordinates":[[[-121.05,43.85],[-120.95,43.85],[-120.95,43.95],[-121.05,43.95],[-121.05,43.85]]]},"properties":{"group":"cantharellus","week":"2026-10-05","chance":0.032,"uncertainty_low":null,"uncertainty_high":null,"applicable":true,"drivers":[],"weather_through":null,"model_version":"pnw-pilot-t1-calendar-e2c272b7acfa"}}]}