{"type":"FeatureCollection","features":[{"type":"Feature","id":"438_-1227","geometry":{"type":"Polygon","coordinates":[[[-122.75,43.75],[-122.65,43.75],[-122.65,43.85],[-122.75,43.85],[-122.75,43.75]]]},"properties":{"group":"cantharellus","week":"2026-10-05","chance":0.1313,"uncertainty_low":null,"uncertainty_high":null,"applicable":true,"drivers":[{"label":"Rain, total of the last 14 days (mm)","value":12.6},{"label":"Rain, total of the last 3 days (mm)","value":0.0},{"label":"Air temperature, mean of the last 7 days (°C)","value":14.657}],"weather_through":"2026-10-04","model_version":"pnw-pilot-t1-synthetic-1cbe08ab21a8"}}]}