{"type":"FeatureCollection","features":[{"type":"Feature","id":"440_-1210","geometry":{"type":"Polygon","coordinates":[[[-121.05,43.95],[-120.95,43.95],[-120.95,44.05],[-121.05,44.05],[-121.05,43.95]]]},"properties":{"group":"cantharellus","week":"2026-10-05","chance":0.0256,"uncertainty_low":null,"uncertainty_high":null,"applicable":true,"drivers":[],"weather_through":null,"model_version":"pnw-pilot-t1-calendar-e2c272b7acfa"}},{"type":"Feature","id":"441_-1210","geometry":{"type":"Polygon","coordinates":[[[-121.05,44.05],[-120.95,44.05],[-120.95,44.15],[-121.05,44.15],[-121.05,44.05]]]},"properties":{"group":"cantharellus","week":"2026-10-05","chance":0.0256,"uncertainty_low":null,"uncertainty_high":null,"applicable":true,"drivers":[],"weather_through":null,"model_version":"pnw-pilot-t1-calendar-e2c272b7acfa"}},{"type":"Feature","id":"442_-1210","geometry":{"type":"Polygon","coordinates":[[[-121.05,44.15],[-120.95,44.15],[-120.95,44.25],[-121.05,44.25],[-121.05,44.15]]]},"properties":{"group":"cantharellus","week":"2026-10-05","chance":0.0335,"uncertainty_low":null,"uncertainty_high":null,"applicable":true,"drivers":[],"weather_through":null,"model_version":"pnw-pilot-t1-calendar-e2c272b7acfa"}},{"type":"Feature","id":"443_-1210","geometry":{"type":"Polygon","coordinates":[[[-121.05,44.25],[-120.95,44.25],[-120.95,44.35],[-121.05,44.35],[-121.05,44.25]]]},"properties":{"group":"cantharellus","week":"2026-10-05","chance":0.0465,"uncertainty_low":null,"uncertainty_high":null,"applicable":true,"drivers":[],"weather_through":null,"model_version":"pnw-pilot-t1-calendar-e2c272b7acfa"}},{"type":"Feature","id":"444_-1210","geometry":{"type":"Polygon","coordinates":[[[-121.05,44.35],[-120.95,44.35],[-120.95,44.45],[-121.05,44.45],[-121.05,44.35]]]},"properties":{"group":"cantharellus","week":"2026-10-05","chance":0.0476,"uncertainty_low":null,"uncertainty_high":null,"applicable":true,"drivers":[],"weather_through":null,"model_version":"pnw-pilot-t1-calendar-e2c272b7acfa"}},{"type":"Feature","id":"445_-1210","geometry":{"type":"Polygon","coordinates":[[[-121.05,44.45],[-120.95,44.45],[-120.95,44.55],[-121.05,44.55],[-121.05,44.45]]]},"properties":{"group":"cantharellus","week":"2026-10-05","chance":0.0476,"uncertainty_low":null,"uncertainty_high":null,"applicable":true,"drivers":[],"weather_through":null,"model_version":"pnw-pilot-t1-calendar-e2c272b7acfa"}},{"type":"Feature","id":"446_-1210","geometry":{"type":"Polygon","coordinates":[[[-121.05,44.55],[-120.95,44.55],[-120.95,44.65],[-121.05,44.65],[-121.05,44.55]]]},"properties":{"group":"cantharellus","week":"2026-10-05","chance":0.0306,"uncertainty_low":null,"uncertainty_high":null,"applicable":true,"drivers":[],"weather_through":null,"model_version":"pnw-pilot-t1-calendar-e2c272b7acfa"}},{"type":"Feature","id":"447_-1210","geometry":{"type":"Polygon","coordinates":[[[-121.05,44.65],[-120.95,44.65],[-120.95,44.75],[-121.05,44.75],[-121.05,44.65]]]},"properties":{"group":"cantharellus","week":"2026-10-05","chance":0.0263,"uncertainty_low":null,"uncertainty_high":null,"applicable":true,"drivers":[],"weather_through":null,"model_version":"pnw-pilot-t1-calendar-e2c272b7acfa"}},{"type":"Feature","id":"448_-1210","geometry":{"type":"Polygon","coordinates":[[[-121.05,44.75],[-120.95,44.75],[-120.95,44.85],[-121.05,44.85],[-121.05,44.75]]]},"properties":{"group":"cantharellus","week":"2026-10-05","chance":0.0263,"uncertainty_low":null,"uncertainty_high":null,"applicable":true,"drivers":[],"weather_through":null,"model_version":"pnw-pilot-t1-calendar-e2c272b7acfa"}},{"type":"Feature","id":"449_-1210","geometry":{"type":"Polygon","coordinates":[[[-121.05,44.85],[-120.95,44.85],[-120.95,44.95],[-121.05,44.95],[-121.05,44.85]]]},"properties":{"group":"cantharellus","week":"2026-10-05","chance":0.0263,"uncertainty_low":null,"uncertainty_high":null,"applicable":true,"drivers":[],"weather_through":null,"model_version":"pnw-pilot-t1-calendar-e2c272b7acfa"}}]}