{"type":"FeatureCollection","features":[{"type":"Feature","id":"440_-1230","geometry":{"type":"Polygon","coordinates":[[[-123.05,43.95],[-122.95,43.95],[-122.95,44.05],[-123.05,44.05],[-123.05,43.95]]]},"properties":{"group":"cantharellus","week":"2026-10-05","chance":0.1313,"uncertainty_low":null,"uncertainty_high":null,"applicable":true,"drivers":[{"label":"Rain, total of the last 14 days (mm)","value":7.4},{"label":"Rain, total of the last 3 days (mm)","value":0.0},{"label":"Air temperature, mean of the last 7 days (°C)","value":16.029}],"weather_through":"2026-10-04","model_version":"pnw-pilot-t1-synthetic-1cbe08ab21a8"}},{"type":"Feature","id":"440_-1229","geometry":{"type":"Polygon","coordinates":[[[-122.95,43.95],[-122.85,43.95],[-122.85,44.05],[-122.95,44.05],[-122.95,43.95]]]},"properties":{"group":"cantharellus","week":"2026-10-05","chance":0.1313,"uncertainty_low":null,"uncertainty_high":null,"applicable":true,"drivers":[{"label":"Rain, total of the last 14 days (mm)","value":7.4},{"label":"Rain, total of the last 3 days (mm)","value":0.0},{"label":"Air temperature, mean of the last 7 days (°C)","value":15.914}],"weather_through":"2026-10-04","model_version":"pnw-pilot-t1-synthetic-1cbe08ab21a8"}},{"type":"Feature","id":"442_-1228","geometry":{"type":"Polygon","coordinates":[[[-122.85,44.15],[-122.75,44.15],[-122.75,44.25],[-122.85,44.25],[-122.85,44.15]]]},"properties":{"group":"cantharellus","week":"2026-10-05","chance":0.1313,"uncertainty_low":null,"uncertainty_high":null,"applicable":true,"drivers":[{"label":"Rain, total of the last 14 days (mm)","value":14.9},{"label":"Rain, total of the last 3 days (mm)","value":0.0},{"label":"Air temperature, mean of the last 7 days (°C)","value":15.2}],"weather_through":"2026-10-04","model_version":"pnw-pilot-t1-synthetic-1cbe08ab21a8"}},{"type":"Feature","id":"442_-1223","geometry":{"type":"Polygon","coordinates":[[[-122.35,44.15],[-122.25,44.15],[-122.25,44.25],[-122.35,44.25],[-122.35,44.15]]]},"properties":{"group":"cantharellus","week":"2026-10-05","chance":0.1313,"uncertainty_low":null,"uncertainty_high":null,"applicable":true,"drivers":[{"label":"Rain, total of the last 14 days (mm)","value":15.4},{"label":"Rain, total of the last 3 days (mm)","value":0.0},{"label":"Air temperature, mean of the last 7 days (°C)","value":14.343}],"weather_through":"2026-10-04","model_version":"pnw-pilot-t1-synthetic-1cbe08ab21a8"}},{"type":"Feature","id":"442_-1222","geometry":{"type":"Polygon","coordinates":[[[-122.25,44.15],[-122.15,44.15],[-122.15,44.25],[-122.25,44.25],[-122.25,44.15]]]},"properties":{"group":"cantharellus","week":"2026-10-05","chance":0.1313,"uncertainty_low":null,"uncertainty_high":null,"applicable":true,"drivers":[{"label":"Rain, total of the last 14 days (mm)","value":15.4},{"label":"Rain, total of the last 3 days (mm)","value":0.0},{"label":"Air temperature, mean of the last 7 days (°C)","value":14.543}],"weather_through":"2026-10-04","model_version":"pnw-pilot-t1-synthetic-1cbe08ab21a8"}},{"type":"Feature","id":"442_-1221","geometry":{"type":"Polygon","coordinates":[[[-122.15,44.15],[-122.05,44.15],[-122.05,44.25],[-122.15,44.25],[-122.15,44.15]]]},"properties":{"group":"cantharellus","week":"2026-10-05","chance":0.1313,"uncertainty_low":null,"uncertainty_high":null,"applicable":true,"drivers":[{"label":"Rain, total of the last 14 days (mm)","value":11.0},{"label":"Rain, total of the last 3 days (mm)","value":0.0},{"label":"Air temperature, mean of the last 7 days (°C)","value":14.557}],"weather_through":"2026-10-04","model_version":"pnw-pilot-t1-synthetic-1cbe08ab21a8"}},{"type":"Feature","id":"449_-1230","geometry":{"type":"Polygon","coordinates":[[[-123.05,44.85],[-122.95,44.85],[-122.95,44.95],[-123.05,44.95],[-123.05,44.85]]]},"properties":{"group":"cantharellus","week":"2026-10-05","chance":0.1313,"uncertainty_low":null,"uncertainty_high":null,"applicable":true,"drivers":[{"label":"Rain, total of the last 14 days (mm)","value":10.6},{"label":"Rain, total of the last 3 days (mm)","value":0.0},{"label":"Air temperature, mean of the last 7 days (°C)","value":16.357}],"weather_through":"2026-10-04","model_version":"pnw-pilot-t1-synthetic-1cbe08ab21a8"}},{"type":"Feature","id":"449_-1226","geometry":{"type":"Polygon","coordinates":[[[-122.65,44.85],[-122.55,44.85],[-122.55,44.95],[-122.65,44.95],[-122.65,44.85]]]},"properties":{"group":"cantharellus","week":"2026-10-05","chance":0.1313,"uncertainty_low":null,"uncertainty_high":null,"applicable":true,"drivers":[{"label":"Rain, total of the last 14 days (mm)","value":18.0},{"label":"Rain, total of the last 3 days (mm)","value":0.0},{"label":"Air temperature, mean of the last 7 days (°C)","value":15.043}],"weather_through":"2026-10-04","model_version":"pnw-pilot-t1-synthetic-1cbe08ab21a8"}}]}