{"type":"FeatureCollection","features":[{"type":"Feature","id":"442_-1220","geometry":{"type":"Polygon","coordinates":[[[-122.05,44.15],[-121.95,44.15],[-121.95,44.25],[-122.05,44.25],[-122.05,44.15]]]},"properties":{"group":"cantharellus","week":"2026-10-05","chance":0.0765,"uncertainty_low":null,"uncertainty_high":null,"applicable":true,"drivers":[],"weather_through":"2026-10-04","model_version":"pnw-pilot-t1-calendar-e2c272b7acfa"}},{"type":"Feature","id":"442_-1219","geometry":{"type":"Polygon","coordinates":[[[-121.95,44.15],[-121.85,44.15],[-121.85,44.25],[-121.95,44.25],[-121.95,44.15]]]},"properties":{"group":"cantharellus","week":"2026-10-05","chance":0.0794,"uncertainty_low":null,"uncertainty_high":null,"applicable":true,"drivers":[],"weather_through":"2026-10-04","model_version":"pnw-pilot-t1-calendar-e2c272b7acfa"}},{"type":"Feature","id":"443_-1220","geometry":{"type":"Polygon","coordinates":[[[-122.05,44.25],[-121.95,44.25],[-121.95,44.35],[-122.05,44.35],[-122.05,44.25]]]},"properties":{"group":"cantharellus","week":"2026-10-05","chance":0.1045,"uncertainty_low":null,"uncertainty_high":null,"applicable":true,"drivers":[],"weather_through":"2026-10-04","model_version":"pnw-pilot-t1-calendar-e2c272b7acfa"}},{"type":"Feature","id":"444_-1220","geometry":{"type":"Polygon","coordinates":[[[-122.05,44.35],[-121.95,44.35],[-121.95,44.45],[-122.05,44.45],[-122.05,44.35]]]},"properties":{"group":"cantharellus","week":"2026-10-05","chance":0.1128,"uncertainty_low":null,"uncertainty_high":null,"applicable":true,"drivers":[],"weather_through":"2026-10-04","model_version":"pnw-pilot-t1-calendar-e2c272b7acfa"}},{"type":"Feature","id":"444_-1217","geometry":{"type":"Polygon","coordinates":[[[-121.75,44.35],[-121.65,44.35],[-121.65,44.45],[-121.75,44.45],[-121.75,44.35]]]},"properties":{"group":"cantharellus","week":"2026-10-05","chance":0.0795,"uncertainty_low":null,"uncertainty_high":null,"applicable":true,"drivers":[],"weather_through":"2026-10-04","model_version":"pnw-pilot-t1-calendar-e2c272b7acfa"}},{"type":"Feature","id":"445_-1220","geometry":{"type":"Polygon","coordinates":[[[-122.05,44.45],[-121.95,44.45],[-121.95,44.55],[-122.05,44.55],[-122.05,44.45]]]},"properties":{"group":"cantharellus","week":"2026-10-05","chance":0.1128,"uncertainty_low":null,"uncertainty_high":null,"applicable":true,"drivers":[],"weather_through":"2026-10-04","model_version":"pnw-pilot-t1-calendar-e2c272b7acfa"}}]}