{"type":"FeatureCollection","features":[{"type":"Feature","id":"440_-1241","geometry":{"type":"Polygon","coordinates":[[[-124.15,43.95],[-124.05,43.95],[-124.05,44.05],[-124.15,44.05],[-124.15,43.95]]]},"properties":{"group":"cantharellus","week":"2026-10-05","chance":0.0521,"uncertainty_low":null,"uncertainty_high":null,"applicable":true,"drivers":[],"weather_through":"2026-10-04","model_version":"pnw-pilot-t1-calendar-e2c272b7acfa"}},{"type":"Feature","id":"441_-1241","geometry":{"type":"Polygon","coordinates":[[[-124.15,44.05],[-124.05,44.05],[-124.05,44.15],[-124.15,44.15],[-124.15,44.05]]]},"properties":{"group":"cantharellus","week":"2026-10-05","chance":0.0521,"uncertainty_low":null,"uncertainty_high":null,"applicable":true,"drivers":[],"weather_through":"2026-10-04","model_version":"pnw-pilot-t1-calendar-e2c272b7acfa"}},{"type":"Feature","id":"442_-1241","geometry":{"type":"Polygon","coordinates":[[[-124.15,44.15],[-124.05,44.15],[-124.05,44.25],[-124.15,44.25],[-124.15,44.15]]]},"properties":{"group":"cantharellus","week":"2026-10-05","chance":0.0677,"uncertainty_low":null,"uncertainty_high":null,"applicable":true,"drivers":[],"weather_through":"2026-10-04","model_version":"pnw-pilot-t1-calendar-e2c272b7acfa"}},{"type":"Feature","id":"443_-1241","geometry":{"type":"Polygon","coordinates":[[[-124.15,44.25],[-124.05,44.25],[-124.05,44.35],[-124.15,44.35],[-124.15,44.25]]]},"properties":{"group":"cantharellus","week":"2026-10-05","chance":0.0894,"uncertainty_low":null,"uncertainty_high":null,"applicable":true,"drivers":[],"weather_through":"2026-10-04","model_version":"pnw-pilot-t1-calendar-e2c272b7acfa"}},{"type":"Feature","id":"444_-1241","geometry":{"type":"Polygon","coordinates":[[[-124.15,44.35],[-124.05,44.35],[-124.05,44.45],[-124.15,44.45],[-124.15,44.35]]]},"properties":{"group":"cantharellus","week":"2026-10-05","chance":0.0894,"uncertainty_low":null,"uncertainty_high":null,"applicable":true,"drivers":[],"weather_through":"2026-10-04","model_version":"pnw-pilot-t1-calendar-e2c272b7acfa"}},{"type":"Feature","id":"445_-1241","geometry":{"type":"Polygon","coordinates":[[[-124.15,44.45],[-124.05,44.45],[-124.05,44.55],[-124.15,44.55],[-124.15,44.45]]]},"properties":{"group":"cantharellus","week":"2026-10-05","chance":0.0894,"uncertainty_low":null,"uncertainty_high":null,"applicable":true,"drivers":[],"weather_through":"2026-10-04","model_version":"pnw-pilot-t1-calendar-e2c272b7acfa"}},{"type":"Feature","id":"446_-1241","geometry":{"type":"Polygon","coordinates":[[[-124.15,44.55],[-124.05,44.55],[-124.05,44.65],[-124.15,44.65],[-124.15,44.55]]]},"properties":{"group":"cantharellus","week":"2026-10-05","chance":0.0505,"uncertainty_low":null,"uncertainty_high":null,"applicable":true,"drivers":[],"weather_through":"2026-10-04","model_version":"pnw-pilot-t1-calendar-e2c272b7acfa"}},{"type":"Feature","id":"447_-1241","geometry":{"type":"Polygon","coordinates":[[[-124.15,44.65],[-124.05,44.65],[-124.05,44.75],[-124.15,44.75],[-124.15,44.65]]]},"properties":{"group":"cantharellus","week":"2026-10-05","chance":0.0474,"uncertainty_low":null,"uncertainty_high":null,"applicable":true,"drivers":[],"weather_through":"2026-10-04","model_version":"pnw-pilot-t1-calendar-e2c272b7acfa"}},{"type":"Feature","id":"448_-1241","geometry":{"type":"Polygon","coordinates":[[[-124.15,44.75],[-124.05,44.75],[-124.05,44.85],[-124.15,44.85],[-124.15,44.75]]]},"properties":{"group":"cantharellus","week":"2026-10-05","chance":0.0474,"uncertainty_low":null,"uncertainty_high":null,"applicable":true,"drivers":[],"weather_through":"2026-10-04","model_version":"pnw-pilot-t1-calendar-e2c272b7acfa"}}]}