{"type":"FeatureCollection","features":[{"type":"Feature","id":"440_-1231","geometry":{"type":"Polygon","coordinates":[[[-123.15,43.95],[-123.05,43.95],[-123.05,44.05],[-123.15,44.05],[-123.15,43.95]]]},"properties":{"group":"cantharellus","week":"2026-10-05","chance":0.1313,"uncertainty_low":null,"uncertainty_high":null,"applicable":true,"drivers":[{"label":"Rain, total of the last 14 days (mm)","value":7.4},{"label":"Rain, total of the last 3 days (mm)","value":0.0},{"label":"Air temperature, mean of the last 7 days (°C)","value":16.0}],"weather_through":"2026-10-04","model_version":"pnw-pilot-t1-synthetic-1cbe08ab21a8"}},{"type":"Feature","id":"441_-1233","geometry":{"type":"Polygon","coordinates":[[[-123.35,44.05],[-123.25,44.05],[-123.25,44.15],[-123.35,44.15],[-123.35,44.05]]]},"properties":{"group":"cantharellus","week":"2026-10-05","chance":0.1313,"uncertainty_low":null,"uncertainty_high":null,"applicable":true,"drivers":[{"label":"Rain, total of the last 14 days (mm)","value":8.9},{"label":"Rain, total of the last 3 days (mm)","value":0.0},{"label":"Air temperature, mean of the last 7 days (°C)","value":15.614}],"weather_through":"2026-10-04","model_version":"pnw-pilot-t1-synthetic-1cbe08ab21a8"}},{"type":"Feature","id":"441_-1232","geometry":{"type":"Polygon","coordinates":[[[-123.25,44.05],[-123.15,44.05],[-123.15,44.15],[-123.25,44.15],[-123.25,44.05]]]},"properties":{"group":"cantharellus","week":"2026-10-05","chance":0.1313,"uncertainty_low":null,"uncertainty_high":null,"applicable":true,"drivers":[{"label":"Rain, total of the last 14 days (mm)","value":8.9},{"label":"Rain, total of the last 3 days (mm)","value":0.0},{"label":"Air temperature, mean of the last 7 days (°C)","value":15.914}],"weather_through":"2026-10-04","model_version":"pnw-pilot-t1-synthetic-1cbe08ab21a8"}},{"type":"Feature","id":"441_-1231","geometry":{"type":"Polygon","coordinates":[[[-123.15,44.05],[-123.05,44.05],[-123.05,44.15],[-123.15,44.15],[-123.15,44.05]]]},"properties":{"group":"cantharellus","week":"2026-10-05","chance":0.1313,"uncertainty_low":null,"uncertainty_high":null,"applicable":true,"drivers":[{"label":"Rain, total of the last 14 days (mm)","value":7.4},{"label":"Rain, total of the last 3 days (mm)","value":0.0},{"label":"Air temperature, mean of the last 7 days (°C)","value":16.043}],"weather_through":"2026-10-04","model_version":"pnw-pilot-t1-synthetic-1cbe08ab21a8"}},{"type":"Feature","id":"443_-1235","geometry":{"type":"Polygon","coordinates":[[[-123.55,44.25],[-123.45,44.25],[-123.45,44.35],[-123.55,44.35],[-123.55,44.25]]]},"properties":{"group":"cantharellus","week":"2026-10-05","chance":0.1313,"uncertainty_low":null,"uncertainty_high":null,"applicable":true,"drivers":[{"label":"Rain, total of the last 14 days (mm)","value":17.6},{"label":"Rain, total of the last 3 days (mm)","value":0.0},{"label":"Air temperature, mean of the last 7 days (°C)","value":14.629}],"weather_through":"2026-10-04","model_version":"pnw-pilot-t1-synthetic-1cbe08ab21a8"}},{"type":"Feature","id":"444_-1233","geometry":{"type":"Polygon","coordinates":[[[-123.35,44.35],[-123.25,44.35],[-123.25,44.45],[-123.35,44.45],[-123.35,44.35]]]},"properties":{"group":"cantharellus","week":"2026-10-05","chance":0.1313,"uncertainty_low":null,"uncertainty_high":null,"applicable":true,"drivers":[{"label":"Rain, total of the last 14 days (mm)","value":13.4},{"label":"Rain, total of the last 3 days (mm)","value":0.0},{"label":"Air temperature, mean of the last 7 days (°C)","value":15.643}],"weather_through":"2026-10-04","model_version":"pnw-pilot-t1-synthetic-1cbe08ab21a8"}},{"type":"Feature","id":"445_-1240","geometry":{"type":"Polygon","coordinates":[[[-124.05,44.45],[-123.95,44.45],[-123.95,44.55],[-124.05,44.55],[-124.05,44.45]]]},"properties":{"group":"cantharellus","week":"2026-10-05","chance":0.1313,"uncertainty_low":null,"uncertainty_high":null,"applicable":true,"drivers":[{"label":"Rain, total of the last 14 days (mm)","value":21.0},{"label":"Rain, total of the last 3 days (mm)","value":0.0},{"label":"Air temperature, mean of the last 7 days (°C)","value":13.571}],"weather_through":"2026-10-04","model_version":"pnw-pilot-t1-synthetic-1cbe08ab21a8"}},{"type":"Feature","id":"445_-1236","geometry":{"type":"Polygon","coordinates":[[[-123.65,44.45],[-123.55,44.45],[-123.55,44.55],[-123.65,44.55],[-123.65,44.45]]]},"properties":{"group":"cantharellus","week":"2026-10-05","chance":0.1313,"uncertainty_low":null,"uncertainty_high":null,"applicable":true,"drivers":[{"label":"Rain, total of the last 14 days (mm)","value":18.5},{"label":"Rain, total of the last 3 days (mm)","value":0.0},{"label":"Air temperature, mean of the last 7 days (°C)","value":14.357}],"weather_through":"2026-10-04","model_version":"pnw-pilot-t1-synthetic-1cbe08ab21a8"}},{"type":"Feature","id":"445_-1235","geometry":{"type":"Polygon","coordinates":[[[-123.55,44.45],[-123.45,44.45],[-123.45,44.55],[-123.55,44.55],[-123.55,44.45]]]},"properties":{"group":"cantharellus","week":"2026-10-05","chance":0.1313,"uncertainty_low":null,"uncertainty_high":null,"applicable":true,"drivers":[{"label":"Rain, total of the last 14 days (mm)","value":18.5},{"label":"Rain, total of the last 3 days (mm)","value":0.0},{"label":"Air temperature, mean of the last 7 days (°C)","value":14.771}],"weather_through":"2026-10-04","model_version":"pnw-pilot-t1-synthetic-1cbe08ab21a8"}},{"type":"Feature","id":"446_-1233","geometry":{"type":"Polygon","coordinates":[[[-123.35,44.55],[-123.25,44.55],[-123.25,44.65],[-123.35,44.65],[-123.35,44.55]]]},"properties":{"group":"cantharellus","week":"2026-10-05","chance":0.1313,"uncertainty_low":null,"uncertainty_high":null,"applicable":true,"drivers":[{"label":"Rain, total of the last 14 days (mm)","value":13.4},{"label":"Rain, total of the last 3 days (mm)","value":0.0},{"label":"Air temperature, mean of the last 7 days (°C)","value":15.557}],"weather_through":"2026-10-04","model_version":"pnw-pilot-t1-synthetic-1cbe08ab21a8"}},{"type":"Feature","id":"447_-1232","geometry":{"type":"Polygon","coordinates":[[[-123.25,44.65],[-123.15,44.65],[-123.15,44.75],[-123.25,44.75],[-123.25,44.65]]]},"properties":{"group":"cantharellus","week":"2026-10-05","chance":0.1313,"uncertainty_low":null,"uncertainty_high":null,"applicable":true,"drivers":[{"label":"Rain, total of the last 14 days (mm)","value":14.7},{"label":"Rain, total of the last 3 days (mm)","value":0.0},{"label":"Air temperature, mean of the last 7 days (°C)","value":15.714}],"weather_through":"2026-10-04","model_version":"pnw-pilot-t1-synthetic-1cbe08ab21a8"}},{"type":"Feature","id":"448_-1240","geometry":{"type":"Polygon","coordinates":[[[-124.05,44.75],[-123.95,44.75],[-123.95,44.85],[-124.05,44.85],[-124.05,44.75]]]},"properties":{"group":"cantharellus","week":"2026-10-05","chance":0.1313,"uncertainty_low":null,"uncertainty_high":null,"applicable":true,"drivers":[{"label":"Rain, total of the last 14 days (mm)","value":23.6},{"label":"Rain, total of the last 3 days (mm)","value":0.0},{"label":"Air temperature, mean of the last 7 days (°C)","value":13.814}],"weather_through":"2026-10-04","model_version":"pnw-pilot-t1-synthetic-1cbe08ab21a8"}},{"type":"Feature","id":"449_-1240","geometry":{"type":"Polygon","coordinates":[[[-124.05,44.85],[-123.95,44.85],[-123.95,44.95],[-124.05,44.95],[-124.05,44.85]]]},"properties":{"group":"cantharellus","week":"2026-10-05","chance":0.1313,"uncertainty_low":null,"uncertainty_high":null,"applicable":true,"drivers":[{"label":"Rain, total of the last 14 days (mm)","value":24.1},{"label":"Rain, total of the last 3 days (mm)","value":0.0},{"label":"Air temperature, mean of the last 7 days (°C)","value":13.743}],"weather_through":"2026-10-04","model_version":"pnw-pilot-t1-synthetic-1cbe08ab21a8"}}]}