{"type":"FeatureCollection","features":[{"type":"Feature","id":"450_-1241","geometry":{"type":"Polygon","coordinates":[[[-124.15,44.95],[-124.05,44.95],[-124.05,45.05],[-124.15,45.05],[-124.15,44.95]]]},"properties":{"group":"cantharellus","week":"2026-10-05","chance":0.0474,"uncertainty_low":null,"uncertainty_high":null,"applicable":true,"drivers":[],"weather_through":null,"model_version":"pnw-pilot-t1-calendar-e2c272b7acfa"}},{"type":"Feature","id":"451_-1241","geometry":{"type":"Polygon","coordinates":[[[-124.15,45.05],[-124.05,45.05],[-124.05,45.15],[-124.15,45.15],[-124.15,45.05]]]},"properties":{"group":"cantharellus","week":"2026-10-05","chance":0.0474,"uncertainty_low":null,"uncertainty_high":null,"applicable":true,"drivers":[],"weather_through":null,"model_version":"pnw-pilot-t1-calendar-e2c272b7acfa"}},{"type":"Feature","id":"453_-1241","geometry":{"type":"Polygon","coordinates":[[[-124.15,45.25],[-124.05,45.25],[-124.05,45.35],[-124.15,45.35],[-124.15,45.25]]]},"properties":{"group":"cantharellus","week":"2026-10-05","chance":0.0475,"uncertainty_low":null,"uncertainty_high":null,"applicable":true,"drivers":[],"weather_through":null,"model_version":"pnw-pilot-t1-calendar-e2c272b7acfa"}},{"type":"Feature","id":"454_-1241","geometry":{"type":"Polygon","coordinates":[[[-124.15,45.35],[-124.05,45.35],[-124.05,45.45],[-124.15,45.45],[-124.15,45.35]]]},"properties":{"group":"cantharellus","week":"2026-10-05","chance":0.0475,"uncertainty_low":null,"uncertainty_high":null,"applicable":true,"drivers":[],"weather_through":null,"model_version":"pnw-pilot-t1-calendar-e2c272b7acfa"}},{"type":"Feature","id":"455_-1241","geometry":{"type":"Polygon","coordinates":[[[-124.15,45.45],[-124.05,45.45],[-124.05,45.55],[-124.15,45.55],[-124.15,45.45]]]},"properties":{"group":"cantharellus","week":"2026-10-05","chance":0.048,"uncertainty_low":null,"uncertainty_high":null,"applicable":true,"drivers":[],"weather_through":null,"model_version":"pnw-pilot-t1-calendar-e2c272b7acfa"}}]}