{"type":"FeatureCollection","features":[{"type":"Feature","id":"450_-1240","geometry":{"type":"Polygon","coordinates":[[[-124.05,44.95],[-123.95,44.95],[-123.95,45.05],[-124.05,45.05],[-124.05,44.95]]]},"properties":{"group":"cantharellus","week":"2026-10-05","chance":0.1313,"uncertainty_low":null,"uncertainty_high":null,"applicable":true,"drivers":[{"label":"Rain, total of the last 14 days (mm)","value":24.1},{"label":"Rain, total of the last 3 days (mm)","value":0.0},{"label":"Air temperature, mean of the last 7 days (°C)","value":13.714}],"weather_through":"2026-10-04","model_version":"pnw-pilot-t1-synthetic-1cbe08ab21a8"}},{"type":"Feature","id":"453_-1240","geometry":{"type":"Polygon","coordinates":[[[-124.05,45.25],[-123.95,45.25],[-123.95,45.35],[-124.05,45.35],[-124.05,45.25]]]},"properties":{"group":"cantharellus","week":"2026-10-05","chance":0.1313,"uncertainty_low":null,"uncertainty_high":null,"applicable":true,"drivers":[{"label":"Rain, total of the last 14 days (mm)","value":26.8},{"label":"Rain, total of the last 3 days (mm)","value":0.0},{"label":"Air temperature, mean of the last 7 days (°C)","value":13.5}],"weather_through":"2026-10-04","model_version":"pnw-pilot-t1-synthetic-1cbe08ab21a8"}},{"type":"Feature","id":"456_-1240","geometry":{"type":"Polygon","coordinates":[[[-124.05,45.55],[-123.95,45.55],[-123.95,45.65],[-124.05,45.65],[-124.05,45.55]]]},"properties":{"group":"cantharellus","week":"2026-10-05","chance":0.1313,"uncertainty_low":null,"uncertainty_high":null,"applicable":true,"drivers":[{"label":"Rain, total of the last 14 days (mm)","value":31.6},{"label":"Rain, total of the last 3 days (mm)","value":0.3},{"label":"Air temperature, mean of the last 7 days (°C)","value":13.471}],"weather_through":"2026-10-04","model_version":"pnw-pilot-t1-synthetic-1cbe08ab21a8"}},{"type":"Feature","id":"457_-1239","geometry":{"type":"Polygon","coordinates":[[[-123.95,45.65],[-123.85,45.65],[-123.85,45.75],[-123.95,45.75],[-123.95,45.65]]]},"properties":{"group":"cantharellus","week":"2026-10-05","chance":0.1313,"uncertainty_low":null,"uncertainty_high":null,"applicable":true,"drivers":[{"label":"Rain, total of the last 14 days (mm)","value":36.7},{"label":"Rain, total of the last 3 days (mm)","value":0.0},{"label":"Air temperature, mean of the last 7 days (°C)","value":13.729}],"weather_through":"2026-10-04","model_version":"pnw-pilot-t1-synthetic-1cbe08ab21a8"}},{"type":"Feature","id":"457_-1232","geometry":{"type":"Polygon","coordinates":[[[-123.25,45.65],[-123.15,45.65],[-123.15,45.75],[-123.25,45.75],[-123.25,45.65]]]},"properties":{"group":"cantharellus","week":"2026-10-05","chance":0.1313,"uncertainty_low":null,"uncertainty_high":null,"applicable":true,"drivers":[{"label":"Rain, total of the last 14 days (mm)","value":21.7},{"label":"Rain, total of the last 3 days (mm)","value":0.0},{"label":"Air temperature, mean of the last 7 days (°C)","value":15.086}],"weather_through":"2026-10-04","model_version":"pnw-pilot-t1-synthetic-1cbe08ab21a8"}},{"type":"Feature","id":"458_-1240","geometry":{"type":"Polygon","coordinates":[[[-124.05,45.75],[-123.95,45.75],[-123.95,45.85],[-124.05,45.85],[-124.05,45.75]]]},"properties":{"group":"cantharellus","week":"2026-10-05","chance":0.1313,"uncertainty_low":null,"uncertainty_high":null,"applicable":true,"drivers":[{"label":"Rain, total of the last 14 days (mm)","value":36.7},{"label":"Rain, total of the last 3 days (mm)","value":0.0},{"label":"Air temperature, mean of the last 7 days (°C)","value":13.429}],"weather_through":"2026-10-04","model_version":"pnw-pilot-t1-synthetic-1cbe08ab21a8"}},{"type":"Feature","id":"459_-1240","geometry":{"type":"Polygon","coordinates":[[[-124.05,45.85],[-123.95,45.85],[-123.95,45.95],[-124.05,45.95],[-124.05,45.85]]]},"properties":{"group":"cantharellus","week":"2026-10-05","chance":0.1313,"uncertainty_low":null,"uncertainty_high":null,"applicable":true,"drivers":[{"label":"Rain, total of the last 14 days (mm)","value":34.9},{"label":"Rain, total of the last 3 days (mm)","value":0.3},{"label":"Air temperature, mean of the last 7 days (°C)","value":13.6}],"weather_through":"2026-10-04","model_version":"pnw-pilot-t1-synthetic-1cbe08ab21a8"}}]}