{"type":"FeatureCollection","features":[{"type":"Feature","id":"450_-1220","geometry":{"type":"Polygon","coordinates":[[[-122.05,44.95],[-121.95,44.95],[-121.95,45.05],[-122.05,45.05],[-122.05,44.95]]]},"properties":{"group":"cantharellus","week":"2026-10-05","chance":0.0698,"uncertainty_low":null,"uncertainty_high":null,"applicable":true,"drivers":[],"weather_through":null,"model_version":"pnw-pilot-t1-calendar-e2c272b7acfa"}},{"type":"Feature","id":"450_-1219","geometry":{"type":"Polygon","coordinates":[[[-121.95,44.95],[-121.85,44.95],[-121.85,45.05],[-121.95,45.05],[-121.95,44.95]]]},"properties":{"group":"cantharellus","week":"2026-10-05","chance":0.0724,"uncertainty_low":null,"uncertainty_high":null,"applicable":true,"drivers":[],"weather_through":null,"model_version":"pnw-pilot-t1-calendar-e2c272b7acfa"}},{"type":"Feature","id":"450_-1218","geometry":{"type":"Polygon","coordinates":[[[-121.85,44.95],[-121.75,44.95],[-121.75,45.05],[-121.85,45.05],[-121.85,44.95]]]},"properties":{"group":"cantharellus","week":"2026-10-05","chance":0.0489,"uncertainty_low":null,"uncertainty_high":null,"applicable":true,"drivers":[],"weather_through":null,"model_version":"pnw-pilot-t1-calendar-e2c272b7acfa"}},{"type":"Feature","id":"450_-1217","geometry":{"type":"Polygon","coordinates":[[[-121.75,44.95],[-121.65,44.95],[-121.65,45.05],[-121.75,45.05],[-121.75,44.95]]]},"properties":{"group":"cantharellus","week":"2026-10-05","chance":0.0489,"uncertainty_low":null,"uncertainty_high":null,"applicable":true,"drivers":[],"weather_through":null,"model_version":"pnw-pilot-t1-calendar-e2c272b7acfa"}},{"type":"Feature","id":"450_-1216","geometry":{"type":"Polygon","coordinates":[[[-121.65,44.95],[-121.55,44.95],[-121.55,45.05],[-121.65,45.05],[-121.65,44.95]]]},"properties":{"group":"cantharellus","week":"2026-10-05","chance":0.0555,"uncertainty_low":null,"uncertainty_high":null,"applicable":true,"drivers":[],"weather_through":null,"model_version":"pnw-pilot-t1-calendar-e2c272b7acfa"}},{"type":"Feature","id":"450_-1215","geometry":{"type":"Polygon","coordinates":[[[-121.55,44.95],[-121.45,44.95],[-121.45,45.05],[-121.55,45.05],[-121.55,44.95]]]},"properties":{"group":"cantharellus","week":"2026-10-05","chance":0.0271,"uncertainty_low":null,"uncertainty_high":null,"applicable":true,"drivers":[],"weather_through":null,"model_version":"pnw-pilot-t1-calendar-e2c272b7acfa"}},{"type":"Feature","id":"450_-1214","geometry":{"type":"Polygon","coordinates":[[[-121.45,44.95],[-121.35,44.95],[-121.35,45.05],[-121.45,45.05],[-121.45,44.95]]]},"properties":{"group":"cantharellus","week":"2026-10-05","chance":0.0255,"uncertainty_low":null,"uncertainty_high":null,"applicable":true,"drivers":[],"weather_through":null,"model_version":"pnw-pilot-t1-calendar-e2c272b7acfa"}},{"type":"Feature","id":"450_-1213","geometry":{"type":"Polygon","coordinates":[[[-121.35,44.95],[-121.25,44.95],[-121.25,45.05],[-121.35,45.05],[-121.35,44.95]]]},"properties":{"group":"cantharellus","week":"2026-10-05","chance":0.0255,"uncertainty_low":null,"uncertainty_high":null,"applicable":true,"drivers":[],"weather_through":null,"model_version":"pnw-pilot-t1-calendar-e2c272b7acfa"}},{"type":"Feature","id":"450_-1212","geometry":{"type":"Polygon","coordinates":[[[-121.25,44.95],[-121.15,44.95],[-121.15,45.05],[-121.25,45.05],[-121.25,44.95]]]},"properties":{"group":"cantharellus","week":"2026-10-05","chance":0.0255,"uncertainty_low":null,"uncertainty_high":null,"applicable":true,"drivers":[],"weather_through":null,"model_version":"pnw-pilot-t1-calendar-e2c272b7acfa"}},{"type":"Feature","id":"450_-1211","geometry":{"type":"Polygon","coordinates":[[[-121.15,44.95],[-121.05,44.95],[-121.05,45.05],[-121.15,45.05],[-121.15,44.95]]]},"properties":{"group":"cantharellus","week":"2026-10-05","chance":0.0263,"uncertainty_low":null,"uncertainty_high":null,"applicable":true,"drivers":[],"weather_through":null,"model_version":"pnw-pilot-t1-calendar-e2c272b7acfa"}},{"type":"Feature","id":"451_-1220","geometry":{"type":"Polygon","coordinates":[[[-122.05,45.05],[-121.95,45.05],[-121.95,45.15],[-122.05,45.15],[-122.05,45.05]]]},"properties":{"group":"cantharellus","week":"2026-10-05","chance":0.0698,"uncertainty_low":null,"uncertainty_high":null,"applicable":true,"drivers":[],"weather_through":null,"model_version":"pnw-pilot-t1-calendar-e2c272b7acfa"}},{"type":"Feature","id":"451_-1219","geometry":{"type":"Polygon","coordinates":[[[-121.95,45.05],[-121.85,45.05],[-121.85,45.15],[-121.95,45.15],[-121.95,45.05]]]},"properties":{"group":"cantharellus","week":"2026-10-05","chance":0.0724,"uncertainty_low":null,"uncertainty_high":null,"applicable":true,"drivers":[],"weather_through":null,"model_version":"pnw-pilot-t1-calendar-e2c272b7acfa"}},{"type":"Feature","id":"451_-1218","geometry":{"type":"Polygon","coordinates":[[[-121.85,45.05],[-121.75,45.05],[-121.75,45.15],[-121.85,45.15],[-121.85,45.05]]]},"properties":{"group":"cantharellus","week":"2026-10-05","chance":0.0489,"uncertainty_low":null,"uncertainty_high":null,"applicable":true,"drivers":[],"weather_through":null,"model_version":"pnw-pilot-t1-calendar-e2c272b7acfa"}},{"type":"Feature","id":"451_-1217","geometry":{"type":"Polygon","coordinates":[[[-121.75,45.05],[-121.65,45.05],[-121.65,45.15],[-121.75,45.15],[-121.75,45.05]]]},"properties":{"group":"cantharellus","week":"2026-10-05","chance":0.0489,"uncertainty_low":null,"uncertainty_high":null,"applicable":true,"drivers":[],"weather_through":null,"model_version":"pnw-pilot-t1-calendar-e2c272b7acfa"}},{"type":"Feature","id":"451_-1216","geometry":{"type":"Polygon","coordinates":[[[-121.65,45.05],[-121.55,45.05],[-121.55,45.15],[-121.65,45.15],[-121.65,45.05]]]},"properties":{"group":"cantharellus","week":"2026-10-05","chance":0.0554,"uncertainty_low":null,"uncertainty_high":null,"applicable":true,"drivers":[],"weather_through":null,"model_version":"pnw-pilot-t1-calendar-e2c272b7acfa"}},{"type":"Feature","id":"451_-1215","geometry":{"type":"Polygon","coordinates":[[[-121.55,45.05],[-121.45,45.05],[-121.45,45.15],[-121.55,45.15],[-121.55,45.05]]]},"properties":{"group":"cantharellus","week":"2026-10-05","chance":0.0271,"uncertainty_low":null,"uncertainty_high":null,"applicable":true,"drivers":[],"weather_through":null,"model_version":"pnw-pilot-t1-calendar-e2c272b7acfa"}},{"type":"Feature","id":"451_-1214","geometry":{"type":"Polygon","coordinates":[[[-121.45,45.05],[-121.35,45.05],[-121.35,45.15],[-121.45,45.15],[-121.45,45.05]]]},"properties":{"group":"cantharellus","week":"2026-10-05","chance":0.0255,"uncertainty_low":null,"uncertainty_high":null,"applicable":true,"drivers":[],"weather_through":null,"model_version":"pnw-pilot-t1-calendar-e2c272b7acfa"}},{"type":"Feature","id":"451_-1213","geometry":{"type":"Polygon","coordinates":[[[-121.35,45.05],[-121.25,45.05],[-121.25,45.15],[-121.35,45.15],[-121.35,45.05]]]},"properties":{"group":"cantharellus","week":"2026-10-05","chance":0.0255,"uncertainty_low":null,"uncertainty_high":null,"applicable":true,"drivers":[],"weather_through":null,"model_version":"pnw-pilot-t1-calendar-e2c272b7acfa"}},{"type":"Feature","id":"451_-1212","geometry":{"type":"Polygon","coordinates":[[[-121.25,45.05],[-121.15,45.05],[-121.15,45.15],[-121.25,45.15],[-121.25,45.05]]]},"properties":{"group":"cantharellus","week":"2026-10-05","chance":0.0255,"uncertainty_low":null,"uncertainty_high":null,"applicable":true,"drivers":[],"weather_through":null,"model_version":"pnw-pilot-t1-calendar-e2c272b7acfa"}},{"type":"Feature","id":"451_-1211","geometry":{"type":"Polygon","coordinates":[[[-121.15,45.05],[-121.05,45.05],[-121.05,45.15],[-121.15,45.15],[-121.15,45.05]]]},"properties":{"group":"cantharellus","week":"2026-10-05","chance":0.0263,"uncertainty_low":null,"uncertainty_high":null,"applicable":true,"drivers":[],"weather_through":null,"model_version":"pnw-pilot-t1-calendar-e2c272b7acfa"}},{"type":"Feature","id":"452_-1220","geometry":{"type":"Polygon","coordinates":[[[-122.05,45.15],[-121.95,45.15],[-121.95,45.25],[-122.05,45.25],[-122.05,45.15]]]},"properties":{"group":"cantharellus","week":"2026-10-05","chance":0.0698,"uncertainty_low":null,"uncertainty_high":null,"applicable":true,"drivers":[],"weather_through":null,"model_version":"pnw-pilot-t1-calendar-e2c272b7acfa"}},{"type":"Feature","id":"452_-1219","geometry":{"type":"Polygon","coordinates":[[[-121.95,45.15],[-121.85,45.15],[-121.85,45.25],[-121.95,45.25],[-121.95,45.15]]]},"properties":{"group":"cantharellus","week":"2026-10-05","chance":0.0724,"uncertainty_low":null,"uncertainty_high":null,"applicable":true,"drivers":[],"weather_through":null,"model_version":"pnw-pilot-t1-calendar-e2c272b7acfa"}},{"type":"Feature","id":"452_-1218","geometry":{"type":"Polygon","coordinates":[[[-121.85,45.15],[-121.75,45.15],[-121.75,45.25],[-121.85,45.25],[-121.85,45.15]]]},"properties":{"group":"cantharellus","week":"2026-10-05","chance":0.0489,"uncertainty_low":null,"uncertainty_high":null,"applicable":true,"drivers":[],"weather_through":null,"model_version":"pnw-pilot-t1-calendar-e2c272b7acfa"}},{"type":"Feature","id":"452_-1217","geometry":{"type":"Polygon","coordinates":[[[-121.75,45.15],[-121.65,45.15],[-121.65,45.25],[-121.75,45.25],[-121.75,45.15]]]},"properties":{"group":"cantharellus","week":"2026-10-05","chance":0.0489,"uncertainty_low":null,"uncertainty_high":null,"applicable":true,"drivers":[],"weather_through":null,"model_version":"pnw-pilot-t1-calendar-e2c272b7acfa"}},{"type":"Feature","id":"452_-1216","geometry":{"type":"Polygon","coordinates":[[[-121.65,45.15],[-121.55,45.15],[-121.55,45.25],[-121.65,45.25],[-121.65,45.15]]]},"properties":{"group":"cantharellus","week":"2026-10-05","chance":0.0554,"uncertainty_low":null,"uncertainty_high":null,"applicable":true,"drivers":[],"weather_through":null,"model_version":"pnw-pilot-t1-calendar-e2c272b7acfa"}},{"type":"Feature","id":"452_-1215","geometry":{"type":"Polygon","coordinates":[[[-121.55,45.15],[-121.45,45.15],[-121.45,45.25],[-121.55,45.25],[-121.55,45.15]]]},"properties":{"group":"cantharellus","week":"2026-10-05","chance":0.0271,"uncertainty_low":null,"uncertainty_high":null,"applicable":true,"drivers":[],"weather_through":null,"model_version":"pnw-pilot-t1-calendar-e2c272b7acfa"}},{"type":"Feature","id":"452_-1214","geometry":{"type":"Polygon","coordinates":[[[-121.45,45.15],[-121.35,45.15],[-121.35,45.25],[-121.45,45.25],[-121.45,45.15]]]},"properties":{"group":"cantharellus","week":"2026-10-05","chance":0.0255,"uncertainty_low":null,"uncertainty_high":null,"applicable":true,"drivers":[],"weather_through":null,"model_version":"pnw-pilot-t1-calendar-e2c272b7acfa"}},{"type":"Feature","id":"452_-1213","geometry":{"type":"Polygon","coordinates":[[[-121.35,45.15],[-121.25,45.15],[-121.25,45.25],[-121.35,45.25],[-121.35,45.15]]]},"properties":{"group":"cantharellus","week":"2026-10-05","chance":0.0255,"uncertainty_low":null,"uncertainty_high":null,"applicable":true,"drivers":[],"weather_through":null,"model_version":"pnw-pilot-t1-calendar-e2c272b7acfa"}},{"type":"Feature","id":"452_-1212","geometry":{"type":"Polygon","coordinates":[[[-121.25,45.15],[-121.15,45.15],[-121.15,45.25],[-121.25,45.25],[-121.25,45.15]]]},"properties":{"group":"cantharellus","week":"2026-10-05","chance":0.0255,"uncertainty_low":null,"uncertainty_high":null,"applicable":true,"drivers":[],"weather_through":null,"model_version":"pnw-pilot-t1-calendar-e2c272b7acfa"}},{"type":"Feature","id":"452_-1211","geometry":{"type":"Polygon","coordinates":[[[-121.15,45.15],[-121.05,45.15],[-121.05,45.25],[-121.15,45.25],[-121.15,45.15]]]},"properties":{"group":"cantharellus","week":"2026-10-05","chance":0.0263,"uncertainty_low":null,"uncertainty_high":null,"applicable":true,"drivers":[],"weather_through":null,"model_version":"pnw-pilot-t1-calendar-e2c272b7acfa"}},{"type":"Feature","id":"453_-1220","geometry":{"type":"Polygon","coordinates":[[[-122.05,45.25],[-121.95,45.25],[-121.95,45.35],[-122.05,45.35],[-122.05,45.25]]]},"properties":{"group":"cantharellus","week":"2026-10-05","chance":0.0384,"uncertainty_low":null,"uncertainty_high":null,"applicable":true,"drivers":[],"weather_through":null,"model_version":"pnw-pilot-t1-calendar-e2c272b7acfa"}},{"type":"Feature","id":"453_-1219","geometry":{"type":"Polygon","coordinates":[[[-121.95,45.25],[-121.85,45.25],[-121.85,45.35],[-121.95,45.35],[-121.95,45.25]]]},"properties":{"group":"cantharellus","week":"2026-10-05","chance":0.0398,"uncertainty_low":null,"uncertainty_high":null,"applicable":true,"drivers":[],"weather_through":null,"model_version":"pnw-pilot-t1-calendar-e2c272b7acfa"}},{"type":"Feature","id":"453_-1218","geometry":{"type":"Polygon","coordinates":[[[-121.85,45.25],[-121.75,45.25],[-121.75,45.35],[-121.85,45.35],[-121.85,45.25]]]},"properties":{"group":"cantharellus","week":"2026-10-05","chance":0.0271,"uncertainty_low":null,"uncertainty_high":null,"applicable":true,"drivers":[],"weather_through":null,"model_version":"pnw-pilot-t1-calendar-e2c272b7acfa"}},{"type":"Feature","id":"453_-1217","geometry":{"type":"Polygon","coordinates":[[[-121.75,45.25],[-121.65,45.25],[-121.65,45.35],[-121.75,45.35],[-121.75,45.25]]]},"properties":{"group":"cantharellus","week":"2026-10-05","chance":0.0271,"uncertainty_low":null,"uncertainty_high":null,"applicable":true,"drivers":[],"weather_through":null,"model_version":"pnw-pilot-t1-calendar-e2c272b7acfa"}},{"type":"Feature","id":"453_-1216","geometry":{"type":"Polygon","coordinates":[[[-121.65,45.25],[-121.55,45.25],[-121.55,45.35],[-121.65,45.35],[-121.65,45.25]]]},"properties":{"group":"cantharellus","week":"2026-10-05","chance":0.0309,"uncertainty_low":null,"uncertainty_high":null,"applicable":true,"drivers":[],"weather_through":null,"model_version":"pnw-pilot-t1-calendar-e2c272b7acfa"}},{"type":"Feature","id":"453_-1215","geometry":{"type":"Polygon","coordinates":[[[-121.55,45.25],[-121.45,45.25],[-121.45,45.35],[-121.55,45.35],[-121.55,45.25]]]},"properties":{"group":"cantharellus","week":"2026-10-05","chance":0.0157,"uncertainty_low":null,"uncertainty_high":null,"applicable":true,"drivers":[],"weather_through":null,"model_version":"pnw-pilot-t1-calendar-e2c272b7acfa"}},{"type":"Feature","id":"453_-1214","geometry":{"type":"Polygon","coordinates":[[[-121.45,45.25],[-121.35,45.25],[-121.35,45.35],[-121.45,45.35],[-121.45,45.25]]]},"properties":{"group":"cantharellus","week":"2026-10-05","chance":0.0147,"uncertainty_low":null,"uncertainty_high":null,"applicable":true,"drivers":[],"weather_through":null,"model_version":"pnw-pilot-t1-calendar-e2c272b7acfa"}},{"type":"Feature","id":"453_-1213","geometry":{"type":"Polygon","coordinates":[[[-121.35,45.25],[-121.25,45.25],[-121.25,45.35],[-121.35,45.35],[-121.35,45.25]]]},"properties":{"group":"cantharellus","week":"2026-10-05","chance":0.0147,"uncertainty_low":null,"uncertainty_high":null,"applicable":true,"drivers":[],"weather_through":null,"model_version":"pnw-pilot-t1-calendar-e2c272b7acfa"}},{"type":"Feature","id":"453_-1212","geometry":{"type":"Polygon","coordinates":[[[-121.25,45.25],[-121.15,45.25],[-121.15,45.35],[-121.25,45.35],[-121.25,45.25]]]},"properties":{"group":"cantharellus","week":"2026-10-05","chance":0.0147,"uncertainty_low":null,"uncertainty_high":null,"applicable":true,"drivers":[],"weather_through":null,"model_version":"pnw-pilot-t1-calendar-e2c272b7acfa"}},{"type":"Feature","id":"453_-1211","geometry":{"type":"Polygon","coordinates":[[[-121.15,45.25],[-121.05,45.25],[-121.05,45.35],[-121.15,45.35],[-121.15,45.25]]]},"properties":{"group":"cantharellus","week":"2026-10-05","chance":0.0152,"uncertainty_low":null,"uncertainty_high":null,"applicable":true,"drivers":[],"weather_through":null,"model_version":"pnw-pilot-t1-calendar-e2c272b7acfa"}},{"type":"Feature","id":"454_-1220","geometry":{"type":"Polygon","coordinates":[[[-122.05,45.35],[-121.95,45.35],[-121.95,45.45],[-122.05,45.45],[-122.05,45.35]]]},"properties":{"group":"cantharellus","week":"2026-10-05","chance":0.0384,"uncertainty_low":null,"uncertainty_high":null,"applicable":true,"drivers":[],"weather_through":null,"model_version":"pnw-pilot-t1-calendar-e2c272b7acfa"}},{"type":"Feature","id":"454_-1219","geometry":{"type":"Polygon","coordinates":[[[-121.95,45.35],[-121.85,45.35],[-121.85,45.45],[-121.95,45.45],[-121.95,45.35]]]},"properties":{"group":"cantharellus","week":"2026-10-05","chance":0.0398,"uncertainty_low":null,"uncertainty_high":null,"applicable":true,"drivers":[],"weather_through":null,"model_version":"pnw-pilot-t1-calendar-e2c272b7acfa"}},{"type":"Feature","id":"454_-1218","geometry":{"type":"Polygon","coordinates":[[[-121.85,45.35],[-121.75,45.35],[-121.75,45.45],[-121.85,45.45],[-121.85,45.35]]]},"properties":{"group":"cantharellus","week":"2026-10-05","chance":0.0271,"uncertainty_low":null,"uncertainty_high":null,"applicable":true,"drivers":[],"weather_through":null,"model_version":"pnw-pilot-t1-calendar-e2c272b7acfa"}},{"type":"Feature","id":"454_-1217","geometry":{"type":"Polygon","coordinates":[[[-121.75,45.35],[-121.65,45.35],[-121.65,45.45],[-121.75,45.45],[-121.75,45.35]]]},"properties":{"group":"cantharellus","week":"2026-10-05","chance":0.0271,"uncertainty_low":null,"uncertainty_high":null,"applicable":true,"drivers":[],"weather_through":null,"model_version":"pnw-pilot-t1-calendar-e2c272b7acfa"}},{"type":"Feature","id":"454_-1216","geometry":{"type":"Polygon","coordinates":[[[-121.65,45.35],[-121.55,45.35],[-121.55,45.45],[-121.65,45.45],[-121.65,45.35]]]},"properties":{"group":"cantharellus","week":"2026-10-05","chance":0.0309,"uncertainty_low":null,"uncertainty_high":null,"applicable":true,"drivers":[],"weather_through":null,"model_version":"pnw-pilot-t1-calendar-e2c272b7acfa"}},{"type":"Feature","id":"454_-1215","geometry":{"type":"Polygon","coordinates":[[[-121.55,45.35],[-121.45,45.35],[-121.45,45.45],[-121.55,45.45],[-121.55,45.35]]]},"properties":{"group":"cantharellus","week":"2026-10-05","chance":0.0157,"uncertainty_low":null,"uncertainty_high":null,"applicable":true,"drivers":[],"weather_through":null,"model_version":"pnw-pilot-t1-calendar-e2c272b7acfa"}},{"type":"Feature","id":"454_-1214","geometry":{"type":"Polygon","coordinates":[[[-121.45,45.35],[-121.35,45.35],[-121.35,45.45],[-121.45,45.45],[-121.45,45.35]]]},"properties":{"group":"cantharellus","week":"2026-10-05","chance":0.0147,"uncertainty_low":null,"uncertainty_high":null,"applicable":true,"drivers":[],"weather_through":null,"model_version":"pnw-pilot-t1-calendar-e2c272b7acfa"}},{"type":"Feature","id":"454_-1213","geometry":{"type":"Polygon","coordinates":[[[-121.35,45.35],[-121.25,45.35],[-121.25,45.45],[-121.35,45.45],[-121.35,45.35]]]},"properties":{"group":"cantharellus","week":"2026-10-05","chance":0.0147,"uncertainty_low":null,"uncertainty_high":null,"applicable":true,"drivers":[],"weather_through":null,"model_version":"pnw-pilot-t1-calendar-e2c272b7acfa"}},{"type":"Feature","id":"454_-1212","geometry":{"type":"Polygon","coordinates":[[[-121.25,45.35],[-121.15,45.35],[-121.15,45.45],[-121.25,45.45],[-121.25,45.35]]]},"properties":{"group":"cantharellus","week":"2026-10-05","chance":0.0147,"uncertainty_low":null,"uncertainty_high":null,"applicable":true,"drivers":[],"weather_through":null,"model_version":"pnw-pilot-t1-calendar-e2c272b7acfa"}},{"type":"Feature","id":"454_-1211","geometry":{"type":"Polygon","coordinates":[[[-121.15,45.35],[-121.05,45.35],[-121.05,45.45],[-121.15,45.45],[-121.15,45.35]]]},"properties":{"group":"cantharellus","week":"2026-10-05","chance":0.0152,"uncertainty_low":null,"uncertainty_high":null,"applicable":true,"drivers":[],"weather_through":null,"model_version":"pnw-pilot-t1-calendar-e2c272b7acfa"}},{"type":"Feature","id":"455_-1220","geometry":{"type":"Polygon","coordinates":[[[-122.05,45.45],[-121.95,45.45],[-121.95,45.55],[-122.05,45.55],[-122.05,45.45]]]},"properties":{"group":"cantharellus","week":"2026-10-05","chance":0.0388,"uncertainty_low":null,"uncertainty_high":null,"applicable":true,"drivers":[],"weather_through":null,"model_version":"pnw-pilot-t1-calendar-e2c272b7acfa"}},{"type":"Feature","id":"455_-1219","geometry":{"type":"Polygon","coordinates":[[[-121.95,45.45],[-121.85,45.45],[-121.85,45.55],[-121.95,45.55],[-121.95,45.45]]]},"properties":{"group":"cantharellus","week":"2026-10-05","chance":0.0403,"uncertainty_low":null,"uncertainty_high":null,"applicable":true,"drivers":[],"weather_through":null,"model_version":"pnw-pilot-t1-calendar-e2c272b7acfa"}},{"type":"Feature","id":"455_-1218","geometry":{"type":"Polygon","coordinates":[[[-121.85,45.45],[-121.75,45.45],[-121.75,45.55],[-121.85,45.55],[-121.85,45.45]]]},"properties":{"group":"cantharellus","week":"2026-10-05","chance":0.0275,"uncertainty_low":null,"uncertainty_high":null,"applicable":true,"drivers":[],"weather_through":null,"model_version":"pnw-pilot-t1-calendar-e2c272b7acfa"}},{"type":"Feature","id":"455_-1217","geometry":{"type":"Polygon","coordinates":[[[-121.75,45.45],[-121.65,45.45],[-121.65,45.55],[-121.75,45.55],[-121.75,45.45]]]},"properties":{"group":"cantharellus","week":"2026-10-05","chance":0.0275,"uncertainty_low":null,"uncertainty_high":null,"applicable":true,"drivers":[],"weather_through":null,"model_version":"pnw-pilot-t1-calendar-e2c272b7acfa"}},{"type":"Feature","id":"455_-1216","geometry":{"type":"Polygon","coordinates":[[[-121.65,45.45],[-121.55,45.45],[-121.55,45.55],[-121.65,45.55],[-121.65,45.45]]]},"properties":{"group":"cantharellus","week":"2026-10-05","chance":0.0312,"uncertainty_low":null,"uncertainty_high":null,"applicable":true,"drivers":[],"weather_through":null,"model_version":"pnw-pilot-t1-calendar-e2c272b7acfa"}},{"type":"Feature","id":"455_-1215","geometry":{"type":"Polygon","coordinates":[[[-121.55,45.45],[-121.45,45.45],[-121.45,45.55],[-121.55,45.55],[-121.55,45.45]]]},"properties":{"group":"cantharellus","week":"2026-10-05","chance":0.0159,"uncertainty_low":null,"uncertainty_high":null,"applicable":true,"drivers":[],"weather_through":null,"model_version":"pnw-pilot-t1-calendar-e2c272b7acfa"}},{"type":"Feature","id":"455_-1214","geometry":{"type":"Polygon","coordinates":[[[-121.45,45.45],[-121.35,45.45],[-121.35,45.55],[-121.45,45.55],[-121.45,45.45]]]},"properties":{"group":"cantharellus","week":"2026-10-05","chance":0.0149,"uncertainty_low":null,"uncertainty_high":null,"applicable":true,"drivers":[],"weather_through":null,"model_version":"pnw-pilot-t1-calendar-e2c272b7acfa"}},{"type":"Feature","id":"455_-1213","geometry":{"type":"Polygon","coordinates":[[[-121.35,45.45],[-121.25,45.45],[-121.25,45.55],[-121.35,45.55],[-121.35,45.45]]]},"properties":{"group":"cantharellus","week":"2026-10-05","chance":0.0149,"uncertainty_low":null,"uncertainty_high":null,"applicable":true,"drivers":[],"weather_through":null,"model_version":"pnw-pilot-t1-calendar-e2c272b7acfa"}},{"type":"Feature","id":"455_-1212","geometry":{"type":"Polygon","coordinates":[[[-121.25,45.45],[-121.15,45.45],[-121.15,45.55],[-121.25,45.55],[-121.25,45.45]]]},"properties":{"group":"cantharellus","week":"2026-10-05","chance":0.0149,"uncertainty_low":null,"uncertainty_high":null,"applicable":true,"drivers":[],"weather_through":null,"model_version":"pnw-pilot-t1-calendar-e2c272b7acfa"}},{"type":"Feature","id":"455_-1211","geometry":{"type":"Polygon","coordinates":[[[-121.15,45.45],[-121.05,45.45],[-121.05,45.55],[-121.15,45.55],[-121.15,45.45]]]},"properties":{"group":"cantharellus","week":"2026-10-05","chance":0.0154,"uncertainty_low":null,"uncertainty_high":null,"applicable":true,"drivers":[],"weather_through":null,"model_version":"pnw-pilot-t1-calendar-e2c272b7acfa"}},{"type":"Feature","id":"456_-1220","geometry":{"type":"Polygon","coordinates":[[[-122.05,45.55],[-121.95,45.55],[-121.95,45.65],[-122.05,45.65],[-122.05,45.55]]]},"properties":{"group":"cantharellus","week":"2026-10-05","chance":0.0364,"uncertainty_low":null,"uncertainty_high":null,"applicable":true,"drivers":[],"weather_through":null,"model_version":"pnw-pilot-t1-calendar-e2c272b7acfa"}},{"type":"Feature","id":"456_-1219","geometry":{"type":"Polygon","coordinates":[[[-121.95,45.55],[-121.85,45.55],[-121.85,45.65],[-121.95,45.65],[-121.95,45.55]]]},"properties":{"group":"cantharellus","week":"2026-10-05","chance":0.0379,"uncertainty_low":null,"uncertainty_high":null,"applicable":true,"drivers":[],"weather_through":null,"model_version":"pnw-pilot-t1-calendar-e2c272b7acfa"}},{"type":"Feature","id":"456_-1218","geometry":{"type":"Polygon","coordinates":[[[-121.85,45.55],[-121.75,45.55],[-121.75,45.65],[-121.85,45.65],[-121.85,45.55]]]},"properties":{"group":"cantharellus","week":"2026-10-05","chance":0.0258,"uncertainty_low":null,"uncertainty_high":null,"applicable":true,"drivers":[],"weather_through":null,"model_version":"pnw-pilot-t1-calendar-e2c272b7acfa"}},{"type":"Feature","id":"456_-1217","geometry":{"type":"Polygon","coordinates":[[[-121.75,45.55],[-121.65,45.55],[-121.65,45.65],[-121.75,45.65],[-121.75,45.55]]]},"properties":{"group":"cantharellus","week":"2026-10-05","chance":0.0258,"uncertainty_low":null,"uncertainty_high":null,"applicable":true,"drivers":[],"weather_through":null,"model_version":"pnw-pilot-t1-calendar-e2c272b7acfa"}},{"type":"Feature","id":"456_-1216","geometry":{"type":"Polygon","coordinates":[[[-121.65,45.55],[-121.55,45.55],[-121.55,45.65],[-121.65,45.65],[-121.65,45.55]]]},"properties":{"group":"cantharellus","week":"2026-10-05","chance":0.0293,"uncertainty_low":null,"uncertainty_high":null,"applicable":true,"drivers":[],"weather_through":null,"model_version":"pnw-pilot-t1-calendar-e2c272b7acfa"}},{"type":"Feature","id":"456_-1215","geometry":{"type":"Polygon","coordinates":[[[-121.55,45.55],[-121.45,45.55],[-121.45,45.65],[-121.55,45.65],[-121.55,45.55]]]},"properties":{"group":"cantharellus","week":"2026-10-05","chance":0.0149,"uncertainty_low":null,"uncertainty_high":null,"applicable":true,"drivers":[],"weather_through":null,"model_version":"pnw-pilot-t1-calendar-e2c272b7acfa"}},{"type":"Feature","id":"456_-1214","geometry":{"type":"Polygon","coordinates":[[[-121.45,45.55],[-121.35,45.55],[-121.35,45.65],[-121.45,45.65],[-121.45,45.55]]]},"properties":{"group":"cantharellus","week":"2026-10-05","chance":0.014,"uncertainty_low":null,"uncertainty_high":null,"applicable":true,"drivers":[],"weather_through":null,"model_version":"pnw-pilot-t1-calendar-e2c272b7acfa"}},{"type":"Feature","id":"456_-1213","geometry":{"type":"Polygon","coordinates":[[[-121.35,45.55],[-121.25,45.55],[-121.25,45.65],[-121.35,45.65],[-121.35,45.55]]]},"properties":{"group":"cantharellus","week":"2026-10-05","chance":0.014,"uncertainty_low":null,"uncertainty_high":null,"applicable":true,"drivers":[],"weather_through":null,"model_version":"pnw-pilot-t1-calendar-e2c272b7acfa"}},{"type":"Feature","id":"456_-1212","geometry":{"type":"Polygon","coordinates":[[[-121.25,45.55],[-121.15,45.55],[-121.15,45.65],[-121.25,45.65],[-121.25,45.55]]]},"properties":{"group":"cantharellus","week":"2026-10-05","chance":0.014,"uncertainty_low":null,"uncertainty_high":null,"applicable":true,"drivers":[],"weather_through":null,"model_version":"pnw-pilot-t1-calendar-e2c272b7acfa"}},{"type":"Feature","id":"456_-1211","geometry":{"type":"Polygon","coordinates":[[[-121.15,45.55],[-121.05,45.55],[-121.05,45.65],[-121.15,45.65],[-121.15,45.55]]]},"properties":{"group":"cantharellus","week":"2026-10-05","chance":0.0144,"uncertainty_low":null,"uncertainty_high":null,"applicable":true,"drivers":[],"weather_through":null,"model_version":"pnw-pilot-t1-calendar-e2c272b7acfa"}},{"type":"Feature","id":"457_-1220","geometry":{"type":"Polygon","coordinates":[[[-122.05,45.65],[-121.95,45.65],[-121.95,45.75],[-122.05,45.75],[-122.05,45.65]]]},"properties":{"group":"cantharellus","week":"2026-10-05","chance":0.0368,"uncertainty_low":null,"uncertainty_high":null,"applicable":true,"drivers":[],"weather_through":null,"model_version":"pnw-pilot-t1-calendar-e2c272b7acfa"}},{"type":"Feature","id":"457_-1219","geometry":{"type":"Polygon","coordinates":[[[-121.95,45.65],[-121.85,45.65],[-121.85,45.75],[-121.95,45.75],[-121.95,45.65]]]},"properties":{"group":"cantharellus","week":"2026-10-05","chance":0.0383,"uncertainty_low":null,"uncertainty_high":null,"applicable":true,"drivers":[],"weather_through":null,"model_version":"pnw-pilot-t1-calendar-e2c272b7acfa"}},{"type":"Feature","id":"457_-1218","geometry":{"type":"Polygon","coordinates":[[[-121.85,45.65],[-121.75,45.65],[-121.75,45.75],[-121.85,45.75],[-121.85,45.65]]]},"properties":{"group":"cantharellus","week":"2026-10-05","chance":0.0261,"uncertainty_low":null,"uncertainty_high":null,"applicable":true,"drivers":[],"weather_through":null,"model_version":"pnw-pilot-t1-calendar-e2c272b7acfa"}},{"type":"Feature","id":"457_-1217","geometry":{"type":"Polygon","coordinates":[[[-121.75,45.65],[-121.65,45.65],[-121.65,45.75],[-121.75,45.75],[-121.75,45.65]]]},"properties":{"group":"cantharellus","week":"2026-10-05","chance":0.0261,"uncertainty_low":null,"uncertainty_high":null,"applicable":true,"drivers":[],"weather_through":null,"model_version":"pnw-pilot-t1-calendar-e2c272b7acfa"}},{"type":"Feature","id":"457_-1216","geometry":{"type":"Polygon","coordinates":[[[-121.65,45.65],[-121.55,45.65],[-121.55,45.75],[-121.65,45.75],[-121.65,45.65]]]},"properties":{"group":"cantharellus","week":"2026-10-05","chance":0.0296,"uncertainty_low":null,"uncertainty_high":null,"applicable":true,"drivers":[],"weather_through":null,"model_version":"pnw-pilot-t1-calendar-e2c272b7acfa"}},{"type":"Feature","id":"457_-1215","geometry":{"type":"Polygon","coordinates":[[[-121.55,45.65],[-121.45,45.65],[-121.45,45.75],[-121.55,45.75],[-121.55,45.65]]]},"properties":{"group":"cantharellus","week":"2026-10-05","chance":0.015,"uncertainty_low":null,"uncertainty_high":null,"applicable":true,"drivers":[],"weather_through":null,"model_version":"pnw-pilot-t1-calendar-e2c272b7acfa"}},{"type":"Feature","id":"457_-1214","geometry":{"type":"Polygon","coordinates":[[[-121.45,45.65],[-121.35,45.65],[-121.35,45.75],[-121.45,45.75],[-121.45,45.65]]]},"properties":{"group":"cantharellus","week":"2026-10-05","chance":0.0141,"uncertainty_low":null,"uncertainty_high":null,"applicable":true,"drivers":[],"weather_through":null,"model_version":"pnw-pilot-t1-calendar-e2c272b7acfa"}},{"type":"Feature","id":"457_-1213","geometry":{"type":"Polygon","coordinates":[[[-121.35,45.65],[-121.25,45.65],[-121.25,45.75],[-121.35,45.75],[-121.35,45.65]]]},"properties":{"group":"cantharellus","week":"2026-10-05","chance":0.0141,"uncertainty_low":null,"uncertainty_high":null,"applicable":true,"drivers":[],"weather_through":null,"model_version":"pnw-pilot-t1-calendar-e2c272b7acfa"}},{"type":"Feature","id":"457_-1212","geometry":{"type":"Polygon","coordinates":[[[-121.25,45.65],[-121.15,45.65],[-121.15,45.75],[-121.25,45.75],[-121.25,45.65]]]},"properties":{"group":"cantharellus","week":"2026-10-05","chance":0.0141,"uncertainty_low":null,"uncertainty_high":null,"applicable":true,"drivers":[],"weather_through":null,"model_version":"pnw-pilot-t1-calendar-e2c272b7acfa"}},{"type":"Feature","id":"457_-1211","geometry":{"type":"Polygon","coordinates":[[[-121.15,45.65],[-121.05,45.65],[-121.05,45.75],[-121.15,45.75],[-121.15,45.65]]]},"properties":{"group":"cantharellus","week":"2026-10-05","chance":0.0146,"uncertainty_low":null,"uncertainty_high":null,"applicable":true,"drivers":[],"weather_through":null,"model_version":"pnw-pilot-t1-calendar-e2c272b7acfa"}},{"type":"Feature","id":"458_-1220","geometry":{"type":"Polygon","coordinates":[[[-122.05,45.75],[-121.95,45.75],[-121.95,45.85],[-122.05,45.85],[-122.05,45.75]]]},"properties":{"group":"cantharellus","week":"2026-10-05","chance":0.0798,"uncertainty_low":null,"uncertainty_high":null,"applicable":true,"drivers":[],"weather_through":null,"model_version":"pnw-pilot-t1-calendar-e2c272b7acfa"}},{"type":"Feature","id":"458_-1219","geometry":{"type":"Polygon","coordinates":[[[-121.95,45.75],[-121.85,45.75],[-121.85,45.85],[-121.95,45.85],[-121.95,45.75]]]},"properties":{"group":"cantharellus","week":"2026-10-05","chance":0.0831,"uncertainty_low":null,"uncertainty_high":null,"applicable":true,"drivers":[],"weather_through":null,"model_version":"pnw-pilot-t1-calendar-e2c272b7acfa"}},{"type":"Feature","id":"458_-1218","geometry":{"type":"Polygon","coordinates":[[[-121.85,45.75],[-121.75,45.75],[-121.75,45.85],[-121.85,45.85],[-121.85,45.75]]]},"properties":{"group":"cantharellus","week":"2026-10-05","chance":0.0575,"uncertainty_low":null,"uncertainty_high":null,"applicable":true,"drivers":[],"weather_through":null,"model_version":"pnw-pilot-t1-calendar-e2c272b7acfa"}},{"type":"Feature","id":"458_-1217","geometry":{"type":"Polygon","coordinates":[[[-121.75,45.75],[-121.65,45.75],[-121.65,45.85],[-121.75,45.85],[-121.75,45.75]]]},"properties":{"group":"cantharellus","week":"2026-10-05","chance":0.0575,"uncertainty_low":null,"uncertainty_high":null,"applicable":true,"drivers":[],"weather_through":null,"model_version":"pnw-pilot-t1-calendar-e2c272b7acfa"}},{"type":"Feature","id":"458_-1216","geometry":{"type":"Polygon","coordinates":[[[-121.65,45.75],[-121.55,45.75],[-121.55,45.85],[-121.65,45.85],[-121.65,45.75]]]},"properties":{"group":"cantharellus","week":"2026-10-05","chance":0.0651,"uncertainty_low":null,"uncertainty_high":null,"applicable":true,"drivers":[],"weather_through":null,"model_version":"pnw-pilot-t1-calendar-e2c272b7acfa"}},{"type":"Feature","id":"458_-1215","geometry":{"type":"Polygon","coordinates":[[[-121.55,45.75],[-121.45,45.75],[-121.45,45.85],[-121.55,45.85],[-121.55,45.75]]]},"properties":{"group":"cantharellus","week":"2026-10-05","chance":0.0336,"uncertainty_low":null,"uncertainty_high":null,"applicable":true,"drivers":[],"weather_through":null,"model_version":"pnw-pilot-t1-calendar-e2c272b7acfa"}},{"type":"Feature","id":"458_-1214","geometry":{"type":"Polygon","coordinates":[[[-121.45,45.75],[-121.35,45.75],[-121.35,45.85],[-121.45,45.85],[-121.45,45.75]]]},"properties":{"group":"cantharellus","week":"2026-10-05","chance":0.0307,"uncertainty_low":null,"uncertainty_high":null,"applicable":true,"drivers":[],"weather_through":null,"model_version":"pnw-pilot-t1-calendar-e2c272b7acfa"}},{"type":"Feature","id":"458_-1213","geometry":{"type":"Polygon","coordinates":[[[-121.35,45.75],[-121.25,45.75],[-121.25,45.85],[-121.35,45.85],[-121.35,45.75]]]},"properties":{"group":"cantharellus","week":"2026-10-05","chance":0.0307,"uncertainty_low":null,"uncertainty_high":null,"applicable":true,"drivers":[],"weather_through":null,"model_version":"pnw-pilot-t1-calendar-e2c272b7acfa"}},{"type":"Feature","id":"458_-1212","geometry":{"type":"Polygon","coordinates":[[[-121.25,45.75],[-121.15,45.75],[-121.15,45.85],[-121.25,45.85],[-121.25,45.75]]]},"properties":{"group":"cantharellus","week":"2026-10-05","chance":0.0307,"uncertainty_low":null,"uncertainty_high":null,"applicable":true,"drivers":[],"weather_through":null,"model_version":"pnw-pilot-t1-calendar-e2c272b7acfa"}},{"type":"Feature","id":"458_-1211","geometry":{"type":"Polygon","coordinates":[[[-121.15,45.75],[-121.05,45.75],[-121.05,45.85],[-121.15,45.85],[-121.15,45.75]]]},"properties":{"group":"cantharellus","week":"2026-10-05","chance":0.0326,"uncertainty_low":null,"uncertainty_high":null,"applicable":true,"drivers":[],"weather_through":null,"model_version":"pnw-pilot-t1-calendar-e2c272b7acfa"}},{"type":"Feature","id":"459_-1220","geometry":{"type":"Polygon","coordinates":[[[-122.05,45.85],[-121.95,45.85],[-121.95,45.95],[-122.05,45.95],[-122.05,45.85]]]},"properties":{"group":"cantharellus","week":"2026-10-05","chance":0.0798,"uncertainty_low":null,"uncertainty_high":null,"applicable":true,"drivers":[],"weather_through":null,"model_version":"pnw-pilot-t1-calendar-e2c272b7acfa"}},{"type":"Feature","id":"459_-1219","geometry":{"type":"Polygon","coordinates":[[[-121.95,45.85],[-121.85,45.85],[-121.85,45.95],[-121.95,45.95],[-121.95,45.85]]]},"properties":{"group":"cantharellus","week":"2026-10-05","chance":0.0831,"uncertainty_low":null,"uncertainty_high":null,"applicable":true,"drivers":[],"weather_through":null,"model_version":"pnw-pilot-t1-calendar-e2c272b7acfa"}},{"type":"Feature","id":"459_-1218","geometry":{"type":"Polygon","coordinates":[[[-121.85,45.85],[-121.75,45.85],[-121.75,45.95],[-121.85,45.95],[-121.85,45.85]]]},"properties":{"group":"cantharellus","week":"2026-10-05","chance":0.0575,"uncertainty_low":null,"uncertainty_high":null,"applicable":true,"drivers":[],"weather_through":null,"model_version":"pnw-pilot-t1-calendar-e2c272b7acfa"}},{"type":"Feature","id":"459_-1217","geometry":{"type":"Polygon","coordinates":[[[-121.75,45.85],[-121.65,45.85],[-121.65,45.95],[-121.75,45.95],[-121.75,45.85]]]},"properties":{"group":"cantharellus","week":"2026-10-05","chance":0.0575,"uncertainty_low":null,"uncertainty_high":null,"applicable":true,"drivers":[],"weather_through":null,"model_version":"pnw-pilot-t1-calendar-e2c272b7acfa"}},{"type":"Feature","id":"459_-1216","geometry":{"type":"Polygon","coordinates":[[[-121.65,45.85],[-121.55,45.85],[-121.55,45.95],[-121.65,45.95],[-121.65,45.85]]]},"properties":{"group":"cantharellus","week":"2026-10-05","chance":0.0651,"uncertainty_low":null,"uncertainty_high":null,"applicable":true,"drivers":[],"weather_through":null,"model_version":"pnw-pilot-t1-calendar-e2c272b7acfa"}},{"type":"Feature","id":"459_-1215","geometry":{"type":"Polygon","coordinates":[[[-121.55,45.85],[-121.45,45.85],[-121.45,45.95],[-121.55,45.95],[-121.55,45.85]]]},"properties":{"group":"cantharellus","week":"2026-10-05","chance":0.0336,"uncertainty_low":null,"uncertainty_high":null,"applicable":true,"drivers":[],"weather_through":null,"model_version":"pnw-pilot-t1-calendar-e2c272b7acfa"}},{"type":"Feature","id":"459_-1214","geometry":{"type":"Polygon","coordinates":[[[-121.45,45.85],[-121.35,45.85],[-121.35,45.95],[-121.45,45.95],[-121.45,45.85]]]},"properties":{"group":"cantharellus","week":"2026-10-05","chance":0.0307,"uncertainty_low":null,"uncertainty_high":null,"applicable":true,"drivers":[],"weather_through":null,"model_version":"pnw-pilot-t1-calendar-e2c272b7acfa"}},{"type":"Feature","id":"459_-1213","geometry":{"type":"Polygon","coordinates":[[[-121.35,45.85],[-121.25,45.85],[-121.25,45.95],[-121.35,45.95],[-121.35,45.85]]]},"properties":{"group":"cantharellus","week":"2026-10-05","chance":0.0307,"uncertainty_low":null,"uncertainty_high":null,"applicable":true,"drivers":[],"weather_through":null,"model_version":"pnw-pilot-t1-calendar-e2c272b7acfa"}},{"type":"Feature","id":"459_-1212","geometry":{"type":"Polygon","coordinates":[[[-121.25,45.85],[-121.15,45.85],[-121.15,45.95],[-121.25,45.95],[-121.25,45.85]]]},"properties":{"group":"cantharellus","week":"2026-10-05","chance":0.0307,"uncertainty_low":null,"uncertainty_high":null,"applicable":true,"drivers":[],"weather_through":null,"model_version":"pnw-pilot-t1-calendar-e2c272b7acfa"}},{"type":"Feature","id":"459_-1211","geometry":{"type":"Polygon","coordinates":[[[-121.15,45.85],[-121.05,45.85],[-121.05,45.95],[-121.15,45.95],[-121.15,45.85]]]},"properties":{"group":"cantharellus","week":"2026-10-05","chance":0.0326,"uncertainty_low":null,"uncertainty_high":null,"applicable":true,"drivers":[],"weather_through":null,"model_version":"pnw-pilot-t1-calendar-e2c272b7acfa"}}]}