{"type":"FeatureCollection","features":[{"type":"Feature","id":"450_-1210","geometry":{"type":"Polygon","coordinates":[[[-121.05,44.95],[-120.95,44.95],[-120.95,45.05],[-121.05,45.05],[-121.05,44.95]]]},"properties":{"group":"cantharellus","week":"2026-10-05","chance":0.0263,"uncertainty_low":null,"uncertainty_high":null,"applicable":true,"drivers":[],"weather_through":null,"model_version":"pnw-pilot-t1-calendar-e2c272b7acfa"}},{"type":"Feature","id":"451_-1210","geometry":{"type":"Polygon","coordinates":[[[-121.05,45.05],[-120.95,45.05],[-120.95,45.15],[-121.05,45.15],[-121.05,45.05]]]},"properties":{"group":"cantharellus","week":"2026-10-05","chance":0.0263,"uncertainty_low":null,"uncertainty_high":null,"applicable":true,"drivers":[],"weather_through":null,"model_version":"pnw-pilot-t1-calendar-e2c272b7acfa"}},{"type":"Feature","id":"452_-1210","geometry":{"type":"Polygon","coordinates":[[[-121.05,45.15],[-120.95,45.15],[-120.95,45.25],[-121.05,45.25],[-121.05,45.15]]]},"properties":{"group":"cantharellus","week":"2026-10-05","chance":0.0263,"uncertainty_low":null,"uncertainty_high":null,"applicable":true,"drivers":[],"weather_through":null,"model_version":"pnw-pilot-t1-calendar-e2c272b7acfa"}},{"type":"Feature","id":"453_-1210","geometry":{"type":"Polygon","coordinates":[[[-121.05,45.25],[-120.95,45.25],[-120.95,45.35],[-121.05,45.35],[-121.05,45.25]]]},"properties":{"group":"cantharellus","week":"2026-10-05","chance":0.0152,"uncertainty_low":null,"uncertainty_high":null,"applicable":true,"drivers":[],"weather_through":null,"model_version":"pnw-pilot-t1-calendar-e2c272b7acfa"}},{"type":"Feature","id":"454_-1210","geometry":{"type":"Polygon","coordinates":[[[-121.05,45.35],[-120.95,45.35],[-120.95,45.45],[-121.05,45.45],[-121.05,45.35]]]},"properties":{"group":"cantharellus","week":"2026-10-05","chance":0.0152,"uncertainty_low":null,"uncertainty_high":null,"applicable":true,"drivers":[],"weather_through":null,"model_version":"pnw-pilot-t1-calendar-e2c272b7acfa"}},{"type":"Feature","id":"455_-1210","geometry":{"type":"Polygon","coordinates":[[[-121.05,45.45],[-120.95,45.45],[-120.95,45.55],[-121.05,45.55],[-121.05,45.45]]]},"properties":{"group":"cantharellus","week":"2026-10-05","chance":0.0154,"uncertainty_low":null,"uncertainty_high":null,"applicable":true,"drivers":[],"weather_through":null,"model_version":"pnw-pilot-t1-calendar-e2c272b7acfa"}},{"type":"Feature","id":"456_-1210","geometry":{"type":"Polygon","coordinates":[[[-121.05,45.55],[-120.95,45.55],[-120.95,45.65],[-121.05,45.65],[-121.05,45.55]]]},"properties":{"group":"cantharellus","week":"2026-10-05","chance":0.0144,"uncertainty_low":null,"uncertainty_high":null,"applicable":true,"drivers":[],"weather_through":null,"model_version":"pnw-pilot-t1-calendar-e2c272b7acfa"}},{"type":"Feature","id":"457_-1210","geometry":{"type":"Polygon","coordinates":[[[-121.05,45.65],[-120.95,45.65],[-120.95,45.75],[-121.05,45.75],[-121.05,45.65]]]},"properties":{"group":"cantharellus","week":"2026-10-05","chance":0.0146,"uncertainty_low":null,"uncertainty_high":null,"applicable":true,"drivers":[],"weather_through":null,"model_version":"pnw-pilot-t1-calendar-e2c272b7acfa"}},{"type":"Feature","id":"458_-1210","geometry":{"type":"Polygon","coordinates":[[[-121.05,45.75],[-120.95,45.75],[-120.95,45.85],[-121.05,45.85],[-121.05,45.75]]]},"properties":{"group":"cantharellus","week":"2026-10-05","chance":0.0326,"uncertainty_low":null,"uncertainty_high":null,"applicable":true,"drivers":[],"weather_through":null,"model_version":"pnw-pilot-t1-calendar-e2c272b7acfa"}},{"type":"Feature","id":"459_-1210","geometry":{"type":"Polygon","coordinates":[[[-121.05,45.85],[-120.95,45.85],[-120.95,45.95],[-121.05,45.95],[-121.05,45.85]]]},"properties":{"group":"cantharellus","week":"2026-10-05","chance":0.0326,"uncertainty_low":null,"uncertainty_high":null,"applicable":true,"drivers":[],"weather_through":null,"model_version":"pnw-pilot-t1-calendar-e2c272b7acfa"}}]}