{"type":"FeatureCollection","features":[{"type":"Feature","id":"450_-1230","geometry":{"type":"Polygon","coordinates":[[[-123.05,44.95],[-122.95,44.95],[-122.95,45.05],[-123.05,45.05],[-123.05,44.95]]]},"properties":{"group":"cantharellus","week":"2026-10-05","chance":0.1313,"uncertainty_low":null,"uncertainty_high":null,"applicable":true,"drivers":[{"label":"Rain, total of the last 14 days (mm)","value":10.6},{"label":"Rain, total of the last 3 days (mm)","value":0.0},{"label":"Air temperature, mean of the last 7 days (°C)","value":16.457}],"weather_through":"2026-10-04","model_version":"pnw-pilot-t1-synthetic-1cbe08ab21a8"}},{"type":"Feature","id":"452_-1224","geometry":{"type":"Polygon","coordinates":[[[-122.45,45.15],[-122.35,45.15],[-122.35,45.25],[-122.45,45.25],[-122.45,45.15]]]},"properties":{"group":"cantharellus","week":"2026-10-05","chance":0.1313,"uncertainty_low":null,"uncertainty_high":null,"applicable":true,"drivers":[{"label":"Rain, total of the last 14 days (mm)","value":12.3},{"label":"Rain, total of the last 3 days (mm)","value":0.0},{"label":"Air temperature, mean of the last 7 days (°C)","value":15.3}],"weather_through":"2026-10-04","model_version":"pnw-pilot-t1-synthetic-1cbe08ab21a8"}},{"type":"Feature","id":"453_-1223","geometry":{"type":"Polygon","coordinates":[[[-122.35,45.25],[-122.25,45.25],[-122.25,45.35],[-122.35,45.35],[-122.35,45.25]]]},"properties":{"group":"cantharellus","week":"2026-10-05","chance":0.1313,"uncertainty_low":null,"uncertainty_high":null,"applicable":true,"drivers":[{"label":"Rain, total of the last 14 days (mm)","value":18.8},{"label":"Rain, total of the last 3 days (mm)","value":0.0},{"label":"Air temperature, mean of the last 7 days (°C)","value":15.243}],"weather_through":"2026-10-04","model_version":"pnw-pilot-t1-synthetic-1cbe08ab21a8"}},{"type":"Feature","id":"453_-1222","geometry":{"type":"Polygon","coordinates":[[[-122.25,45.25],[-122.15,45.25],[-122.15,45.35],[-122.25,45.35],[-122.25,45.25]]]},"properties":{"group":"cantharellus","week":"2026-10-05","chance":0.1313,"uncertainty_low":null,"uncertainty_high":null,"applicable":true,"drivers":[{"label":"Rain, total of the last 14 days (mm)","value":18.8},{"label":"Rain, total of the last 3 days (mm)","value":0.0},{"label":"Air temperature, mean of the last 7 days (°C)","value":14.6}],"weather_through":"2026-10-04","model_version":"pnw-pilot-t1-synthetic-1cbe08ab21a8"}},{"type":"Feature","id":"454_-1228","geometry":{"type":"Polygon","coordinates":[[[-122.85,45.35],[-122.75,45.35],[-122.75,45.45],[-122.85,45.45],[-122.85,45.35]]]},"properties":{"group":"cantharellus","week":"2026-10-05","chance":0.1313,"uncertainty_low":null,"uncertainty_high":null,"applicable":true,"drivers":[{"label":"Rain, total of the last 14 days (mm)","value":12.1},{"label":"Rain, total of the last 3 days (mm)","value":0.0},{"label":"Air temperature, mean of the last 7 days (°C)","value":16.571}],"weather_through":"2026-10-04","model_version":"pnw-pilot-t1-synthetic-1cbe08ab21a8"}},{"type":"Feature","id":"454_-1227","geometry":{"type":"Polygon","coordinates":[[[-122.75,45.35],[-122.65,45.35],[-122.65,45.45],[-122.75,45.45],[-122.75,45.35]]]},"properties":{"group":"cantharellus","week":"2026-10-05","chance":0.1313,"uncertainty_low":null,"uncertainty_high":null,"applicable":true,"drivers":[{"label":"Rain, total of the last 14 days (mm)","value":12.1},{"label":"Rain, total of the last 3 days (mm)","value":0.0},{"label":"Air temperature, mean of the last 7 days (°C)","value":16.857}],"weather_through":"2026-10-04","model_version":"pnw-pilot-t1-synthetic-1cbe08ab21a8"}},{"type":"Feature","id":"454_-1226","geometry":{"type":"Polygon","coordinates":[[[-122.65,45.35],[-122.55,45.35],[-122.55,45.45],[-122.65,45.45],[-122.65,45.35]]]},"properties":{"group":"cantharellus","week":"2026-10-05","chance":0.1313,"uncertainty_low":null,"uncertainty_high":null,"applicable":true,"drivers":[{"label":"Rain, total of the last 14 days (mm)","value":18.0},{"label":"Rain, total of the last 3 days (mm)","value":0.0},{"label":"Air temperature, mean of the last 7 days (°C)","value":16.729}],"weather_through":"2026-10-04","model_version":"pnw-pilot-t1-synthetic-1cbe08ab21a8"}},{"type":"Feature","id":"455_-1230","geometry":{"type":"Polygon","coordinates":[[[-123.05,45.45],[-122.95,45.45],[-122.95,45.55],[-123.05,45.55],[-123.05,45.45]]]},"properties":{"group":"cantharellus","week":"2026-10-05","chance":0.1313,"uncertainty_low":null,"uncertainty_high":null,"applicable":true,"drivers":[{"label":"Rain, total of the last 14 days (mm)","value":17.2},{"label":"Rain, total of the last 3 days (mm)","value":0.0},{"label":"Air temperature, mean of the last 7 days (°C)","value":16.314}],"weather_through":"2026-10-04","model_version":"pnw-pilot-t1-synthetic-1cbe08ab21a8"}},{"type":"Feature","id":"455_-1229","geometry":{"type":"Polygon","coordinates":[[[-122.95,45.45],[-122.85,45.45],[-122.85,45.55],[-122.95,45.55],[-122.95,45.45]]]},"properties":{"group":"cantharellus","week":"2026-10-05","chance":0.1313,"uncertainty_low":null,"uncertainty_high":null,"applicable":true,"drivers":[{"label":"Rain, total of the last 14 days (mm)","value":17.2},{"label":"Rain, total of the last 3 days (mm)","value":0.0},{"label":"Air temperature, mean of the last 7 days (°C)","value":16.229}],"weather_through":"2026-10-04","model_version":"pnw-pilot-t1-synthetic-1cbe08ab21a8"}},{"type":"Feature","id":"455_-1228","geometry":{"type":"Polygon","coordinates":[[[-122.85,45.45],[-122.75,45.45],[-122.75,45.55],[-122.85,45.55],[-122.85,45.45]]]},"properties":{"group":"cantharellus","week":"2026-10-05","chance":0.1313,"uncertainty_low":null,"uncertainty_high":null,"applicable":true,"drivers":[{"label":"Rain, total of the last 14 days (mm)","value":12.1},{"label":"Rain, total of the last 3 days (mm)","value":0.0},{"label":"Air temperature, mean of the last 7 days (°C)","value":16.314}],"weather_through":"2026-10-04","model_version":"pnw-pilot-t1-synthetic-1cbe08ab21a8"}},{"type":"Feature","id":"455_-1227","geometry":{"type":"Polygon","coordinates":[[[-122.75,45.45],[-122.65,45.45],[-122.65,45.55],[-122.75,45.55],[-122.75,45.45]]]},"properties":{"group":"cantharellus","week":"2026-10-05","chance":0.1313,"uncertainty_low":null,"uncertainty_high":null,"applicable":true,"drivers":[{"label":"Rain, total of the last 14 days (mm)","value":12.1},{"label":"Rain, total of the last 3 days (mm)","value":0.0},{"label":"Air temperature, mean of the last 7 days (°C)","value":16.557}],"weather_through":"2026-10-04","model_version":"pnw-pilot-t1-synthetic-1cbe08ab21a8"}},{"type":"Feature","id":"455_-1226","geometry":{"type":"Polygon","coordinates":[[[-122.65,45.45],[-122.55,45.45],[-122.55,45.55],[-122.65,45.55],[-122.65,45.45]]]},"properties":{"group":"cantharellus","week":"2026-10-05","chance":0.1313,"uncertainty_low":null,"uncertainty_high":null,"applicable":true,"drivers":[{"label":"Rain, total of the last 14 days (mm)","value":18.0},{"label":"Rain, total of the last 3 days (mm)","value":0.0},{"label":"Air temperature, mean of the last 7 days (°C)","value":16.643}],"weather_through":"2026-10-04","model_version":"pnw-pilot-t1-synthetic-1cbe08ab21a8"}},{"type":"Feature","id":"455_-1225","geometry":{"type":"Polygon","coordinates":[[[-122.55,45.45],[-122.45,45.45],[-122.45,45.55],[-122.55,45.55],[-122.55,45.45]]]},"properties":{"group":"cantharellus","week":"2026-10-05","chance":0.1313,"uncertainty_low":null,"uncertainty_high":null,"applicable":true,"drivers":[{"label":"Rain, total of the last 14 days (mm)","value":18.0},{"label":"Rain, total of the last 3 days (mm)","value":0.0},{"label":"Air temperature, mean of the last 7 days (°C)","value":16.414}],"weather_through":"2026-10-04","model_version":"pnw-pilot-t1-synthetic-1cbe08ab21a8"}},{"type":"Feature","id":"455_-1224","geometry":{"type":"Polygon","coordinates":[[[-122.45,45.45],[-122.35,45.45],[-122.35,45.55],[-122.45,45.55],[-122.45,45.45]]]},"properties":{"group":"cantharellus","week":"2026-10-05","chance":0.1313,"uncertainty_low":null,"uncertainty_high":null,"applicable":true,"drivers":[{"label":"Rain, total of the last 14 days (mm)","value":18.0},{"label":"Rain, total of the last 3 days (mm)","value":0.0},{"label":"Air temperature, mean of the last 7 days (°C)","value":16.071}],"weather_through":"2026-10-04","model_version":"pnw-pilot-t1-synthetic-1cbe08ab21a8"}},{"type":"Feature","id":"455_-1223","geometry":{"type":"Polygon","coordinates":[[[-122.35,45.45],[-122.25,45.45],[-122.25,45.55],[-122.35,45.55],[-122.35,45.45]]]},"properties":{"group":"cantharellus","week":"2026-10-05","chance":0.1313,"uncertainty_low":null,"uncertainty_high":null,"applicable":true,"drivers":[{"label":"Rain, total of the last 14 days (mm)","value":26.4},{"label":"Rain, total of the last 3 days (mm)","value":0.0},{"label":"Air temperature, mean of the last 7 days (°C)","value":15.643}],"weather_through":"2026-10-04","model_version":"pnw-pilot-t1-synthetic-1cbe08ab21a8"}},{"type":"Feature","id":"455_-1221","geometry":{"type":"Polygon","coordinates":[[[-122.15,45.45],[-122.05,45.45],[-122.05,45.55],[-122.15,45.55],[-122.15,45.45]]]},"properties":{"group":"cantharellus","week":"2026-10-05","chance":0.1313,"uncertainty_low":null,"uncertainty_high":null,"applicable":true,"drivers":[{"label":"Rain, total of the last 14 days (mm)","value":19.7},{"label":"Rain, total of the last 3 days (mm)","value":0.0},{"label":"Air temperature, mean of the last 7 days (°C)","value":14.2}],"weather_through":"2026-10-04","model_version":"pnw-pilot-t1-synthetic-1cbe08ab21a8"}},{"type":"Feature","id":"456_-1229","geometry":{"type":"Polygon","coordinates":[[[-122.95,45.55],[-122.85,45.55],[-122.85,45.65],[-122.95,45.65],[-122.95,45.55]]]},"properties":{"group":"cantharellus","week":"2026-10-05","chance":0.1313,"uncertainty_low":null,"uncertainty_high":null,"applicable":true,"drivers":[{"label":"Rain, total of the last 14 days (mm)","value":17.2},{"label":"Rain, total of the last 3 days (mm)","value":0.0},{"label":"Air temperature, mean of the last 7 days (°C)","value":15.986}],"weather_through":"2026-10-04","model_version":"pnw-pilot-t1-synthetic-1cbe08ab21a8"}},{"type":"Feature","id":"456_-1228","geometry":{"type":"Polygon","coordinates":[[[-122.85,45.55],[-122.75,45.55],[-122.75,45.65],[-122.85,45.65],[-122.85,45.55]]]},"properties":{"group":"cantharellus","week":"2026-10-05","chance":0.1313,"uncertainty_low":null,"uncertainty_high":null,"applicable":true,"drivers":[{"label":"Rain, total of the last 14 days (mm)","value":12.1},{"label":"Rain, total of the last 3 days (mm)","value":0.0},{"label":"Air temperature, mean of the last 7 days (°C)","value":16.129}],"weather_through":"2026-10-04","model_version":"pnw-pilot-t1-synthetic-1cbe08ab21a8"}},{"type":"Feature","id":"456_-1227","geometry":{"type":"Polygon","coordinates":[[[-122.75,45.55],[-122.65,45.55],[-122.65,45.65],[-122.75,45.65],[-122.75,45.55]]]},"properties":{"group":"cantharellus","week":"2026-10-05","chance":0.1313,"uncertainty_low":null,"uncertainty_high":null,"applicable":true,"drivers":[{"label":"Rain, total of the last 14 days (mm)","value":12.1},{"label":"Rain, total of the last 3 days (mm)","value":0.0},{"label":"Air temperature, mean of the last 7 days (°C)","value":16.4}],"weather_through":"2026-10-04","model_version":"pnw-pilot-t1-synthetic-1cbe08ab21a8"}},{"type":"Feature","id":"456_-1226","geometry":{"type":"Polygon","coordinates":[[[-122.65,45.55],[-122.55,45.55],[-122.55,45.65],[-122.65,45.65],[-122.65,45.55]]]},"properties":{"group":"cantharellus","week":"2026-10-05","chance":0.1313,"uncertainty_low":null,"uncertainty_high":null,"applicable":true,"drivers":[{"label":"Rain, total of the last 14 days (mm)","value":18.0},{"label":"Rain, total of the last 3 days (mm)","value":0.0},{"label":"Air temperature, mean of the last 7 days (°C)","value":16.414}],"weather_through":"2026-10-04","model_version":"pnw-pilot-t1-synthetic-1cbe08ab21a8"}},{"type":"Feature","id":"456_-1224","geometry":{"type":"Polygon","coordinates":[[[-122.45,45.55],[-122.35,45.55],[-122.35,45.65],[-122.45,45.65],[-122.45,45.55]]]},"properties":{"group":"cantharellus","week":"2026-10-05","chance":0.1313,"uncertainty_low":null,"uncertainty_high":null,"applicable":true,"drivers":[{"label":"Rain, total of the last 14 days (mm)","value":18.0},{"label":"Rain, total of the last 3 days (mm)","value":0.0},{"label":"Air temperature, mean of the last 7 days (°C)","value":16.0}],"weather_through":"2026-10-04","model_version":"pnw-pilot-t1-synthetic-1cbe08ab21a8"}},{"type":"Feature","id":"456_-1221","geometry":{"type":"Polygon","coordinates":[[[-122.15,45.55],[-122.05,45.55],[-122.05,45.65],[-122.15,45.65],[-122.15,45.55]]]},"properties":{"group":"cantharellus","week":"2026-10-05","chance":0.1313,"uncertainty_low":null,"uncertainty_high":null,"applicable":true,"drivers":[{"label":"Rain, total of the last 14 days (mm)","value":19.7},{"label":"Rain, total of the last 3 days (mm)","value":0.0},{"label":"Air temperature, mean of the last 7 days (°C)","value":14.529}],"weather_through":"2026-10-04","model_version":"pnw-pilot-t1-synthetic-1cbe08ab21a8"}},{"type":"Feature","id":"457_-1228","geometry":{"type":"Polygon","coordinates":[[[-122.85,45.65],[-122.75,45.65],[-122.75,45.75],[-122.85,45.75],[-122.85,45.65]]]},"properties":{"group":"cantharellus","week":"2026-10-05","chance":0.1313,"uncertainty_low":null,"uncertainty_high":null,"applicable":true,"drivers":[{"label":"Rain, total of the last 14 days (mm)","value":22.5},{"label":"Rain, total of the last 3 days (mm)","value":0.0},{"label":"Air temperature, mean of the last 7 days (°C)","value":15.857}],"weather_through":"2026-10-04","model_version":"pnw-pilot-t1-synthetic-1cbe08ab21a8"}},{"type":"Feature","id":"457_-1226","geometry":{"type":"Polygon","coordinates":[[[-122.65,45.65],[-122.55,45.65],[-122.55,45.75],[-122.65,45.75],[-122.65,45.65]]]},"properties":{"group":"cantharellus","week":"2026-10-05","chance":0.1313,"uncertainty_low":null,"uncertainty_high":null,"applicable":true,"drivers":[{"label":"Rain, total of the last 14 days (mm)","value":28.1},{"label":"Rain, total of the last 3 days (mm)","value":0.0},{"label":"Air temperature, mean of the last 7 days (°C)","value":16.229}],"weather_through":"2026-10-04","model_version":"pnw-pilot-t1-synthetic-1cbe08ab21a8"}}]}