{"type":"FeatureCollection","features":[{"type":"Feature","id":"461_-1239","geometry":{"type":"Polygon","coordinates":[[[-123.95,46.05],[-123.85,46.05],[-123.85,46.15],[-123.95,46.15],[-123.95,46.05]]]},"properties":{"group":"cantharellus","week":"2026-10-05","chance":0.0307,"uncertainty_low":null,"uncertainty_high":null,"applicable":true,"drivers":[],"weather_through":"2026-10-04","model_version":"pnw-pilot-t1-calendar-e2c272b7acfa"}},{"type":"Feature","id":"462_-1240","geometry":{"type":"Polygon","coordinates":[[[-124.05,46.15],[-123.95,46.15],[-123.95,46.25],[-124.05,46.25],[-124.05,46.15]]]},"properties":{"group":"cantharellus","week":"2026-10-05","chance":0.0301,"uncertainty_low":null,"uncertainty_high":null,"applicable":true,"drivers":[],"weather_through":"2026-10-04","model_version":"pnw-pilot-t1-calendar-e2c272b7acfa"}},{"type":"Feature","id":"464_-1240","geometry":{"type":"Polygon","coordinates":[[[-124.05,46.35],[-123.95,46.35],[-123.95,46.45],[-124.05,46.45],[-124.05,46.35]]]},"properties":{"group":"cantharellus","week":"2026-10-05","chance":0.0295,"uncertainty_low":null,"uncertainty_high":null,"applicable":true,"drivers":[],"weather_through":"2026-10-04","model_version":"pnw-pilot-t1-calendar-e2c272b7acfa"}},{"type":"Feature","id":"464_-1239","geometry":{"type":"Polygon","coordinates":[[[-123.95,46.35],[-123.85,46.35],[-123.85,46.45],[-123.95,46.45],[-123.95,46.35]]]},"properties":{"group":"cantharellus","week":"2026-10-05","chance":0.0302,"uncertainty_low":null,"uncertainty_high":null,"applicable":true,"drivers":[],"weather_through":"2026-10-04","model_version":"pnw-pilot-t1-calendar-e2c272b7acfa"}},{"type":"Feature","id":"469_-1240","geometry":{"type":"Polygon","coordinates":[[[-124.05,46.85],[-123.95,46.85],[-123.95,46.95],[-124.05,46.95],[-124.05,46.85]]]},"properties":{"group":"cantharellus","week":"2026-10-05","chance":0.0545,"uncertainty_low":null,"uncertainty_high":null,"applicable":true,"drivers":[],"weather_through":"2026-10-04","model_version":"pnw-pilot-t1-calendar-e2c272b7acfa"}},{"type":"Feature","id":"469_-1231","geometry":{"type":"Polygon","coordinates":[[[-123.15,46.85],[-123.05,46.85],[-123.05,46.95],[-123.15,46.95],[-123.15,46.85]]]},"properties":{"group":"cantharellus","week":"2026-10-05","chance":0.0416,"uncertainty_low":null,"uncertainty_high":null,"applicable":true,"drivers":[],"weather_through":"2026-10-04","model_version":"pnw-pilot-t1-calendar-e2c272b7acfa"}}]}