{"type":"FeatureCollection","features":[{"type":"Feature","id":"460_-1220","geometry":{"type":"Polygon","coordinates":[[[-122.05,45.95],[-121.95,45.95],[-121.95,46.05],[-122.05,46.05],[-122.05,45.95]]]},"properties":{"group":"cantharellus","week":"2026-10-05","chance":0.0798,"uncertainty_low":null,"uncertainty_high":null,"applicable":true,"drivers":[],"weather_through":null,"model_version":"pnw-pilot-t1-calendar-e2c272b7acfa"}},{"type":"Feature","id":"460_-1219","geometry":{"type":"Polygon","coordinates":[[[-121.95,45.95],[-121.85,45.95],[-121.85,46.05],[-121.95,46.05],[-121.95,45.95]]]},"properties":{"group":"cantharellus","week":"2026-10-05","chance":0.0831,"uncertainty_low":null,"uncertainty_high":null,"applicable":true,"drivers":[],"weather_through":null,"model_version":"pnw-pilot-t1-calendar-e2c272b7acfa"}},{"type":"Feature","id":"460_-1218","geometry":{"type":"Polygon","coordinates":[[[-121.85,45.95],[-121.75,45.95],[-121.75,46.05],[-121.85,46.05],[-121.85,45.95]]]},"properties":{"group":"cantharellus","week":"2026-10-05","chance":0.0575,"uncertainty_low":null,"uncertainty_high":null,"applicable":true,"drivers":[],"weather_through":null,"model_version":"pnw-pilot-t1-calendar-e2c272b7acfa"}},{"type":"Feature","id":"460_-1217","geometry":{"type":"Polygon","coordinates":[[[-121.75,45.95],[-121.65,45.95],[-121.65,46.05],[-121.75,46.05],[-121.75,45.95]]]},"properties":{"group":"cantharellus","week":"2026-10-05","chance":0.0575,"uncertainty_low":null,"uncertainty_high":null,"applicable":true,"drivers":[],"weather_through":null,"model_version":"pnw-pilot-t1-calendar-e2c272b7acfa"}},{"type":"Feature","id":"460_-1216","geometry":{"type":"Polygon","coordinates":[[[-121.65,45.95],[-121.55,45.95],[-121.55,46.05],[-121.65,46.05],[-121.65,45.95]]]},"properties":{"group":"cantharellus","week":"2026-10-05","chance":0.0651,"uncertainty_low":null,"uncertainty_high":null,"applicable":true,"drivers":[],"weather_through":null,"model_version":"pnw-pilot-t1-calendar-e2c272b7acfa"}},{"type":"Feature","id":"460_-1215","geometry":{"type":"Polygon","coordinates":[[[-121.55,45.95],[-121.45,45.95],[-121.45,46.05],[-121.55,46.05],[-121.55,45.95]]]},"properties":{"group":"cantharellus","week":"2026-10-05","chance":0.0336,"uncertainty_low":null,"uncertainty_high":null,"applicable":true,"drivers":[],"weather_through":null,"model_version":"pnw-pilot-t1-calendar-e2c272b7acfa"}},{"type":"Feature","id":"460_-1214","geometry":{"type":"Polygon","coordinates":[[[-121.45,45.95],[-121.35,45.95],[-121.35,46.05],[-121.45,46.05],[-121.45,45.95]]]},"properties":{"group":"cantharellus","week":"2026-10-05","chance":0.0307,"uncertainty_low":null,"uncertainty_high":null,"applicable":true,"drivers":[],"weather_through":null,"model_version":"pnw-pilot-t1-calendar-e2c272b7acfa"}},{"type":"Feature","id":"460_-1213","geometry":{"type":"Polygon","coordinates":[[[-121.35,45.95],[-121.25,45.95],[-121.25,46.05],[-121.35,46.05],[-121.35,45.95]]]},"properties":{"group":"cantharellus","week":"2026-10-05","chance":0.0307,"uncertainty_low":null,"uncertainty_high":null,"applicable":true,"drivers":[],"weather_through":null,"model_version":"pnw-pilot-t1-calendar-e2c272b7acfa"}},{"type":"Feature","id":"460_-1212","geometry":{"type":"Polygon","coordinates":[[[-121.25,45.95],[-121.15,45.95],[-121.15,46.05],[-121.25,46.05],[-121.25,45.95]]]},"properties":{"group":"cantharellus","week":"2026-10-05","chance":0.0307,"uncertainty_low":null,"uncertainty_high":null,"applicable":true,"drivers":[],"weather_through":null,"model_version":"pnw-pilot-t1-calendar-e2c272b7acfa"}},{"type":"Feature","id":"460_-1211","geometry":{"type":"Polygon","coordinates":[[[-121.15,45.95],[-121.05,45.95],[-121.05,46.05],[-121.15,46.05],[-121.15,45.95]]]},"properties":{"group":"cantharellus","week":"2026-10-05","chance":0.0326,"uncertainty_low":null,"uncertainty_high":null,"applicable":true,"drivers":[],"weather_through":null,"model_version":"pnw-pilot-t1-calendar-e2c272b7acfa"}},{"type":"Feature","id":"461_-1220","geometry":{"type":"Polygon","coordinates":[[[-122.05,46.05],[-121.95,46.05],[-121.95,46.15],[-122.05,46.15],[-122.05,46.05]]]},"properties":{"group":"cantharellus","week":"2026-10-05","chance":0.076,"uncertainty_low":null,"uncertainty_high":null,"applicable":true,"drivers":[],"weather_through":null,"model_version":"pnw-pilot-t1-calendar-e2c272b7acfa"}},{"type":"Feature","id":"461_-1219","geometry":{"type":"Polygon","coordinates":[[[-121.95,46.05],[-121.85,46.05],[-121.85,46.15],[-121.95,46.15],[-121.95,46.05]]]},"properties":{"group":"cantharellus","week":"2026-10-05","chance":0.0792,"uncertainty_low":null,"uncertainty_high":null,"applicable":true,"drivers":[],"weather_through":null,"model_version":"pnw-pilot-t1-calendar-e2c272b7acfa"}},{"type":"Feature","id":"461_-1218","geometry":{"type":"Polygon","coordinates":[[[-121.85,46.05],[-121.75,46.05],[-121.75,46.15],[-121.85,46.15],[-121.85,46.05]]]},"properties":{"group":"cantharellus","week":"2026-10-05","chance":0.0575,"uncertainty_low":null,"uncertainty_high":null,"applicable":true,"drivers":[],"weather_through":null,"model_version":"pnw-pilot-t1-calendar-e2c272b7acfa"}},{"type":"Feature","id":"461_-1217","geometry":{"type":"Polygon","coordinates":[[[-121.75,46.05],[-121.65,46.05],[-121.65,46.15],[-121.75,46.15],[-121.75,46.05]]]},"properties":{"group":"cantharellus","week":"2026-10-05","chance":0.0575,"uncertainty_low":null,"uncertainty_high":null,"applicable":true,"drivers":[],"weather_through":null,"model_version":"pnw-pilot-t1-calendar-e2c272b7acfa"}},{"type":"Feature","id":"461_-1216","geometry":{"type":"Polygon","coordinates":[[[-121.65,46.05],[-121.55,46.05],[-121.55,46.15],[-121.65,46.15],[-121.65,46.05]]]},"properties":{"group":"cantharellus","week":"2026-10-05","chance":0.0651,"uncertainty_low":null,"uncertainty_high":null,"applicable":true,"drivers":[],"weather_through":null,"model_version":"pnw-pilot-t1-calendar-e2c272b7acfa"}},{"type":"Feature","id":"461_-1215","geometry":{"type":"Polygon","coordinates":[[[-121.55,46.05],[-121.45,46.05],[-121.45,46.15],[-121.55,46.15],[-121.55,46.05]]]},"properties":{"group":"cantharellus","week":"2026-10-05","chance":0.0336,"uncertainty_low":null,"uncertainty_high":null,"applicable":true,"drivers":[],"weather_through":null,"model_version":"pnw-pilot-t1-calendar-e2c272b7acfa"}},{"type":"Feature","id":"461_-1214","geometry":{"type":"Polygon","coordinates":[[[-121.45,46.05],[-121.35,46.05],[-121.35,46.15],[-121.45,46.15],[-121.45,46.05]]]},"properties":{"group":"cantharellus","week":"2026-10-05","chance":0.0307,"uncertainty_low":null,"uncertainty_high":null,"applicable":true,"drivers":[],"weather_through":null,"model_version":"pnw-pilot-t1-calendar-e2c272b7acfa"}},{"type":"Feature","id":"461_-1213","geometry":{"type":"Polygon","coordinates":[[[-121.35,46.05],[-121.25,46.05],[-121.25,46.15],[-121.35,46.15],[-121.35,46.05]]]},"properties":{"group":"cantharellus","week":"2026-10-05","chance":0.0307,"uncertainty_low":null,"uncertainty_high":null,"applicable":true,"drivers":[],"weather_through":null,"model_version":"pnw-pilot-t1-calendar-e2c272b7acfa"}},{"type":"Feature","id":"461_-1212","geometry":{"type":"Polygon","coordinates":[[[-121.25,46.05],[-121.15,46.05],[-121.15,46.15],[-121.25,46.15],[-121.25,46.05]]]},"properties":{"group":"cantharellus","week":"2026-10-05","chance":0.0307,"uncertainty_low":null,"uncertainty_high":null,"applicable":true,"drivers":[],"weather_through":null,"model_version":"pnw-pilot-t1-calendar-e2c272b7acfa"}},{"type":"Feature","id":"461_-1211","geometry":{"type":"Polygon","coordinates":[[[-121.15,46.05],[-121.05,46.05],[-121.05,46.15],[-121.15,46.15],[-121.15,46.05]]]},"properties":{"group":"cantharellus","week":"2026-10-05","chance":0.0326,"uncertainty_low":null,"uncertainty_high":null,"applicable":true,"drivers":[],"weather_through":null,"model_version":"pnw-pilot-t1-calendar-e2c272b7acfa"}},{"type":"Feature","id":"462_-1220","geometry":{"type":"Polygon","coordinates":[[[-122.05,46.15],[-121.95,46.15],[-121.95,46.25],[-122.05,46.25],[-122.05,46.15]]]},"properties":{"group":"cantharellus","week":"2026-10-05","chance":0.076,"uncertainty_low":null,"uncertainty_high":null,"applicable":true,"drivers":[],"weather_through":null,"model_version":"pnw-pilot-t1-calendar-e2c272b7acfa"}},{"type":"Feature","id":"462_-1219","geometry":{"type":"Polygon","coordinates":[[[-121.95,46.15],[-121.85,46.15],[-121.85,46.25],[-121.95,46.25],[-121.95,46.15]]]},"properties":{"group":"cantharellus","week":"2026-10-05","chance":0.0792,"uncertainty_low":null,"uncertainty_high":null,"applicable":true,"drivers":[],"weather_through":null,"model_version":"pnw-pilot-t1-calendar-e2c272b7acfa"}},{"type":"Feature","id":"462_-1218","geometry":{"type":"Polygon","coordinates":[[[-121.85,46.15],[-121.75,46.15],[-121.75,46.25],[-121.85,46.25],[-121.85,46.15]]]},"properties":{"group":"cantharellus","week":"2026-10-05","chance":0.0575,"uncertainty_low":null,"uncertainty_high":null,"applicable":true,"drivers":[],"weather_through":null,"model_version":"pnw-pilot-t1-calendar-e2c272b7acfa"}},{"type":"Feature","id":"462_-1217","geometry":{"type":"Polygon","coordinates":[[[-121.75,46.15],[-121.65,46.15],[-121.65,46.25],[-121.75,46.25],[-121.75,46.15]]]},"properties":{"group":"cantharellus","week":"2026-10-05","chance":0.0575,"uncertainty_low":null,"uncertainty_high":null,"applicable":true,"drivers":[],"weather_through":null,"model_version":"pnw-pilot-t1-calendar-e2c272b7acfa"}},{"type":"Feature","id":"462_-1216","geometry":{"type":"Polygon","coordinates":[[[-121.65,46.15],[-121.55,46.15],[-121.55,46.25],[-121.65,46.25],[-121.65,46.15]]]},"properties":{"group":"cantharellus","week":"2026-10-05","chance":0.0651,"uncertainty_low":null,"uncertainty_high":null,"applicable":true,"drivers":[],"weather_through":null,"model_version":"pnw-pilot-t1-calendar-e2c272b7acfa"}},{"type":"Feature","id":"462_-1215","geometry":{"type":"Polygon","coordinates":[[[-121.55,46.15],[-121.45,46.15],[-121.45,46.25],[-121.55,46.25],[-121.55,46.15]]]},"properties":{"group":"cantharellus","week":"2026-10-05","chance":0.0336,"uncertainty_low":null,"uncertainty_high":null,"applicable":true,"drivers":[],"weather_through":null,"model_version":"pnw-pilot-t1-calendar-e2c272b7acfa"}},{"type":"Feature","id":"462_-1214","geometry":{"type":"Polygon","coordinates":[[[-121.45,46.15],[-121.35,46.15],[-121.35,46.25],[-121.45,46.25],[-121.45,46.15]]]},"properties":{"group":"cantharellus","week":"2026-10-05","chance":0.0307,"uncertainty_low":null,"uncertainty_high":null,"applicable":true,"drivers":[],"weather_through":null,"model_version":"pnw-pilot-t1-calendar-e2c272b7acfa"}},{"type":"Feature","id":"462_-1213","geometry":{"type":"Polygon","coordinates":[[[-121.35,46.15],[-121.25,46.15],[-121.25,46.25],[-121.35,46.25],[-121.35,46.15]]]},"properties":{"group":"cantharellus","week":"2026-10-05","chance":0.0307,"uncertainty_low":null,"uncertainty_high":null,"applicable":true,"drivers":[],"weather_through":null,"model_version":"pnw-pilot-t1-calendar-e2c272b7acfa"}},{"type":"Feature","id":"462_-1212","geometry":{"type":"Polygon","coordinates":[[[-121.25,46.15],[-121.15,46.15],[-121.15,46.25],[-121.25,46.25],[-121.25,46.15]]]},"properties":{"group":"cantharellus","week":"2026-10-05","chance":0.0307,"uncertainty_low":null,"uncertainty_high":null,"applicable":true,"drivers":[],"weather_through":null,"model_version":"pnw-pilot-t1-calendar-e2c272b7acfa"}},{"type":"Feature","id":"462_-1211","geometry":{"type":"Polygon","coordinates":[[[-121.15,46.15],[-121.05,46.15],[-121.05,46.25],[-121.15,46.25],[-121.15,46.15]]]},"properties":{"group":"cantharellus","week":"2026-10-05","chance":0.0326,"uncertainty_low":null,"uncertainty_high":null,"applicable":true,"drivers":[],"weather_through":null,"model_version":"pnw-pilot-t1-calendar-e2c272b7acfa"}},{"type":"Feature","id":"463_-1220","geometry":{"type":"Polygon","coordinates":[[[-122.05,46.25],[-121.95,46.25],[-121.95,46.35],[-122.05,46.35],[-122.05,46.25]]]},"properties":{"group":"cantharellus","week":"2026-10-05","chance":0.0741,"uncertainty_low":null,"uncertainty_high":null,"applicable":true,"drivers":[],"weather_through":null,"model_version":"pnw-pilot-t1-calendar-e2c272b7acfa"}},{"type":"Feature","id":"463_-1219","geometry":{"type":"Polygon","coordinates":[[[-121.95,46.25],[-121.85,46.25],[-121.85,46.35],[-121.95,46.35],[-121.95,46.25]]]},"properties":{"group":"cantharellus","week":"2026-10-05","chance":0.0772,"uncertainty_low":null,"uncertainty_high":null,"applicable":true,"drivers":[],"weather_through":null,"model_version":"pnw-pilot-t1-calendar-e2c272b7acfa"}},{"type":"Feature","id":"463_-1218","geometry":{"type":"Polygon","coordinates":[[[-121.85,46.25],[-121.75,46.25],[-121.75,46.35],[-121.85,46.35],[-121.85,46.25]]]},"properties":{"group":"cantharellus","week":"2026-10-05","chance":0.0679,"uncertainty_low":null,"uncertainty_high":null,"applicable":true,"drivers":[],"weather_through":null,"model_version":"pnw-pilot-t1-calendar-e2c272b7acfa"}},{"type":"Feature","id":"463_-1217","geometry":{"type":"Polygon","coordinates":[[[-121.75,46.25],[-121.65,46.25],[-121.65,46.35],[-121.75,46.35],[-121.75,46.25]]]},"properties":{"group":"cantharellus","week":"2026-10-05","chance":0.0679,"uncertainty_low":null,"uncertainty_high":null,"applicable":true,"drivers":[],"weather_through":null,"model_version":"pnw-pilot-t1-calendar-e2c272b7acfa"}},{"type":"Feature","id":"463_-1216","geometry":{"type":"Polygon","coordinates":[[[-121.65,46.25],[-121.55,46.25],[-121.55,46.35],[-121.65,46.35],[-121.65,46.25]]]},"properties":{"group":"cantharellus","week":"2026-10-05","chance":0.0791,"uncertainty_low":null,"uncertainty_high":null,"applicable":true,"drivers":[],"weather_through":null,"model_version":"pnw-pilot-t1-calendar-e2c272b7acfa"}},{"type":"Feature","id":"463_-1215","geometry":{"type":"Polygon","coordinates":[[[-121.55,46.25],[-121.45,46.25],[-121.45,46.35],[-121.55,46.35],[-121.55,46.25]]]},"properties":{"group":"cantharellus","week":"2026-10-05","chance":0.0412,"uncertainty_low":null,"uncertainty_high":null,"applicable":true,"drivers":[],"weather_through":null,"model_version":"pnw-pilot-t1-calendar-e2c272b7acfa"}},{"type":"Feature","id":"463_-1214","geometry":{"type":"Polygon","coordinates":[[[-121.45,46.25],[-121.35,46.25],[-121.35,46.35],[-121.45,46.35],[-121.45,46.25]]]},"properties":{"group":"cantharellus","week":"2026-10-05","chance":0.0376,"uncertainty_low":null,"uncertainty_high":null,"applicable":true,"drivers":[],"weather_through":null,"model_version":"pnw-pilot-t1-calendar-e2c272b7acfa"}},{"type":"Feature","id":"463_-1213","geometry":{"type":"Polygon","coordinates":[[[-121.35,46.25],[-121.25,46.25],[-121.25,46.35],[-121.35,46.35],[-121.35,46.25]]]},"properties":{"group":"cantharellus","week":"2026-10-05","chance":0.0376,"uncertainty_low":null,"uncertainty_high":null,"applicable":true,"drivers":[],"weather_through":null,"model_version":"pnw-pilot-t1-calendar-e2c272b7acfa"}},{"type":"Feature","id":"463_-1212","geometry":{"type":"Polygon","coordinates":[[[-121.25,46.25],[-121.15,46.25],[-121.15,46.35],[-121.25,46.35],[-121.25,46.25]]]},"properties":{"group":"cantharellus","week":"2026-10-05","chance":0.0376,"uncertainty_low":null,"uncertainty_high":null,"applicable":true,"drivers":[],"weather_through":null,"model_version":"pnw-pilot-t1-calendar-e2c272b7acfa"}},{"type":"Feature","id":"463_-1211","geometry":{"type":"Polygon","coordinates":[[[-121.15,46.25],[-121.05,46.25],[-121.05,46.35],[-121.15,46.35],[-121.15,46.25]]]},"properties":{"group":"cantharellus","week":"2026-10-05","chance":0.04,"uncertainty_low":null,"uncertainty_high":null,"applicable":true,"drivers":[],"weather_through":null,"model_version":"pnw-pilot-t1-calendar-e2c272b7acfa"}},{"type":"Feature","id":"464_-1220","geometry":{"type":"Polygon","coordinates":[[[-122.05,46.35],[-121.95,46.35],[-121.95,46.45],[-122.05,46.45],[-122.05,46.35]]]},"properties":{"group":"cantharellus","week":"2026-10-05","chance":0.0741,"uncertainty_low":null,"uncertainty_high":null,"applicable":true,"drivers":[],"weather_through":null,"model_version":"pnw-pilot-t1-calendar-e2c272b7acfa"}},{"type":"Feature","id":"464_-1219","geometry":{"type":"Polygon","coordinates":[[[-121.95,46.35],[-121.85,46.35],[-121.85,46.45],[-121.95,46.45],[-121.95,46.35]]]},"properties":{"group":"cantharellus","week":"2026-10-05","chance":0.0772,"uncertainty_low":null,"uncertainty_high":null,"applicable":true,"drivers":[],"weather_through":null,"model_version":"pnw-pilot-t1-calendar-e2c272b7acfa"}},{"type":"Feature","id":"464_-1218","geometry":{"type":"Polygon","coordinates":[[[-121.85,46.35],[-121.75,46.35],[-121.75,46.45],[-121.85,46.45],[-121.85,46.35]]]},"properties":{"group":"cantharellus","week":"2026-10-05","chance":0.0679,"uncertainty_low":null,"uncertainty_high":null,"applicable":true,"drivers":[],"weather_through":null,"model_version":"pnw-pilot-t1-calendar-e2c272b7acfa"}},{"type":"Feature","id":"464_-1217","geometry":{"type":"Polygon","coordinates":[[[-121.75,46.35],[-121.65,46.35],[-121.65,46.45],[-121.75,46.45],[-121.75,46.35]]]},"properties":{"group":"cantharellus","week":"2026-10-05","chance":0.0679,"uncertainty_low":null,"uncertainty_high":null,"applicable":true,"drivers":[],"weather_through":null,"model_version":"pnw-pilot-t1-calendar-e2c272b7acfa"}},{"type":"Feature","id":"464_-1216","geometry":{"type":"Polygon","coordinates":[[[-121.65,46.35],[-121.55,46.35],[-121.55,46.45],[-121.65,46.45],[-121.65,46.35]]]},"properties":{"group":"cantharellus","week":"2026-10-05","chance":0.0791,"uncertainty_low":null,"uncertainty_high":null,"applicable":true,"drivers":[],"weather_through":null,"model_version":"pnw-pilot-t1-calendar-e2c272b7acfa"}},{"type":"Feature","id":"464_-1215","geometry":{"type":"Polygon","coordinates":[[[-121.55,46.35],[-121.45,46.35],[-121.45,46.45],[-121.55,46.45],[-121.55,46.35]]]},"properties":{"group":"cantharellus","week":"2026-10-05","chance":0.0412,"uncertainty_low":null,"uncertainty_high":null,"applicable":true,"drivers":[],"weather_through":null,"model_version":"pnw-pilot-t1-calendar-e2c272b7acfa"}},{"type":"Feature","id":"464_-1214","geometry":{"type":"Polygon","coordinates":[[[-121.45,46.35],[-121.35,46.35],[-121.35,46.45],[-121.45,46.45],[-121.45,46.35]]]},"properties":{"group":"cantharellus","week":"2026-10-05","chance":0.0376,"uncertainty_low":null,"uncertainty_high":null,"applicable":true,"drivers":[],"weather_through":null,"model_version":"pnw-pilot-t1-calendar-e2c272b7acfa"}},{"type":"Feature","id":"464_-1213","geometry":{"type":"Polygon","coordinates":[[[-121.35,46.35],[-121.25,46.35],[-121.25,46.45],[-121.35,46.45],[-121.35,46.35]]]},"properties":{"group":"cantharellus","week":"2026-10-05","chance":0.0376,"uncertainty_low":null,"uncertainty_high":null,"applicable":true,"drivers":[],"weather_through":null,"model_version":"pnw-pilot-t1-calendar-e2c272b7acfa"}},{"type":"Feature","id":"464_-1212","geometry":{"type":"Polygon","coordinates":[[[-121.25,46.35],[-121.15,46.35],[-121.15,46.45],[-121.25,46.45],[-121.25,46.35]]]},"properties":{"group":"cantharellus","week":"2026-10-05","chance":0.0376,"uncertainty_low":null,"uncertainty_high":null,"applicable":true,"drivers":[],"weather_through":null,"model_version":"pnw-pilot-t1-calendar-e2c272b7acfa"}},{"type":"Feature","id":"464_-1211","geometry":{"type":"Polygon","coordinates":[[[-121.15,46.35],[-121.05,46.35],[-121.05,46.45],[-121.15,46.45],[-121.15,46.35]]]},"properties":{"group":"cantharellus","week":"2026-10-05","chance":0.04,"uncertainty_low":null,"uncertainty_high":null,"applicable":true,"drivers":[],"weather_through":null,"model_version":"pnw-pilot-t1-calendar-e2c272b7acfa"}},{"type":"Feature","id":"465_-1220","geometry":{"type":"Polygon","coordinates":[[[-122.05,46.45],[-121.95,46.45],[-121.95,46.55],[-122.05,46.55],[-122.05,46.45]]]},"properties":{"group":"cantharellus","week":"2026-10-05","chance":0.0741,"uncertainty_low":null,"uncertainty_high":null,"applicable":true,"drivers":[],"weather_through":null,"model_version":"pnw-pilot-t1-calendar-e2c272b7acfa"}},{"type":"Feature","id":"465_-1219","geometry":{"type":"Polygon","coordinates":[[[-121.95,46.45],[-121.85,46.45],[-121.85,46.55],[-121.95,46.55],[-121.95,46.45]]]},"properties":{"group":"cantharellus","week":"2026-10-05","chance":0.0772,"uncertainty_low":null,"uncertainty_high":null,"applicable":true,"drivers":[],"weather_through":null,"model_version":"pnw-pilot-t1-calendar-e2c272b7acfa"}},{"type":"Feature","id":"465_-1218","geometry":{"type":"Polygon","coordinates":[[[-121.85,46.45],[-121.75,46.45],[-121.75,46.55],[-121.85,46.55],[-121.85,46.45]]]},"properties":{"group":"cantharellus","week":"2026-10-05","chance":0.0679,"uncertainty_low":null,"uncertainty_high":null,"applicable":true,"drivers":[],"weather_through":null,"model_version":"pnw-pilot-t1-calendar-e2c272b7acfa"}},{"type":"Feature","id":"465_-1217","geometry":{"type":"Polygon","coordinates":[[[-121.75,46.45],[-121.65,46.45],[-121.65,46.55],[-121.75,46.55],[-121.75,46.45]]]},"properties":{"group":"cantharellus","week":"2026-10-05","chance":0.0679,"uncertainty_low":null,"uncertainty_high":null,"applicable":true,"drivers":[],"weather_through":null,"model_version":"pnw-pilot-t1-calendar-e2c272b7acfa"}},{"type":"Feature","id":"465_-1216","geometry":{"type":"Polygon","coordinates":[[[-121.65,46.45],[-121.55,46.45],[-121.55,46.55],[-121.65,46.55],[-121.65,46.45]]]},"properties":{"group":"cantharellus","week":"2026-10-05","chance":0.0791,"uncertainty_low":null,"uncertainty_high":null,"applicable":true,"drivers":[],"weather_through":null,"model_version":"pnw-pilot-t1-calendar-e2c272b7acfa"}},{"type":"Feature","id":"465_-1215","geometry":{"type":"Polygon","coordinates":[[[-121.55,46.45],[-121.45,46.45],[-121.45,46.55],[-121.55,46.55],[-121.55,46.45]]]},"properties":{"group":"cantharellus","week":"2026-10-05","chance":0.0412,"uncertainty_low":null,"uncertainty_high":null,"applicable":true,"drivers":[],"weather_through":null,"model_version":"pnw-pilot-t1-calendar-e2c272b7acfa"}},{"type":"Feature","id":"465_-1214","geometry":{"type":"Polygon","coordinates":[[[-121.45,46.45],[-121.35,46.45],[-121.35,46.55],[-121.45,46.55],[-121.45,46.45]]]},"properties":{"group":"cantharellus","week":"2026-10-05","chance":0.0376,"uncertainty_low":null,"uncertainty_high":null,"applicable":true,"drivers":[],"weather_through":null,"model_version":"pnw-pilot-t1-calendar-e2c272b7acfa"}},{"type":"Feature","id":"465_-1213","geometry":{"type":"Polygon","coordinates":[[[-121.35,46.45],[-121.25,46.45],[-121.25,46.55],[-121.35,46.55],[-121.35,46.45]]]},"properties":{"group":"cantharellus","week":"2026-10-05","chance":0.0376,"uncertainty_low":null,"uncertainty_high":null,"applicable":true,"drivers":[],"weather_through":null,"model_version":"pnw-pilot-t1-calendar-e2c272b7acfa"}},{"type":"Feature","id":"465_-1212","geometry":{"type":"Polygon","coordinates":[[[-121.25,46.45],[-121.15,46.45],[-121.15,46.55],[-121.25,46.55],[-121.25,46.45]]]},"properties":{"group":"cantharellus","week":"2026-10-05","chance":0.0376,"uncertainty_low":null,"uncertainty_high":null,"applicable":true,"drivers":[],"weather_through":null,"model_version":"pnw-pilot-t1-calendar-e2c272b7acfa"}},{"type":"Feature","id":"465_-1211","geometry":{"type":"Polygon","coordinates":[[[-121.15,46.45],[-121.05,46.45],[-121.05,46.55],[-121.15,46.55],[-121.15,46.45]]]},"properties":{"group":"cantharellus","week":"2026-10-05","chance":0.04,"uncertainty_low":null,"uncertainty_high":null,"applicable":true,"drivers":[],"weather_through":null,"model_version":"pnw-pilot-t1-calendar-e2c272b7acfa"}},{"type":"Feature","id":"466_-1220","geometry":{"type":"Polygon","coordinates":[[[-122.05,46.55],[-121.95,46.55],[-121.95,46.65],[-122.05,46.65],[-122.05,46.55]]]},"properties":{"group":"cantharellus","week":"2026-10-05","chance":0.0741,"uncertainty_low":null,"uncertainty_high":null,"applicable":true,"drivers":[],"weather_through":null,"model_version":"pnw-pilot-t1-calendar-e2c272b7acfa"}},{"type":"Feature","id":"466_-1219","geometry":{"type":"Polygon","coordinates":[[[-121.95,46.55],[-121.85,46.55],[-121.85,46.65],[-121.95,46.65],[-121.95,46.55]]]},"properties":{"group":"cantharellus","week":"2026-10-05","chance":0.0772,"uncertainty_low":null,"uncertainty_high":null,"applicable":true,"drivers":[],"weather_through":null,"model_version":"pnw-pilot-t1-calendar-e2c272b7acfa"}},{"type":"Feature","id":"466_-1218","geometry":{"type":"Polygon","coordinates":[[[-121.85,46.55],[-121.75,46.55],[-121.75,46.65],[-121.85,46.65],[-121.85,46.55]]]},"properties":{"group":"cantharellus","week":"2026-10-05","chance":0.0679,"uncertainty_low":null,"uncertainty_high":null,"applicable":true,"drivers":[],"weather_through":null,"model_version":"pnw-pilot-t1-calendar-e2c272b7acfa"}},{"type":"Feature","id":"466_-1217","geometry":{"type":"Polygon","coordinates":[[[-121.75,46.55],[-121.65,46.55],[-121.65,46.65],[-121.75,46.65],[-121.75,46.55]]]},"properties":{"group":"cantharellus","week":"2026-10-05","chance":0.0679,"uncertainty_low":null,"uncertainty_high":null,"applicable":true,"drivers":[],"weather_through":null,"model_version":"pnw-pilot-t1-calendar-e2c272b7acfa"}},{"type":"Feature","id":"466_-1216","geometry":{"type":"Polygon","coordinates":[[[-121.65,46.55],[-121.55,46.55],[-121.55,46.65],[-121.65,46.65],[-121.65,46.55]]]},"properties":{"group":"cantharellus","week":"2026-10-05","chance":0.0791,"uncertainty_low":null,"uncertainty_high":null,"applicable":true,"drivers":[],"weather_through":null,"model_version":"pnw-pilot-t1-calendar-e2c272b7acfa"}},{"type":"Feature","id":"466_-1215","geometry":{"type":"Polygon","coordinates":[[[-121.55,46.55],[-121.45,46.55],[-121.45,46.65],[-121.55,46.65],[-121.55,46.55]]]},"properties":{"group":"cantharellus","week":"2026-10-05","chance":0.0412,"uncertainty_low":null,"uncertainty_high":null,"applicable":true,"drivers":[],"weather_through":null,"model_version":"pnw-pilot-t1-calendar-e2c272b7acfa"}},{"type":"Feature","id":"466_-1214","geometry":{"type":"Polygon","coordinates":[[[-121.45,46.55],[-121.35,46.55],[-121.35,46.65],[-121.45,46.65],[-121.45,46.55]]]},"properties":{"group":"cantharellus","week":"2026-10-05","chance":0.0376,"uncertainty_low":null,"uncertainty_high":null,"applicable":true,"drivers":[],"weather_through":null,"model_version":"pnw-pilot-t1-calendar-e2c272b7acfa"}},{"type":"Feature","id":"466_-1213","geometry":{"type":"Polygon","coordinates":[[[-121.35,46.55],[-121.25,46.55],[-121.25,46.65],[-121.35,46.65],[-121.35,46.55]]]},"properties":{"group":"cantharellus","week":"2026-10-05","chance":0.0376,"uncertainty_low":null,"uncertainty_high":null,"applicable":true,"drivers":[],"weather_through":null,"model_version":"pnw-pilot-t1-calendar-e2c272b7acfa"}},{"type":"Feature","id":"466_-1212","geometry":{"type":"Polygon","coordinates":[[[-121.25,46.55],[-121.15,46.55],[-121.15,46.65],[-121.25,46.65],[-121.25,46.55]]]},"properties":{"group":"cantharellus","week":"2026-10-05","chance":0.0376,"uncertainty_low":null,"uncertainty_high":null,"applicable":true,"drivers":[],"weather_through":null,"model_version":"pnw-pilot-t1-calendar-e2c272b7acfa"}},{"type":"Feature","id":"466_-1211","geometry":{"type":"Polygon","coordinates":[[[-121.15,46.55],[-121.05,46.55],[-121.05,46.65],[-121.15,46.65],[-121.15,46.55]]]},"properties":{"group":"cantharellus","week":"2026-10-05","chance":0.04,"uncertainty_low":null,"uncertainty_high":null,"applicable":true,"drivers":[],"weather_through":null,"model_version":"pnw-pilot-t1-calendar-e2c272b7acfa"}},{"type":"Feature","id":"467_-1220","geometry":{"type":"Polygon","coordinates":[[[-122.05,46.65],[-121.95,46.65],[-121.95,46.75],[-122.05,46.75],[-122.05,46.65]]]},"properties":{"group":"cantharellus","week":"2026-10-05","chance":0.0846,"uncertainty_low":null,"uncertainty_high":null,"applicable":true,"drivers":[],"weather_through":null,"model_version":"pnw-pilot-t1-calendar-e2c272b7acfa"}},{"type":"Feature","id":"467_-1219","geometry":{"type":"Polygon","coordinates":[[[-121.95,46.65],[-121.85,46.65],[-121.85,46.75],[-121.95,46.75],[-121.95,46.65]]]},"properties":{"group":"cantharellus","week":"2026-10-05","chance":0.0881,"uncertainty_low":null,"uncertainty_high":null,"applicable":true,"drivers":[],"weather_through":null,"model_version":"pnw-pilot-t1-calendar-e2c272b7acfa"}},{"type":"Feature","id":"467_-1218","geometry":{"type":"Polygon","coordinates":[[[-121.85,46.65],[-121.75,46.65],[-121.75,46.75],[-121.85,46.75],[-121.85,46.65]]]},"properties":{"group":"cantharellus","week":"2026-10-05","chance":0.078,"uncertainty_low":null,"uncertainty_high":null,"applicable":true,"drivers":[],"weather_through":null,"model_version":"pnw-pilot-t1-calendar-e2c272b7acfa"}},{"type":"Feature","id":"467_-1217","geometry":{"type":"Polygon","coordinates":[[[-121.75,46.65],[-121.65,46.65],[-121.65,46.75],[-121.75,46.75],[-121.75,46.65]]]},"properties":{"group":"cantharellus","week":"2026-10-05","chance":0.078,"uncertainty_low":null,"uncertainty_high":null,"applicable":true,"drivers":[],"weather_through":null,"model_version":"pnw-pilot-t1-calendar-e2c272b7acfa"}},{"type":"Feature","id":"467_-1216","geometry":{"type":"Polygon","coordinates":[[[-121.65,46.65],[-121.55,46.65],[-121.55,46.75],[-121.65,46.75],[-121.65,46.65]]]},"properties":{"group":"cantharellus","week":"2026-10-05","chance":0.0908,"uncertainty_low":null,"uncertainty_high":null,"applicable":true,"drivers":[],"weather_through":null,"model_version":"pnw-pilot-t1-calendar-e2c272b7acfa"}},{"type":"Feature","id":"467_-1215","geometry":{"type":"Polygon","coordinates":[[[-121.55,46.65],[-121.45,46.65],[-121.45,46.75],[-121.55,46.75],[-121.55,46.65]]]},"properties":{"group":"cantharellus","week":"2026-10-05","chance":0.0475,"uncertainty_low":null,"uncertainty_high":null,"applicable":true,"drivers":[],"weather_through":null,"model_version":"pnw-pilot-t1-calendar-e2c272b7acfa"}},{"type":"Feature","id":"467_-1214","geometry":{"type":"Polygon","coordinates":[[[-121.45,46.65],[-121.35,46.65],[-121.35,46.75],[-121.45,46.75],[-121.45,46.65]]]},"properties":{"group":"cantharellus","week":"2026-10-05","chance":0.0435,"uncertainty_low":null,"uncertainty_high":null,"applicable":true,"drivers":[],"weather_through":null,"model_version":"pnw-pilot-t1-calendar-e2c272b7acfa"}},{"type":"Feature","id":"467_-1213","geometry":{"type":"Polygon","coordinates":[[[-121.35,46.65],[-121.25,46.65],[-121.25,46.75],[-121.35,46.75],[-121.35,46.65]]]},"properties":{"group":"cantharellus","week":"2026-10-05","chance":0.0435,"uncertainty_low":null,"uncertainty_high":null,"applicable":true,"drivers":[],"weather_through":null,"model_version":"pnw-pilot-t1-calendar-e2c272b7acfa"}},{"type":"Feature","id":"467_-1212","geometry":{"type":"Polygon","coordinates":[[[-121.25,46.65],[-121.15,46.65],[-121.15,46.75],[-121.25,46.75],[-121.25,46.65]]]},"properties":{"group":"cantharellus","week":"2026-10-05","chance":0.0435,"uncertainty_low":null,"uncertainty_high":null,"applicable":true,"drivers":[],"weather_through":null,"model_version":"pnw-pilot-t1-calendar-e2c272b7acfa"}},{"type":"Feature","id":"467_-1211","geometry":{"type":"Polygon","coordinates":[[[-121.15,46.65],[-121.05,46.65],[-121.05,46.75],[-121.15,46.75],[-121.15,46.65]]]},"properties":{"group":"cantharellus","week":"2026-10-05","chance":0.0462,"uncertainty_low":null,"uncertainty_high":null,"applicable":true,"drivers":[],"weather_through":null,"model_version":"pnw-pilot-t1-calendar-e2c272b7acfa"}},{"type":"Feature","id":"468_-1220","geometry":{"type":"Polygon","coordinates":[[[-122.05,46.75],[-121.95,46.75],[-121.95,46.85],[-122.05,46.85],[-122.05,46.75]]]},"properties":{"group":"cantharellus","week":"2026-10-05","chance":0.0569,"uncertainty_low":null,"uncertainty_high":null,"applicable":true,"drivers":[],"weather_through":null,"model_version":"pnw-pilot-t1-calendar-e2c272b7acfa"}},{"type":"Feature","id":"468_-1219","geometry":{"type":"Polygon","coordinates":[[[-121.95,46.75],[-121.85,46.75],[-121.85,46.85],[-121.95,46.85],[-121.95,46.75]]]},"properties":{"group":"cantharellus","week":"2026-10-05","chance":0.0602,"uncertainty_low":null,"uncertainty_high":null,"applicable":true,"drivers":[],"weather_through":null,"model_version":"pnw-pilot-t1-calendar-e2c272b7acfa"}},{"type":"Feature","id":"468_-1218","geometry":{"type":"Polygon","coordinates":[[[-121.85,46.75],[-121.75,46.75],[-121.75,46.85],[-121.85,46.85],[-121.85,46.75]]]},"properties":{"group":"cantharellus","week":"2026-10-05","chance":0.0469,"uncertainty_low":null,"uncertainty_high":null,"applicable":true,"drivers":[],"weather_through":null,"model_version":"pnw-pilot-t1-calendar-e2c272b7acfa"}},{"type":"Feature","id":"468_-1217","geometry":{"type":"Polygon","coordinates":[[[-121.75,46.75],[-121.65,46.75],[-121.65,46.85],[-121.75,46.85],[-121.75,46.75]]]},"properties":{"group":"cantharellus","week":"2026-10-05","chance":0.0469,"uncertainty_low":null,"uncertainty_high":null,"applicable":true,"drivers":[],"weather_through":null,"model_version":"pnw-pilot-t1-calendar-e2c272b7acfa"}},{"type":"Feature","id":"468_-1216","geometry":{"type":"Polygon","coordinates":[[[-121.65,46.75],[-121.55,46.75],[-121.55,46.85],[-121.65,46.85],[-121.65,46.75]]]},"properties":{"group":"cantharellus","week":"2026-10-05","chance":0.0579,"uncertainty_low":null,"uncertainty_high":null,"applicable":true,"drivers":[],"weather_through":null,"model_version":"pnw-pilot-t1-calendar-e2c272b7acfa"}},{"type":"Feature","id":"468_-1215","geometry":{"type":"Polygon","coordinates":[[[-121.55,46.75],[-121.45,46.75],[-121.45,46.85],[-121.55,46.85],[-121.55,46.75]]]},"properties":{"group":"cantharellus","week":"2026-10-05","chance":0.0304,"uncertainty_low":null,"uncertainty_high":null,"applicable":true,"drivers":[],"weather_through":null,"model_version":"pnw-pilot-t1-calendar-e2c272b7acfa"}},{"type":"Feature","id":"468_-1214","geometry":{"type":"Polygon","coordinates":[[[-121.45,46.75],[-121.35,46.75],[-121.35,46.85],[-121.45,46.85],[-121.45,46.75]]]},"properties":{"group":"cantharellus","week":"2026-10-05","chance":0.0278,"uncertainty_low":null,"uncertainty_high":null,"applicable":true,"drivers":[],"weather_through":null,"model_version":"pnw-pilot-t1-calendar-e2c272b7acfa"}},{"type":"Feature","id":"468_-1213","geometry":{"type":"Polygon","coordinates":[[[-121.35,46.75],[-121.25,46.75],[-121.25,46.85],[-121.35,46.85],[-121.35,46.75]]]},"properties":{"group":"cantharellus","week":"2026-10-05","chance":0.0278,"uncertainty_low":null,"uncertainty_high":null,"applicable":true,"drivers":[],"weather_through":null,"model_version":"pnw-pilot-t1-calendar-e2c272b7acfa"}},{"type":"Feature","id":"468_-1212","geometry":{"type":"Polygon","coordinates":[[[-121.25,46.75],[-121.15,46.75],[-121.15,46.85],[-121.25,46.85],[-121.25,46.75]]]},"properties":{"group":"cantharellus","week":"2026-10-05","chance":0.0278,"uncertainty_low":null,"uncertainty_high":null,"applicable":true,"drivers":[],"weather_through":null,"model_version":"pnw-pilot-t1-calendar-e2c272b7acfa"}},{"type":"Feature","id":"468_-1211","geometry":{"type":"Polygon","coordinates":[[[-121.15,46.75],[-121.05,46.75],[-121.05,46.85],[-121.15,46.85],[-121.15,46.75]]]},"properties":{"group":"cantharellus","week":"2026-10-05","chance":0.0295,"uncertainty_low":null,"uncertainty_high":null,"applicable":true,"drivers":[],"weather_through":null,"model_version":"pnw-pilot-t1-calendar-e2c272b7acfa"}},{"type":"Feature","id":"469_-1220","geometry":{"type":"Polygon","coordinates":[[[-122.05,46.85],[-121.95,46.85],[-121.95,46.95],[-122.05,46.95],[-122.05,46.85]]]},"properties":{"group":"cantharellus","week":"2026-10-05","chance":0.0373,"uncertainty_low":null,"uncertainty_high":null,"applicable":true,"drivers":[],"weather_through":null,"model_version":"pnw-pilot-t1-calendar-e2c272b7acfa"}},{"type":"Feature","id":"469_-1219","geometry":{"type":"Polygon","coordinates":[[[-121.95,46.85],[-121.85,46.85],[-121.85,46.95],[-121.95,46.95],[-121.95,46.85]]]},"properties":{"group":"cantharellus","week":"2026-10-05","chance":0.0446,"uncertainty_low":null,"uncertainty_high":null,"applicable":true,"drivers":[],"weather_through":null,"model_version":"pnw-pilot-t1-calendar-e2c272b7acfa"}},{"type":"Feature","id":"469_-1218","geometry":{"type":"Polygon","coordinates":[[[-121.85,46.85],[-121.75,46.85],[-121.75,46.95],[-121.85,46.95],[-121.85,46.85]]]},"properties":{"group":"cantharellus","week":"2026-10-05","chance":0.0346,"uncertainty_low":null,"uncertainty_high":null,"applicable":true,"drivers":[],"weather_through":null,"model_version":"pnw-pilot-t1-calendar-e2c272b7acfa"}},{"type":"Feature","id":"469_-1217","geometry":{"type":"Polygon","coordinates":[[[-121.75,46.85],[-121.65,46.85],[-121.65,46.95],[-121.75,46.95],[-121.75,46.85]]]},"properties":{"group":"cantharellus","week":"2026-10-05","chance":0.0346,"uncertainty_low":null,"uncertainty_high":null,"applicable":true,"drivers":[],"weather_through":null,"model_version":"pnw-pilot-t1-calendar-e2c272b7acfa"}},{"type":"Feature","id":"469_-1216","geometry":{"type":"Polygon","coordinates":[[[-121.65,46.85],[-121.55,46.85],[-121.55,46.95],[-121.65,46.95],[-121.65,46.85]]]},"properties":{"group":"cantharellus","week":"2026-10-05","chance":0.0428,"uncertainty_low":null,"uncertainty_high":null,"applicable":true,"drivers":[],"weather_through":null,"model_version":"pnw-pilot-t1-calendar-e2c272b7acfa"}},{"type":"Feature","id":"469_-1215","geometry":{"type":"Polygon","coordinates":[[[-121.55,46.85],[-121.45,46.85],[-121.45,46.95],[-121.55,46.95],[-121.55,46.85]]]},"properties":{"group":"cantharellus","week":"2026-10-05","chance":0.0265,"uncertainty_low":null,"uncertainty_high":null,"applicable":true,"drivers":[],"weather_through":null,"model_version":"pnw-pilot-t1-calendar-e2c272b7acfa"}},{"type":"Feature","id":"469_-1214","geometry":{"type":"Polygon","coordinates":[[[-121.45,46.85],[-121.35,46.85],[-121.35,46.95],[-121.45,46.95],[-121.45,46.85]]]},"properties":{"group":"cantharellus","week":"2026-10-05","chance":0.025,"uncertainty_low":null,"uncertainty_high":null,"applicable":true,"drivers":[],"weather_through":null,"model_version":"pnw-pilot-t1-calendar-e2c272b7acfa"}},{"type":"Feature","id":"469_-1213","geometry":{"type":"Polygon","coordinates":[[[-121.35,46.85],[-121.25,46.85],[-121.25,46.95],[-121.35,46.95],[-121.35,46.85]]]},"properties":{"group":"cantharellus","week":"2026-10-05","chance":0.025,"uncertainty_low":null,"uncertainty_high":null,"applicable":true,"drivers":[],"weather_through":null,"model_version":"pnw-pilot-t1-calendar-e2c272b7acfa"}},{"type":"Feature","id":"469_-1212","geometry":{"type":"Polygon","coordinates":[[[-121.25,46.85],[-121.15,46.85],[-121.15,46.95],[-121.25,46.95],[-121.25,46.85]]]},"properties":{"group":"cantharellus","week":"2026-10-05","chance":0.025,"uncertainty_low":null,"uncertainty_high":null,"applicable":true,"drivers":[],"weather_through":null,"model_version":"pnw-pilot-t1-calendar-e2c272b7acfa"}},{"type":"Feature","id":"469_-1211","geometry":{"type":"Polygon","coordinates":[[[-121.15,46.85],[-121.05,46.85],[-121.05,46.95],[-121.15,46.95],[-121.15,46.85]]]},"properties":{"group":"cantharellus","week":"2026-10-05","chance":0.0266,"uncertainty_low":null,"uncertainty_high":null,"applicable":true,"drivers":[],"weather_through":null,"model_version":"pnw-pilot-t1-calendar-e2c272b7acfa"}}]}