{"type":"FeatureCollection","features":[{"type":"Feature","id":"460_-1230","geometry":{"type":"Polygon","coordinates":[[[-123.05,45.95],[-122.95,45.95],[-122.95,46.05],[-123.05,46.05],[-123.05,45.95]]]},"properties":{"group":"cantharellus","week":"2026-10-05","chance":0.0299,"uncertainty_low":null,"uncertainty_high":null,"applicable":true,"drivers":[],"weather_through":null,"model_version":"pnw-pilot-t1-calendar-e2c272b7acfa"}},{"type":"Feature","id":"460_-1229","geometry":{"type":"Polygon","coordinates":[[[-122.95,45.95],[-122.85,45.95],[-122.85,46.05],[-122.95,46.05],[-122.95,45.95]]]},"properties":{"group":"cantharellus","week":"2026-10-05","chance":0.0269,"uncertainty_low":null,"uncertainty_high":null,"applicable":true,"drivers":[],"weather_through":null,"model_version":"pnw-pilot-t1-calendar-e2c272b7acfa"}},{"type":"Feature","id":"460_-1228","geometry":{"type":"Polygon","coordinates":[[[-122.85,45.95],[-122.75,45.95],[-122.75,46.05],[-122.85,46.05],[-122.85,45.95]]]},"properties":{"group":"cantharellus","week":"2026-10-05","chance":0.0213,"uncertainty_low":null,"uncertainty_high":null,"applicable":true,"drivers":[],"weather_through":null,"model_version":"pnw-pilot-t1-calendar-e2c272b7acfa"}},{"type":"Feature","id":"460_-1227","geometry":{"type":"Polygon","coordinates":[[[-122.75,45.95],[-122.65,45.95],[-122.65,46.05],[-122.75,46.05],[-122.75,45.95]]]},"properties":{"group":"cantharellus","week":"2026-10-05","chance":0.0221,"uncertainty_low":null,"uncertainty_high":null,"applicable":true,"drivers":[],"weather_through":null,"model_version":"pnw-pilot-t1-calendar-e2c272b7acfa"}},{"type":"Feature","id":"460_-1226","geometry":{"type":"Polygon","coordinates":[[[-122.65,45.95],[-122.55,45.95],[-122.55,46.05],[-122.65,46.05],[-122.65,45.95]]]},"properties":{"group":"cantharellus","week":"2026-10-05","chance":0.0221,"uncertainty_low":null,"uncertainty_high":null,"applicable":true,"drivers":[],"weather_through":null,"model_version":"pnw-pilot-t1-calendar-e2c272b7acfa"}},{"type":"Feature","id":"460_-1225","geometry":{"type":"Polygon","coordinates":[[[-122.55,45.95],[-122.45,45.95],[-122.45,46.05],[-122.55,46.05],[-122.55,45.95]]]},"properties":{"group":"cantharellus","week":"2026-10-05","chance":0.0239,"uncertainty_low":null,"uncertainty_high":null,"applicable":true,"drivers":[],"weather_through":null,"model_version":"pnw-pilot-t1-calendar-e2c272b7acfa"}},{"type":"Feature","id":"460_-1224","geometry":{"type":"Polygon","coordinates":[[[-122.45,45.95],[-122.35,45.95],[-122.35,46.05],[-122.45,46.05],[-122.45,45.95]]]},"properties":{"group":"cantharellus","week":"2026-10-05","chance":0.0239,"uncertainty_low":null,"uncertainty_high":null,"applicable":true,"drivers":[],"weather_through":null,"model_version":"pnw-pilot-t1-calendar-e2c272b7acfa"}},{"type":"Feature","id":"460_-1223","geometry":{"type":"Polygon","coordinates":[[[-122.35,45.95],[-122.25,45.95],[-122.25,46.05],[-122.35,46.05],[-122.35,45.95]]]},"properties":{"group":"cantharellus","week":"2026-10-05","chance":0.059,"uncertainty_low":null,"uncertainty_high":null,"applicable":true,"drivers":[],"weather_through":null,"model_version":"pnw-pilot-t1-calendar-e2c272b7acfa"}},{"type":"Feature","id":"460_-1222","geometry":{"type":"Polygon","coordinates":[[[-122.25,45.95],[-122.15,45.95],[-122.15,46.05],[-122.25,46.05],[-122.25,45.95]]]},"properties":{"group":"cantharellus","week":"2026-10-05","chance":0.0613,"uncertainty_low":null,"uncertainty_high":null,"applicable":true,"drivers":[],"weather_through":null,"model_version":"pnw-pilot-t1-calendar-e2c272b7acfa"}},{"type":"Feature","id":"460_-1221","geometry":{"type":"Polygon","coordinates":[[[-122.15,45.95],[-122.05,45.95],[-122.05,46.05],[-122.15,46.05],[-122.15,45.95]]]},"properties":{"group":"cantharellus","week":"2026-10-05","chance":0.0696,"uncertainty_low":null,"uncertainty_high":null,"applicable":true,"drivers":[],"weather_through":null,"model_version":"pnw-pilot-t1-calendar-e2c272b7acfa"}},{"type":"Feature","id":"461_-1230","geometry":{"type":"Polygon","coordinates":[[[-123.05,46.05],[-122.95,46.05],[-122.95,46.15],[-123.05,46.15],[-123.05,46.05]]]},"properties":{"group":"cantharellus","week":"2026-10-05","chance":0.0297,"uncertainty_low":null,"uncertainty_high":null,"applicable":true,"drivers":[],"weather_through":null,"model_version":"pnw-pilot-t1-calendar-e2c272b7acfa"}},{"type":"Feature","id":"461_-1229","geometry":{"type":"Polygon","coordinates":[[[-122.95,46.05],[-122.85,46.05],[-122.85,46.15],[-122.95,46.15],[-122.95,46.05]]]},"properties":{"group":"cantharellus","week":"2026-10-05","chance":0.0267,"uncertainty_low":null,"uncertainty_high":null,"applicable":true,"drivers":[],"weather_through":null,"model_version":"pnw-pilot-t1-calendar-e2c272b7acfa"}},{"type":"Feature","id":"461_-1228","geometry":{"type":"Polygon","coordinates":[[[-122.85,46.05],[-122.75,46.05],[-122.75,46.15],[-122.85,46.15],[-122.85,46.05]]]},"properties":{"group":"cantharellus","week":"2026-10-05","chance":0.0211,"uncertainty_low":null,"uncertainty_high":null,"applicable":true,"drivers":[],"weather_through":null,"model_version":"pnw-pilot-t1-calendar-e2c272b7acfa"}},{"type":"Feature","id":"461_-1227","geometry":{"type":"Polygon","coordinates":[[[-122.75,46.05],[-122.65,46.05],[-122.65,46.15],[-122.75,46.15],[-122.75,46.05]]]},"properties":{"group":"cantharellus","week":"2026-10-05","chance":0.0215,"uncertainty_low":null,"uncertainty_high":null,"applicable":true,"drivers":[],"weather_through":null,"model_version":"pnw-pilot-t1-calendar-e2c272b7acfa"}},{"type":"Feature","id":"461_-1226","geometry":{"type":"Polygon","coordinates":[[[-122.65,46.05],[-122.55,46.05],[-122.55,46.15],[-122.65,46.15],[-122.65,46.05]]]},"properties":{"group":"cantharellus","week":"2026-10-05","chance":0.0215,"uncertainty_low":null,"uncertainty_high":null,"applicable":true,"drivers":[],"weather_through":null,"model_version":"pnw-pilot-t1-calendar-e2c272b7acfa"}},{"type":"Feature","id":"461_-1225","geometry":{"type":"Polygon","coordinates":[[[-122.55,46.05],[-122.45,46.05],[-122.45,46.15],[-122.55,46.15],[-122.55,46.05]]]},"properties":{"group":"cantharellus","week":"2026-10-05","chance":0.0233,"uncertainty_low":null,"uncertainty_high":null,"applicable":true,"drivers":[],"weather_through":null,"model_version":"pnw-pilot-t1-calendar-e2c272b7acfa"}},{"type":"Feature","id":"461_-1224","geometry":{"type":"Polygon","coordinates":[[[-122.45,46.05],[-122.35,46.05],[-122.35,46.15],[-122.45,46.15],[-122.45,46.05]]]},"properties":{"group":"cantharellus","week":"2026-10-05","chance":0.0233,"uncertainty_low":null,"uncertainty_high":null,"applicable":true,"drivers":[],"weather_through":null,"model_version":"pnw-pilot-t1-calendar-e2c272b7acfa"}},{"type":"Feature","id":"461_-1223","geometry":{"type":"Polygon","coordinates":[[[-122.35,46.05],[-122.25,46.05],[-122.25,46.15],[-122.35,46.15],[-122.35,46.05]]]},"properties":{"group":"cantharellus","week":"2026-10-05","chance":0.0561,"uncertainty_low":null,"uncertainty_high":null,"applicable":true,"drivers":[],"weather_through":null,"model_version":"pnw-pilot-t1-calendar-e2c272b7acfa"}},{"type":"Feature","id":"461_-1222","geometry":{"type":"Polygon","coordinates":[[[-122.25,46.05],[-122.15,46.05],[-122.15,46.15],[-122.25,46.15],[-122.25,46.05]]]},"properties":{"group":"cantharellus","week":"2026-10-05","chance":0.0583,"uncertainty_low":null,"uncertainty_high":null,"applicable":true,"drivers":[],"weather_through":null,"model_version":"pnw-pilot-t1-calendar-e2c272b7acfa"}},{"type":"Feature","id":"461_-1221","geometry":{"type":"Polygon","coordinates":[[[-122.15,46.05],[-122.05,46.05],[-122.05,46.15],[-122.15,46.15],[-122.15,46.05]]]},"properties":{"group":"cantharellus","week":"2026-10-05","chance":0.0662,"uncertainty_low":null,"uncertainty_high":null,"applicable":true,"drivers":[],"weather_through":null,"model_version":"pnw-pilot-t1-calendar-e2c272b7acfa"}},{"type":"Feature","id":"462_-1230","geometry":{"type":"Polygon","coordinates":[[[-123.05,46.15],[-122.95,46.15],[-122.95,46.25],[-123.05,46.25],[-123.05,46.15]]]},"properties":{"group":"cantharellus","week":"2026-10-05","chance":0.0297,"uncertainty_low":null,"uncertainty_high":null,"applicable":true,"drivers":[],"weather_through":null,"model_version":"pnw-pilot-t1-calendar-e2c272b7acfa"}},{"type":"Feature","id":"462_-1229","geometry":{"type":"Polygon","coordinates":[[[-122.95,46.15],[-122.85,46.15],[-122.85,46.25],[-122.95,46.25],[-122.95,46.15]]]},"properties":{"group":"cantharellus","week":"2026-10-05","chance":0.0267,"uncertainty_low":null,"uncertainty_high":null,"applicable":true,"drivers":[],"weather_through":null,"model_version":"pnw-pilot-t1-calendar-e2c272b7acfa"}},{"type":"Feature","id":"462_-1228","geometry":{"type":"Polygon","coordinates":[[[-122.85,46.15],[-122.75,46.15],[-122.75,46.25],[-122.85,46.25],[-122.85,46.15]]]},"properties":{"group":"cantharellus","week":"2026-10-05","chance":0.0211,"uncertainty_low":null,"uncertainty_high":null,"applicable":true,"drivers":[],"weather_through":null,"model_version":"pnw-pilot-t1-calendar-e2c272b7acfa"}},{"type":"Feature","id":"462_-1227","geometry":{"type":"Polygon","coordinates":[[[-122.75,46.15],[-122.65,46.15],[-122.65,46.25],[-122.75,46.25],[-122.75,46.15]]]},"properties":{"group":"cantharellus","week":"2026-10-05","chance":0.0215,"uncertainty_low":null,"uncertainty_high":null,"applicable":true,"drivers":[],"weather_through":null,"model_version":"pnw-pilot-t1-calendar-e2c272b7acfa"}},{"type":"Feature","id":"462_-1226","geometry":{"type":"Polygon","coordinates":[[[-122.65,46.15],[-122.55,46.15],[-122.55,46.25],[-122.65,46.25],[-122.65,46.15]]]},"properties":{"group":"cantharellus","week":"2026-10-05","chance":0.0215,"uncertainty_low":null,"uncertainty_high":null,"applicable":true,"drivers":[],"weather_through":null,"model_version":"pnw-pilot-t1-calendar-e2c272b7acfa"}},{"type":"Feature","id":"462_-1225","geometry":{"type":"Polygon","coordinates":[[[-122.55,46.15],[-122.45,46.15],[-122.45,46.25],[-122.55,46.25],[-122.55,46.15]]]},"properties":{"group":"cantharellus","week":"2026-10-05","chance":0.0233,"uncertainty_low":null,"uncertainty_high":null,"applicable":true,"drivers":[],"weather_through":null,"model_version":"pnw-pilot-t1-calendar-e2c272b7acfa"}},{"type":"Feature","id":"462_-1224","geometry":{"type":"Polygon","coordinates":[[[-122.45,46.15],[-122.35,46.15],[-122.35,46.25],[-122.45,46.25],[-122.45,46.15]]]},"properties":{"group":"cantharellus","week":"2026-10-05","chance":0.0233,"uncertainty_low":null,"uncertainty_high":null,"applicable":true,"drivers":[],"weather_through":null,"model_version":"pnw-pilot-t1-calendar-e2c272b7acfa"}},{"type":"Feature","id":"462_-1223","geometry":{"type":"Polygon","coordinates":[[[-122.35,46.15],[-122.25,46.15],[-122.25,46.25],[-122.35,46.25],[-122.35,46.15]]]},"properties":{"group":"cantharellus","week":"2026-10-05","chance":0.0561,"uncertainty_low":null,"uncertainty_high":null,"applicable":true,"drivers":[],"weather_through":null,"model_version":"pnw-pilot-t1-calendar-e2c272b7acfa"}},{"type":"Feature","id":"462_-1222","geometry":{"type":"Polygon","coordinates":[[[-122.25,46.15],[-122.15,46.15],[-122.15,46.25],[-122.25,46.25],[-122.25,46.15]]]},"properties":{"group":"cantharellus","week":"2026-10-05","chance":0.0583,"uncertainty_low":null,"uncertainty_high":null,"applicable":true,"drivers":[],"weather_through":null,"model_version":"pnw-pilot-t1-calendar-e2c272b7acfa"}},{"type":"Feature","id":"462_-1221","geometry":{"type":"Polygon","coordinates":[[[-122.15,46.15],[-122.05,46.15],[-122.05,46.25],[-122.15,46.25],[-122.15,46.15]]]},"properties":{"group":"cantharellus","week":"2026-10-05","chance":0.0662,"uncertainty_low":null,"uncertainty_high":null,"applicable":true,"drivers":[],"weather_through":null,"model_version":"pnw-pilot-t1-calendar-e2c272b7acfa"}},{"type":"Feature","id":"463_-1230","geometry":{"type":"Polygon","coordinates":[[[-123.05,46.25],[-122.95,46.25],[-122.95,46.35],[-123.05,46.35],[-123.05,46.25]]]},"properties":{"group":"cantharellus","week":"2026-10-05","chance":0.031,"uncertainty_low":null,"uncertainty_high":null,"applicable":true,"drivers":[],"weather_through":null,"model_version":"pnw-pilot-t1-calendar-e2c272b7acfa"}},{"type":"Feature","id":"463_-1229","geometry":{"type":"Polygon","coordinates":[[[-122.95,46.25],[-122.85,46.25],[-122.85,46.35],[-122.95,46.35],[-122.95,46.25]]]},"properties":{"group":"cantharellus","week":"2026-10-05","chance":0.0279,"uncertainty_low":null,"uncertainty_high":null,"applicable":true,"drivers":[],"weather_through":null,"model_version":"pnw-pilot-t1-calendar-e2c272b7acfa"}},{"type":"Feature","id":"463_-1228","geometry":{"type":"Polygon","coordinates":[[[-122.85,46.25],[-122.75,46.25],[-122.75,46.35],[-122.85,46.35],[-122.85,46.25]]]},"properties":{"group":"cantharellus","week":"2026-10-05","chance":0.0225,"uncertainty_low":null,"uncertainty_high":null,"applicable":true,"drivers":[],"weather_through":null,"model_version":"pnw-pilot-t1-calendar-e2c272b7acfa"}},{"type":"Feature","id":"463_-1227","geometry":{"type":"Polygon","coordinates":[[[-122.75,46.25],[-122.65,46.25],[-122.65,46.35],[-122.75,46.35],[-122.75,46.25]]]},"properties":{"group":"cantharellus","week":"2026-10-05","chance":0.0229,"uncertainty_low":null,"uncertainty_high":null,"applicable":true,"drivers":[],"weather_through":null,"model_version":"pnw-pilot-t1-calendar-e2c272b7acfa"}},{"type":"Feature","id":"463_-1226","geometry":{"type":"Polygon","coordinates":[[[-122.65,46.25],[-122.55,46.25],[-122.55,46.35],[-122.65,46.35],[-122.65,46.25]]]},"properties":{"group":"cantharellus","week":"2026-10-05","chance":0.0229,"uncertainty_low":null,"uncertainty_high":null,"applicable":true,"drivers":[],"weather_through":null,"model_version":"pnw-pilot-t1-calendar-e2c272b7acfa"}},{"type":"Feature","id":"463_-1225","geometry":{"type":"Polygon","coordinates":[[[-122.55,46.25],[-122.45,46.25],[-122.45,46.35],[-122.55,46.35],[-122.55,46.25]]]},"properties":{"group":"cantharellus","week":"2026-10-05","chance":0.0236,"uncertainty_low":null,"uncertainty_high":null,"applicable":true,"drivers":[],"weather_through":null,"model_version":"pnw-pilot-t1-calendar-e2c272b7acfa"}},{"type":"Feature","id":"463_-1224","geometry":{"type":"Polygon","coordinates":[[[-122.45,46.25],[-122.35,46.25],[-122.35,46.35],[-122.45,46.35],[-122.45,46.25]]]},"properties":{"group":"cantharellus","week":"2026-10-05","chance":0.0236,"uncertainty_low":null,"uncertainty_high":null,"applicable":true,"drivers":[],"weather_through":null,"model_version":"pnw-pilot-t1-calendar-e2c272b7acfa"}},{"type":"Feature","id":"463_-1223","geometry":{"type":"Polygon","coordinates":[[[-122.35,46.25],[-122.25,46.25],[-122.25,46.35],[-122.35,46.35],[-122.35,46.25]]]},"properties":{"group":"cantharellus","week":"2026-10-05","chance":0.0568,"uncertainty_low":null,"uncertainty_high":null,"applicable":true,"drivers":[],"weather_through":null,"model_version":"pnw-pilot-t1-calendar-e2c272b7acfa"}},{"type":"Feature","id":"463_-1222","geometry":{"type":"Polygon","coordinates":[[[-122.25,46.25],[-122.15,46.25],[-122.15,46.35],[-122.25,46.35],[-122.25,46.25]]]},"properties":{"group":"cantharellus","week":"2026-10-05","chance":0.0568,"uncertainty_low":null,"uncertainty_high":null,"applicable":true,"drivers":[],"weather_through":null,"model_version":"pnw-pilot-t1-calendar-e2c272b7acfa"}},{"type":"Feature","id":"463_-1221","geometry":{"type":"Polygon","coordinates":[[[-122.15,46.25],[-122.05,46.25],[-122.05,46.35],[-122.15,46.35],[-122.15,46.25]]]},"properties":{"group":"cantharellus","week":"2026-10-05","chance":0.0645,"uncertainty_low":null,"uncertainty_high":null,"applicable":true,"drivers":[],"weather_through":null,"model_version":"pnw-pilot-t1-calendar-e2c272b7acfa"}},{"type":"Feature","id":"464_-1230","geometry":{"type":"Polygon","coordinates":[[[-123.05,46.35],[-122.95,46.35],[-122.95,46.45],[-123.05,46.45],[-123.05,46.35]]]},"properties":{"group":"cantharellus","week":"2026-10-05","chance":0.031,"uncertainty_low":null,"uncertainty_high":null,"applicable":true,"drivers":[],"weather_through":null,"model_version":"pnw-pilot-t1-calendar-e2c272b7acfa"}},{"type":"Feature","id":"464_-1229","geometry":{"type":"Polygon","coordinates":[[[-122.95,46.35],[-122.85,46.35],[-122.85,46.45],[-122.95,46.45],[-122.95,46.35]]]},"properties":{"group":"cantharellus","week":"2026-10-05","chance":0.0279,"uncertainty_low":null,"uncertainty_high":null,"applicable":true,"drivers":[],"weather_through":null,"model_version":"pnw-pilot-t1-calendar-e2c272b7acfa"}},{"type":"Feature","id":"464_-1228","geometry":{"type":"Polygon","coordinates":[[[-122.85,46.35],[-122.75,46.35],[-122.75,46.45],[-122.85,46.45],[-122.85,46.35]]]},"properties":{"group":"cantharellus","week":"2026-10-05","chance":0.0225,"uncertainty_low":null,"uncertainty_high":null,"applicable":true,"drivers":[],"weather_through":null,"model_version":"pnw-pilot-t1-calendar-e2c272b7acfa"}},{"type":"Feature","id":"464_-1227","geometry":{"type":"Polygon","coordinates":[[[-122.75,46.35],[-122.65,46.35],[-122.65,46.45],[-122.75,46.45],[-122.75,46.35]]]},"properties":{"group":"cantharellus","week":"2026-10-05","chance":0.0229,"uncertainty_low":null,"uncertainty_high":null,"applicable":true,"drivers":[],"weather_through":null,"model_version":"pnw-pilot-t1-calendar-e2c272b7acfa"}},{"type":"Feature","id":"464_-1226","geometry":{"type":"Polygon","coordinates":[[[-122.65,46.35],[-122.55,46.35],[-122.55,46.45],[-122.65,46.45],[-122.65,46.35]]]},"properties":{"group":"cantharellus","week":"2026-10-05","chance":0.0229,"uncertainty_low":null,"uncertainty_high":null,"applicable":true,"drivers":[],"weather_through":null,"model_version":"pnw-pilot-t1-calendar-e2c272b7acfa"}},{"type":"Feature","id":"464_-1225","geometry":{"type":"Polygon","coordinates":[[[-122.55,46.35],[-122.45,46.35],[-122.45,46.45],[-122.55,46.45],[-122.55,46.35]]]},"properties":{"group":"cantharellus","week":"2026-10-05","chance":0.0236,"uncertainty_low":null,"uncertainty_high":null,"applicable":true,"drivers":[],"weather_through":null,"model_version":"pnw-pilot-t1-calendar-e2c272b7acfa"}},{"type":"Feature","id":"464_-1224","geometry":{"type":"Polygon","coordinates":[[[-122.45,46.35],[-122.35,46.35],[-122.35,46.45],[-122.45,46.45],[-122.45,46.35]]]},"properties":{"group":"cantharellus","week":"2026-10-05","chance":0.0236,"uncertainty_low":null,"uncertainty_high":null,"applicable":true,"drivers":[],"weather_through":null,"model_version":"pnw-pilot-t1-calendar-e2c272b7acfa"}},{"type":"Feature","id":"464_-1223","geometry":{"type":"Polygon","coordinates":[[[-122.35,46.35],[-122.25,46.35],[-122.25,46.45],[-122.35,46.45],[-122.35,46.35]]]},"properties":{"group":"cantharellus","week":"2026-10-05","chance":0.0568,"uncertainty_low":null,"uncertainty_high":null,"applicable":true,"drivers":[],"weather_through":null,"model_version":"pnw-pilot-t1-calendar-e2c272b7acfa"}},{"type":"Feature","id":"464_-1222","geometry":{"type":"Polygon","coordinates":[[[-122.25,46.35],[-122.15,46.35],[-122.15,46.45],[-122.25,46.45],[-122.25,46.35]]]},"properties":{"group":"cantharellus","week":"2026-10-05","chance":0.0568,"uncertainty_low":null,"uncertainty_high":null,"applicable":true,"drivers":[],"weather_through":null,"model_version":"pnw-pilot-t1-calendar-e2c272b7acfa"}},{"type":"Feature","id":"464_-1221","geometry":{"type":"Polygon","coordinates":[[[-122.15,46.35],[-122.05,46.35],[-122.05,46.45],[-122.15,46.45],[-122.15,46.35]]]},"properties":{"group":"cantharellus","week":"2026-10-05","chance":0.0645,"uncertainty_low":null,"uncertainty_high":null,"applicable":true,"drivers":[],"weather_through":null,"model_version":"pnw-pilot-t1-calendar-e2c272b7acfa"}},{"type":"Feature","id":"465_-1230","geometry":{"type":"Polygon","coordinates":[[[-123.05,46.45],[-122.95,46.45],[-122.95,46.55],[-123.05,46.55],[-123.05,46.45]]]},"properties":{"group":"cantharellus","week":"2026-10-05","chance":0.031,"uncertainty_low":null,"uncertainty_high":null,"applicable":true,"drivers":[],"weather_through":null,"model_version":"pnw-pilot-t1-calendar-e2c272b7acfa"}},{"type":"Feature","id":"465_-1229","geometry":{"type":"Polygon","coordinates":[[[-122.95,46.45],[-122.85,46.45],[-122.85,46.55],[-122.95,46.55],[-122.95,46.45]]]},"properties":{"group":"cantharellus","week":"2026-10-05","chance":0.0279,"uncertainty_low":null,"uncertainty_high":null,"applicable":true,"drivers":[],"weather_through":null,"model_version":"pnw-pilot-t1-calendar-e2c272b7acfa"}},{"type":"Feature","id":"465_-1228","geometry":{"type":"Polygon","coordinates":[[[-122.85,46.45],[-122.75,46.45],[-122.75,46.55],[-122.85,46.55],[-122.85,46.45]]]},"properties":{"group":"cantharellus","week":"2026-10-05","chance":0.0225,"uncertainty_low":null,"uncertainty_high":null,"applicable":true,"drivers":[],"weather_through":null,"model_version":"pnw-pilot-t1-calendar-e2c272b7acfa"}},{"type":"Feature","id":"465_-1227","geometry":{"type":"Polygon","coordinates":[[[-122.75,46.45],[-122.65,46.45],[-122.65,46.55],[-122.75,46.55],[-122.75,46.45]]]},"properties":{"group":"cantharellus","week":"2026-10-05","chance":0.0229,"uncertainty_low":null,"uncertainty_high":null,"applicable":true,"drivers":[],"weather_through":null,"model_version":"pnw-pilot-t1-calendar-e2c272b7acfa"}},{"type":"Feature","id":"465_-1226","geometry":{"type":"Polygon","coordinates":[[[-122.65,46.45],[-122.55,46.45],[-122.55,46.55],[-122.65,46.55],[-122.65,46.45]]]},"properties":{"group":"cantharellus","week":"2026-10-05","chance":0.0229,"uncertainty_low":null,"uncertainty_high":null,"applicable":true,"drivers":[],"weather_through":null,"model_version":"pnw-pilot-t1-calendar-e2c272b7acfa"}},{"type":"Feature","id":"465_-1225","geometry":{"type":"Polygon","coordinates":[[[-122.55,46.45],[-122.45,46.45],[-122.45,46.55],[-122.55,46.55],[-122.55,46.45]]]},"properties":{"group":"cantharellus","week":"2026-10-05","chance":0.0236,"uncertainty_low":null,"uncertainty_high":null,"applicable":true,"drivers":[],"weather_through":null,"model_version":"pnw-pilot-t1-calendar-e2c272b7acfa"}},{"type":"Feature","id":"465_-1224","geometry":{"type":"Polygon","coordinates":[[[-122.45,46.45],[-122.35,46.45],[-122.35,46.55],[-122.45,46.55],[-122.45,46.45]]]},"properties":{"group":"cantharellus","week":"2026-10-05","chance":0.0236,"uncertainty_low":null,"uncertainty_high":null,"applicable":true,"drivers":[],"weather_through":null,"model_version":"pnw-pilot-t1-calendar-e2c272b7acfa"}},{"type":"Feature","id":"465_-1223","geometry":{"type":"Polygon","coordinates":[[[-122.35,46.45],[-122.25,46.45],[-122.25,46.55],[-122.35,46.55],[-122.35,46.45]]]},"properties":{"group":"cantharellus","week":"2026-10-05","chance":0.0568,"uncertainty_low":null,"uncertainty_high":null,"applicable":true,"drivers":[],"weather_through":null,"model_version":"pnw-pilot-t1-calendar-e2c272b7acfa"}},{"type":"Feature","id":"465_-1222","geometry":{"type":"Polygon","coordinates":[[[-122.25,46.45],[-122.15,46.45],[-122.15,46.55],[-122.25,46.55],[-122.25,46.45]]]},"properties":{"group":"cantharellus","week":"2026-10-05","chance":0.0568,"uncertainty_low":null,"uncertainty_high":null,"applicable":true,"drivers":[],"weather_through":null,"model_version":"pnw-pilot-t1-calendar-e2c272b7acfa"}},{"type":"Feature","id":"465_-1221","geometry":{"type":"Polygon","coordinates":[[[-122.15,46.45],[-122.05,46.45],[-122.05,46.55],[-122.15,46.55],[-122.15,46.45]]]},"properties":{"group":"cantharellus","week":"2026-10-05","chance":0.0645,"uncertainty_low":null,"uncertainty_high":null,"applicable":true,"drivers":[],"weather_through":null,"model_version":"pnw-pilot-t1-calendar-e2c272b7acfa"}},{"type":"Feature","id":"466_-1230","geometry":{"type":"Polygon","coordinates":[[[-123.05,46.55],[-122.95,46.55],[-122.95,46.65],[-123.05,46.65],[-123.05,46.55]]]},"properties":{"group":"cantharellus","week":"2026-10-05","chance":0.031,"uncertainty_low":null,"uncertainty_high":null,"applicable":true,"drivers":[],"weather_through":null,"model_version":"pnw-pilot-t1-calendar-e2c272b7acfa"}},{"type":"Feature","id":"466_-1229","geometry":{"type":"Polygon","coordinates":[[[-122.95,46.55],[-122.85,46.55],[-122.85,46.65],[-122.95,46.65],[-122.95,46.55]]]},"properties":{"group":"cantharellus","week":"2026-10-05","chance":0.0279,"uncertainty_low":null,"uncertainty_high":null,"applicable":true,"drivers":[],"weather_through":null,"model_version":"pnw-pilot-t1-calendar-e2c272b7acfa"}},{"type":"Feature","id":"466_-1228","geometry":{"type":"Polygon","coordinates":[[[-122.85,46.55],[-122.75,46.55],[-122.75,46.65],[-122.85,46.65],[-122.85,46.55]]]},"properties":{"group":"cantharellus","week":"2026-10-05","chance":0.0225,"uncertainty_low":null,"uncertainty_high":null,"applicable":true,"drivers":[],"weather_through":null,"model_version":"pnw-pilot-t1-calendar-e2c272b7acfa"}},{"type":"Feature","id":"466_-1227","geometry":{"type":"Polygon","coordinates":[[[-122.75,46.55],[-122.65,46.55],[-122.65,46.65],[-122.75,46.65],[-122.75,46.55]]]},"properties":{"group":"cantharellus","week":"2026-10-05","chance":0.0229,"uncertainty_low":null,"uncertainty_high":null,"applicable":true,"drivers":[],"weather_through":null,"model_version":"pnw-pilot-t1-calendar-e2c272b7acfa"}},{"type":"Feature","id":"466_-1226","geometry":{"type":"Polygon","coordinates":[[[-122.65,46.55],[-122.55,46.55],[-122.55,46.65],[-122.65,46.65],[-122.65,46.55]]]},"properties":{"group":"cantharellus","week":"2026-10-05","chance":0.0229,"uncertainty_low":null,"uncertainty_high":null,"applicable":true,"drivers":[],"weather_through":null,"model_version":"pnw-pilot-t1-calendar-e2c272b7acfa"}},{"type":"Feature","id":"466_-1225","geometry":{"type":"Polygon","coordinates":[[[-122.55,46.55],[-122.45,46.55],[-122.45,46.65],[-122.55,46.65],[-122.55,46.55]]]},"properties":{"group":"cantharellus","week":"2026-10-05","chance":0.0236,"uncertainty_low":null,"uncertainty_high":null,"applicable":true,"drivers":[],"weather_through":null,"model_version":"pnw-pilot-t1-calendar-e2c272b7acfa"}},{"type":"Feature","id":"466_-1224","geometry":{"type":"Polygon","coordinates":[[[-122.45,46.55],[-122.35,46.55],[-122.35,46.65],[-122.45,46.65],[-122.45,46.55]]]},"properties":{"group":"cantharellus","week":"2026-10-05","chance":0.0236,"uncertainty_low":null,"uncertainty_high":null,"applicable":true,"drivers":[],"weather_through":null,"model_version":"pnw-pilot-t1-calendar-e2c272b7acfa"}},{"type":"Feature","id":"466_-1223","geometry":{"type":"Polygon","coordinates":[[[-122.35,46.55],[-122.25,46.55],[-122.25,46.65],[-122.35,46.65],[-122.35,46.55]]]},"properties":{"group":"cantharellus","week":"2026-10-05","chance":0.0568,"uncertainty_low":null,"uncertainty_high":null,"applicable":true,"drivers":[],"weather_through":null,"model_version":"pnw-pilot-t1-calendar-e2c272b7acfa"}},{"type":"Feature","id":"466_-1222","geometry":{"type":"Polygon","coordinates":[[[-122.25,46.55],[-122.15,46.55],[-122.15,46.65],[-122.25,46.65],[-122.25,46.55]]]},"properties":{"group":"cantharellus","week":"2026-10-05","chance":0.0568,"uncertainty_low":null,"uncertainty_high":null,"applicable":true,"drivers":[],"weather_through":null,"model_version":"pnw-pilot-t1-calendar-e2c272b7acfa"}},{"type":"Feature","id":"466_-1221","geometry":{"type":"Polygon","coordinates":[[[-122.15,46.55],[-122.05,46.55],[-122.05,46.65],[-122.15,46.65],[-122.15,46.55]]]},"properties":{"group":"cantharellus","week":"2026-10-05","chance":0.0645,"uncertainty_low":null,"uncertainty_high":null,"applicable":true,"drivers":[],"weather_through":null,"model_version":"pnw-pilot-t1-calendar-e2c272b7acfa"}},{"type":"Feature","id":"467_-1230","geometry":{"type":"Polygon","coordinates":[[[-123.05,46.65],[-122.95,46.65],[-122.95,46.75],[-123.05,46.75],[-123.05,46.65]]]},"properties":{"group":"cantharellus","week":"2026-10-05","chance":0.0374,"uncertainty_low":null,"uncertainty_high":null,"applicable":true,"drivers":[],"weather_through":null,"model_version":"pnw-pilot-t1-calendar-e2c272b7acfa"}},{"type":"Feature","id":"467_-1229","geometry":{"type":"Polygon","coordinates":[[[-122.95,46.65],[-122.85,46.65],[-122.85,46.75],[-122.95,46.75],[-122.95,46.65]]]},"properties":{"group":"cantharellus","week":"2026-10-05","chance":0.0336,"uncertainty_low":null,"uncertainty_high":null,"applicable":true,"drivers":[],"weather_through":null,"model_version":"pnw-pilot-t1-calendar-e2c272b7acfa"}},{"type":"Feature","id":"467_-1228","geometry":{"type":"Polygon","coordinates":[[[-122.85,46.65],[-122.75,46.65],[-122.75,46.75],[-122.85,46.75],[-122.85,46.65]]]},"properties":{"group":"cantharellus","week":"2026-10-05","chance":0.0272,"uncertainty_low":null,"uncertainty_high":null,"applicable":true,"drivers":[],"weather_through":null,"model_version":"pnw-pilot-t1-calendar-e2c272b7acfa"}},{"type":"Feature","id":"467_-1227","geometry":{"type":"Polygon","coordinates":[[[-122.75,46.65],[-122.65,46.65],[-122.65,46.75],[-122.75,46.75],[-122.75,46.65]]]},"properties":{"group":"cantharellus","week":"2026-10-05","chance":0.0277,"uncertainty_low":null,"uncertainty_high":null,"applicable":true,"drivers":[],"weather_through":null,"model_version":"pnw-pilot-t1-calendar-e2c272b7acfa"}},{"type":"Feature","id":"467_-1226","geometry":{"type":"Polygon","coordinates":[[[-122.65,46.65],[-122.55,46.65],[-122.55,46.75],[-122.65,46.75],[-122.65,46.65]]]},"properties":{"group":"cantharellus","week":"2026-10-05","chance":0.0277,"uncertainty_low":null,"uncertainty_high":null,"applicable":true,"drivers":[],"weather_through":null,"model_version":"pnw-pilot-t1-calendar-e2c272b7acfa"}},{"type":"Feature","id":"467_-1225","geometry":{"type":"Polygon","coordinates":[[[-122.55,46.65],[-122.45,46.65],[-122.45,46.75],[-122.55,46.75],[-122.55,46.65]]]},"properties":{"group":"cantharellus","week":"2026-10-05","chance":0.0256,"uncertainty_low":null,"uncertainty_high":null,"applicable":true,"drivers":[],"weather_through":null,"model_version":"pnw-pilot-t1-calendar-e2c272b7acfa"}},{"type":"Feature","id":"467_-1224","geometry":{"type":"Polygon","coordinates":[[[-122.45,46.65],[-122.35,46.65],[-122.35,46.75],[-122.45,46.75],[-122.45,46.65]]]},"properties":{"group":"cantharellus","week":"2026-10-05","chance":0.0256,"uncertainty_low":null,"uncertainty_high":null,"applicable":true,"drivers":[],"weather_through":null,"model_version":"pnw-pilot-t1-calendar-e2c272b7acfa"}},{"type":"Feature","id":"467_-1223","geometry":{"type":"Polygon","coordinates":[[[-122.35,46.65],[-122.25,46.65],[-122.25,46.75],[-122.35,46.75],[-122.35,46.65]]]},"properties":{"group":"cantharellus","week":"2026-10-05","chance":0.0592,"uncertainty_low":null,"uncertainty_high":null,"applicable":true,"drivers":[],"weather_through":null,"model_version":"pnw-pilot-t1-calendar-e2c272b7acfa"}},{"type":"Feature","id":"467_-1222","geometry":{"type":"Polygon","coordinates":[[[-122.25,46.65],[-122.15,46.65],[-122.15,46.75],[-122.25,46.75],[-122.25,46.65]]]},"properties":{"group":"cantharellus","week":"2026-10-05","chance":0.0592,"uncertainty_low":null,"uncertainty_high":null,"applicable":true,"drivers":[],"weather_through":null,"model_version":"pnw-pilot-t1-calendar-e2c272b7acfa"}},{"type":"Feature","id":"467_-1221","geometry":{"type":"Polygon","coordinates":[[[-122.15,46.65],[-122.05,46.65],[-122.05,46.75],[-122.15,46.75],[-122.15,46.65]]]},"properties":{"group":"cantharellus","week":"2026-10-05","chance":0.0673,"uncertainty_low":null,"uncertainty_high":null,"applicable":true,"drivers":[],"weather_through":null,"model_version":"pnw-pilot-t1-calendar-e2c272b7acfa"}},{"type":"Feature","id":"468_-1230","geometry":{"type":"Polygon","coordinates":[[[-123.05,46.75],[-122.95,46.75],[-122.95,46.85],[-123.05,46.85],[-123.05,46.75]]]},"properties":{"group":"cantharellus","week":"2026-10-05","chance":0.0475,"uncertainty_low":null,"uncertainty_high":null,"applicable":true,"drivers":[],"weather_through":null,"model_version":"pnw-pilot-t1-calendar-e2c272b7acfa"}},{"type":"Feature","id":"468_-1229","geometry":{"type":"Polygon","coordinates":[[[-122.95,46.75],[-122.85,46.75],[-122.85,46.85],[-122.95,46.85],[-122.95,46.75]]]},"properties":{"group":"cantharellus","week":"2026-10-05","chance":0.0449,"uncertainty_low":null,"uncertainty_high":null,"applicable":true,"drivers":[],"weather_through":null,"model_version":"pnw-pilot-t1-calendar-e2c272b7acfa"}},{"type":"Feature","id":"468_-1228","geometry":{"type":"Polygon","coordinates":[[[-122.85,46.75],[-122.75,46.75],[-122.75,46.85],[-122.85,46.85],[-122.85,46.75]]]},"properties":{"group":"cantharellus","week":"2026-10-05","chance":0.0365,"uncertainty_low":null,"uncertainty_high":null,"applicable":true,"drivers":[],"weather_through":null,"model_version":"pnw-pilot-t1-calendar-e2c272b7acfa"}},{"type":"Feature","id":"468_-1227","geometry":{"type":"Polygon","coordinates":[[[-122.75,46.75],[-122.65,46.75],[-122.65,46.85],[-122.75,46.85],[-122.75,46.75]]]},"properties":{"group":"cantharellus","week":"2026-10-05","chance":0.0372,"uncertainty_low":null,"uncertainty_high":null,"applicable":true,"drivers":[],"weather_through":null,"model_version":"pnw-pilot-t1-calendar-e2c272b7acfa"}},{"type":"Feature","id":"468_-1226","geometry":{"type":"Polygon","coordinates":[[[-122.65,46.75],[-122.55,46.75],[-122.55,46.85],[-122.65,46.85],[-122.65,46.75]]]},"properties":{"group":"cantharellus","week":"2026-10-05","chance":0.0372,"uncertainty_low":null,"uncertainty_high":null,"applicable":true,"drivers":[],"weather_through":null,"model_version":"pnw-pilot-t1-calendar-e2c272b7acfa"}},{"type":"Feature","id":"468_-1225","geometry":{"type":"Polygon","coordinates":[[[-122.55,46.75],[-122.45,46.75],[-122.45,46.85],[-122.55,46.85],[-122.55,46.75]]]},"properties":{"group":"cantharellus","week":"2026-10-05","chance":0.0334,"uncertainty_low":null,"uncertainty_high":null,"applicable":true,"drivers":[],"weather_through":null,"model_version":"pnw-pilot-t1-calendar-e2c272b7acfa"}},{"type":"Feature","id":"468_-1224","geometry":{"type":"Polygon","coordinates":[[[-122.45,46.75],[-122.35,46.75],[-122.35,46.85],[-122.45,46.85],[-122.45,46.75]]]},"properties":{"group":"cantharellus","week":"2026-10-05","chance":0.0323,"uncertainty_low":null,"uncertainty_high":null,"applicable":true,"drivers":[],"weather_through":null,"model_version":"pnw-pilot-t1-calendar-e2c272b7acfa"}},{"type":"Feature","id":"468_-1223","geometry":{"type":"Polygon","coordinates":[[[-122.35,46.75],[-122.25,46.75],[-122.25,46.85],[-122.35,46.85],[-122.35,46.75]]]},"properties":{"group":"cantharellus","week":"2026-10-05","chance":0.0395,"uncertainty_low":null,"uncertainty_high":null,"applicable":true,"drivers":[],"weather_through":null,"model_version":"pnw-pilot-t1-calendar-e2c272b7acfa"}},{"type":"Feature","id":"468_-1222","geometry":{"type":"Polygon","coordinates":[[[-122.25,46.75],[-122.15,46.75],[-122.15,46.85],[-122.25,46.85],[-122.25,46.75]]]},"properties":{"group":"cantharellus","week":"2026-10-05","chance":0.0395,"uncertainty_low":null,"uncertainty_high":null,"applicable":true,"drivers":[],"weather_through":null,"model_version":"pnw-pilot-t1-calendar-e2c272b7acfa"}},{"type":"Feature","id":"468_-1221","geometry":{"type":"Polygon","coordinates":[[[-122.15,46.75],[-122.05,46.75],[-122.05,46.85],[-122.15,46.85],[-122.15,46.75]]]},"properties":{"group":"cantharellus","week":"2026-10-05","chance":0.045,"uncertainty_low":null,"uncertainty_high":null,"applicable":true,"drivers":[],"weather_through":null,"model_version":"pnw-pilot-t1-calendar-e2c272b7acfa"}},{"type":"Feature","id":"469_-1230","geometry":{"type":"Polygon","coordinates":[[[-123.05,46.85],[-122.95,46.85],[-122.95,46.95],[-123.05,46.95],[-123.05,46.85]]]},"properties":{"group":"cantharellus","week":"2026-10-05","chance":0.0526,"uncertainty_low":null,"uncertainty_high":null,"applicable":true,"drivers":[],"weather_through":null,"model_version":"pnw-pilot-t1-calendar-e2c272b7acfa"}},{"type":"Feature","id":"469_-1229","geometry":{"type":"Polygon","coordinates":[[[-122.95,46.85],[-122.85,46.85],[-122.85,46.95],[-122.95,46.95],[-122.95,46.85]]]},"properties":{"group":"cantharellus","week":"2026-10-05","chance":0.0486,"uncertainty_low":null,"uncertainty_high":null,"applicable":true,"drivers":[],"weather_through":null,"model_version":"pnw-pilot-t1-calendar-e2c272b7acfa"}},{"type":"Feature","id":"469_-1228","geometry":{"type":"Polygon","coordinates":[[[-122.85,46.85],[-122.75,46.85],[-122.75,46.95],[-122.85,46.95],[-122.85,46.85]]]},"properties":{"group":"cantharellus","week":"2026-10-05","chance":0.036,"uncertainty_low":null,"uncertainty_high":null,"applicable":true,"drivers":[],"weather_through":null,"model_version":"pnw-pilot-t1-calendar-e2c272b7acfa"}},{"type":"Feature","id":"469_-1227","geometry":{"type":"Polygon","coordinates":[[[-122.75,46.85],[-122.65,46.85],[-122.65,46.95],[-122.75,46.95],[-122.75,46.85]]]},"properties":{"group":"cantharellus","week":"2026-10-05","chance":0.0367,"uncertainty_low":null,"uncertainty_high":null,"applicable":true,"drivers":[],"weather_through":null,"model_version":"pnw-pilot-t1-calendar-e2c272b7acfa"}},{"type":"Feature","id":"469_-1226","geometry":{"type":"Polygon","coordinates":[[[-122.65,46.85],[-122.55,46.85],[-122.55,46.95],[-122.65,46.95],[-122.65,46.85]]]},"properties":{"group":"cantharellus","week":"2026-10-05","chance":0.0367,"uncertainty_low":null,"uncertainty_high":null,"applicable":true,"drivers":[],"weather_through":null,"model_version":"pnw-pilot-t1-calendar-e2c272b7acfa"}},{"type":"Feature","id":"469_-1225","geometry":{"type":"Polygon","coordinates":[[[-122.55,46.85],[-122.45,46.85],[-122.45,46.95],[-122.55,46.95],[-122.55,46.85]]]},"properties":{"group":"cantharellus","week":"2026-10-05","chance":0.0268,"uncertainty_low":null,"uncertainty_high":null,"applicable":true,"drivers":[],"weather_through":null,"model_version":"pnw-pilot-t1-calendar-e2c272b7acfa"}},{"type":"Feature","id":"469_-1224","geometry":{"type":"Polygon","coordinates":[[[-122.45,46.85],[-122.35,46.85],[-122.35,46.95],[-122.45,46.95],[-122.45,46.85]]]},"properties":{"group":"cantharellus","week":"2026-10-05","chance":0.0259,"uncertainty_low":null,"uncertainty_high":null,"applicable":true,"drivers":[],"weather_through":null,"model_version":"pnw-pilot-t1-calendar-e2c272b7acfa"}},{"type":"Feature","id":"469_-1223","geometry":{"type":"Polygon","coordinates":[[[-122.35,46.85],[-122.25,46.85],[-122.25,46.95],[-122.35,46.95],[-122.35,46.85]]]},"properties":{"group":"cantharellus","week":"2026-10-05","chance":0.0251,"uncertainty_low":null,"uncertainty_high":null,"applicable":true,"drivers":[],"weather_through":null,"model_version":"pnw-pilot-t1-calendar-e2c272b7acfa"}},{"type":"Feature","id":"469_-1222","geometry":{"type":"Polygon","coordinates":[[[-122.25,46.85],[-122.15,46.85],[-122.15,46.95],[-122.25,46.95],[-122.25,46.85]]]},"properties":{"group":"cantharellus","week":"2026-10-05","chance":0.0251,"uncertainty_low":null,"uncertainty_high":null,"applicable":true,"drivers":[],"weather_through":null,"model_version":"pnw-pilot-t1-calendar-e2c272b7acfa"}},{"type":"Feature","id":"469_-1221","geometry":{"type":"Polygon","coordinates":[[[-122.15,46.85],[-122.05,46.85],[-122.05,46.95],[-122.15,46.95],[-122.15,46.85]]]},"properties":{"group":"cantharellus","week":"2026-10-05","chance":0.0286,"uncertainty_low":null,"uncertainty_high":null,"applicable":true,"drivers":[],"weather_through":null,"model_version":"pnw-pilot-t1-calendar-e2c272b7acfa"}}]}