{"type":"FeatureCollection","features":[{"type":"Feature","id":"463_-1241","geometry":{"type":"Polygon","coordinates":[[[-124.15,46.25],[-124.05,46.25],[-124.05,46.35],[-124.15,46.35],[-124.15,46.25]]]},"properties":{"group":"cantharellus","week":"2026-10-05","chance":0.0339,"uncertainty_low":null,"uncertainty_high":null,"applicable":true,"drivers":[],"weather_through":"2026-10-04","model_version":"pnw-pilot-t1-calendar-e2c272b7acfa"}},{"type":"Feature","id":"464_-1241","geometry":{"type":"Polygon","coordinates":[[[-124.15,46.35],[-124.05,46.35],[-124.05,46.45],[-124.15,46.45],[-124.15,46.35]]]},"properties":{"group":"cantharellus","week":"2026-10-05","chance":0.0339,"uncertainty_low":null,"uncertainty_high":null,"applicable":true,"drivers":[],"weather_through":"2026-10-04","model_version":"pnw-pilot-t1-calendar-e2c272b7acfa"}},{"type":"Feature","id":"468_-1241","geometry":{"type":"Polygon","coordinates":[[[-124.15,46.75],[-124.05,46.75],[-124.05,46.85],[-124.15,46.85],[-124.15,46.75]]]},"properties":{"group":"cantharellus","week":"2026-10-05","chance":0.0537,"uncertainty_low":null,"uncertainty_high":null,"applicable":true,"drivers":[],"weather_through":"2026-10-04","model_version":"pnw-pilot-t1-calendar-e2c272b7acfa"}},{"type":"Feature","id":"469_-1241","geometry":{"type":"Polygon","coordinates":[[[-124.15,46.85],[-124.05,46.85],[-124.05,46.95],[-124.15,46.95],[-124.15,46.85]]]},"properties":{"group":"cantharellus","week":"2026-10-05","chance":0.0624,"uncertainty_low":null,"uncertainty_high":null,"applicable":true,"drivers":[],"weather_through":"2026-10-04","model_version":"pnw-pilot-t1-calendar-e2c272b7acfa"}}]}