{"type":"FeatureCollection","features":[{"type":"Feature","id":"460_-1210","geometry":{"type":"Polygon","coordinates":[[[-121.05,45.95],[-120.95,45.95],[-120.95,46.05],[-121.05,46.05],[-121.05,45.95]]]},"properties":{"group":"cantharellus","week":"2026-10-05","chance":0.0326,"uncertainty_low":null,"uncertainty_high":null,"applicable":true,"drivers":[],"weather_through":null,"model_version":"pnw-pilot-t1-calendar-e2c272b7acfa"}},{"type":"Feature","id":"461_-1210","geometry":{"type":"Polygon","coordinates":[[[-121.05,46.05],[-120.95,46.05],[-120.95,46.15],[-121.05,46.15],[-121.05,46.05]]]},"properties":{"group":"cantharellus","week":"2026-10-05","chance":0.0326,"uncertainty_low":null,"uncertainty_high":null,"applicable":true,"drivers":[],"weather_through":null,"model_version":"pnw-pilot-t1-calendar-e2c272b7acfa"}},{"type":"Feature","id":"462_-1210","geometry":{"type":"Polygon","coordinates":[[[-121.05,46.15],[-120.95,46.15],[-120.95,46.25],[-121.05,46.25],[-121.05,46.15]]]},"properties":{"group":"cantharellus","week":"2026-10-05","chance":0.0326,"uncertainty_low":null,"uncertainty_high":null,"applicable":true,"drivers":[],"weather_through":null,"model_version":"pnw-pilot-t1-calendar-e2c272b7acfa"}},{"type":"Feature","id":"463_-1210","geometry":{"type":"Polygon","coordinates":[[[-121.05,46.25],[-120.95,46.25],[-120.95,46.35],[-121.05,46.35],[-121.05,46.25]]]},"properties":{"group":"cantharellus","week":"2026-10-05","chance":0.04,"uncertainty_low":null,"uncertainty_high":null,"applicable":true,"drivers":[],"weather_through":null,"model_version":"pnw-pilot-t1-calendar-e2c272b7acfa"}},{"type":"Feature","id":"464_-1210","geometry":{"type":"Polygon","coordinates":[[[-121.05,46.35],[-120.95,46.35],[-120.95,46.45],[-121.05,46.45],[-121.05,46.35]]]},"properties":{"group":"cantharellus","week":"2026-10-05","chance":0.04,"uncertainty_low":null,"uncertainty_high":null,"applicable":true,"drivers":[],"weather_through":null,"model_version":"pnw-pilot-t1-calendar-e2c272b7acfa"}},{"type":"Feature","id":"465_-1210","geometry":{"type":"Polygon","coordinates":[[[-121.05,46.45],[-120.95,46.45],[-120.95,46.55],[-121.05,46.55],[-121.05,46.45]]]},"properties":{"group":"cantharellus","week":"2026-10-05","chance":0.04,"uncertainty_low":null,"uncertainty_high":null,"applicable":true,"drivers":[],"weather_through":null,"model_version":"pnw-pilot-t1-calendar-e2c272b7acfa"}},{"type":"Feature","id":"466_-1210","geometry":{"type":"Polygon","coordinates":[[[-121.05,46.55],[-120.95,46.55],[-120.95,46.65],[-121.05,46.65],[-121.05,46.55]]]},"properties":{"group":"cantharellus","week":"2026-10-05","chance":0.04,"uncertainty_low":null,"uncertainty_high":null,"applicable":true,"drivers":[],"weather_through":null,"model_version":"pnw-pilot-t1-calendar-e2c272b7acfa"}},{"type":"Feature","id":"467_-1210","geometry":{"type":"Polygon","coordinates":[[[-121.05,46.65],[-120.95,46.65],[-120.95,46.75],[-121.05,46.75],[-121.05,46.65]]]},"properties":{"group":"cantharellus","week":"2026-10-05","chance":0.0462,"uncertainty_low":null,"uncertainty_high":null,"applicable":true,"drivers":[],"weather_through":null,"model_version":"pnw-pilot-t1-calendar-e2c272b7acfa"}},{"type":"Feature","id":"468_-1210","geometry":{"type":"Polygon","coordinates":[[[-121.05,46.75],[-120.95,46.75],[-120.95,46.85],[-121.05,46.85],[-121.05,46.75]]]},"properties":{"group":"cantharellus","week":"2026-10-05","chance":0.0295,"uncertainty_low":null,"uncertainty_high":null,"applicable":true,"drivers":[],"weather_through":null,"model_version":"pnw-pilot-t1-calendar-e2c272b7acfa"}},{"type":"Feature","id":"469_-1210","geometry":{"type":"Polygon","coordinates":[[[-121.05,46.85],[-120.95,46.85],[-120.95,46.95],[-121.05,46.95],[-121.05,46.85]]]},"properties":{"group":"cantharellus","week":"2026-10-05","chance":0.0266,"uncertainty_low":null,"uncertainty_high":null,"applicable":true,"drivers":[],"weather_through":null,"model_version":"pnw-pilot-t1-calendar-e2c272b7acfa"}}]}