{"type":"FeatureCollection","features":[{"type":"Feature","id":"471_-1241","geometry":{"type":"Polygon","coordinates":[[[-124.15,47.05],[-124.05,47.05],[-124.05,47.15],[-124.15,47.15],[-124.15,47.05]]]},"properties":{"group":"cantharellus","week":"2026-10-05","chance":0.0798,"uncertainty_low":null,"uncertainty_high":null,"applicable":true,"drivers":[],"weather_through":null,"model_version":"pnw-pilot-t1-calendar-e2c272b7acfa"}},{"type":"Feature","id":"472_-1241","geometry":{"type":"Polygon","coordinates":[[[-124.15,47.15],[-124.05,47.15],[-124.05,47.25],[-124.15,47.25],[-124.15,47.15]]]},"properties":{"group":"cantharellus","week":"2026-10-05","chance":0.0832,"uncertainty_low":null,"uncertainty_high":null,"applicable":true,"drivers":[],"weather_through":null,"model_version":"pnw-pilot-t1-calendar-e2c272b7acfa"}},{"type":"Feature","id":"473_-1241","geometry":{"type":"Polygon","coordinates":[[[-124.15,47.25],[-124.05,47.25],[-124.05,47.35],[-124.15,47.35],[-124.15,47.25]]]},"properties":{"group":"cantharellus","week":"2026-10-05","chance":0.0835,"uncertainty_low":null,"uncertainty_high":null,"applicable":true,"drivers":[],"weather_through":null,"model_version":"pnw-pilot-t1-calendar-e2c272b7acfa"}},{"type":"Feature","id":"474_-1243","geometry":{"type":"Polygon","coordinates":[[[-124.35,47.35],[-124.25,47.35],[-124.25,47.45],[-124.35,47.45],[-124.35,47.35]]]},"properties":{"group":"cantharellus","week":"2026-10-05","chance":0.1404,"uncertainty_low":null,"uncertainty_high":null,"applicable":true,"drivers":[],"weather_through":null,"model_version":"pnw-pilot-t1-calendar-e2c272b7acfa"}},{"type":"Feature","id":"474_-1242","geometry":{"type":"Polygon","coordinates":[[[-124.25,47.35],[-124.15,47.35],[-124.15,47.45],[-124.25,47.45],[-124.25,47.35]]]},"properties":{"group":"cantharellus","week":"2026-10-05","chance":0.1663,"uncertainty_low":null,"uncertainty_high":null,"applicable":true,"drivers":[],"weather_through":null,"model_version":"pnw-pilot-t1-calendar-e2c272b7acfa"}},{"type":"Feature","id":"474_-1241","geometry":{"type":"Polygon","coordinates":[[[-124.15,47.35],[-124.05,47.35],[-124.05,47.45],[-124.15,47.45],[-124.15,47.35]]]},"properties":{"group":"cantharellus","week":"2026-10-05","chance":0.0882,"uncertainty_low":null,"uncertainty_high":null,"applicable":true,"drivers":[],"weather_through":null,"model_version":"pnw-pilot-t1-calendar-e2c272b7acfa"}},{"type":"Feature","id":"475_-1243","geometry":{"type":"Polygon","coordinates":[[[-124.35,47.45],[-124.25,47.45],[-124.25,47.55],[-124.35,47.55],[-124.35,47.45]]]},"properties":{"group":"cantharellus","week":"2026-10-05","chance":0.1415,"uncertainty_low":null,"uncertainty_high":null,"applicable":true,"drivers":[],"weather_through":null,"model_version":"pnw-pilot-t1-calendar-e2c272b7acfa"}},{"type":"Feature","id":"475_-1242","geometry":{"type":"Polygon","coordinates":[[[-124.25,47.45],[-124.15,47.45],[-124.15,47.55],[-124.25,47.55],[-124.25,47.45]]]},"properties":{"group":"cantharellus","week":"2026-10-05","chance":0.1677,"uncertainty_low":null,"uncertainty_high":null,"applicable":true,"drivers":[],"weather_through":null,"model_version":"pnw-pilot-t1-calendar-e2c272b7acfa"}},{"type":"Feature","id":"475_-1241","geometry":{"type":"Polygon","coordinates":[[[-124.15,47.45],[-124.05,47.45],[-124.05,47.55],[-124.15,47.55],[-124.15,47.45]]]},"properties":{"group":"cantharellus","week":"2026-10-05","chance":0.089,"uncertainty_low":null,"uncertainty_high":null,"applicable":true,"drivers":[],"weather_through":null,"model_version":"pnw-pilot-t1-calendar-e2c272b7acfa"}},{"type":"Feature","id":"476_-1243","geometry":{"type":"Polygon","coordinates":[[[-124.35,47.55],[-124.25,47.55],[-124.25,47.65],[-124.35,47.65],[-124.35,47.55]]]},"properties":{"group":"cantharellus","week":"2026-10-05","chance":0.1338,"uncertainty_low":null,"uncertainty_high":null,"applicable":true,"drivers":[],"weather_through":null,"model_version":"pnw-pilot-t1-calendar-e2c272b7acfa"}},{"type":"Feature","id":"476_-1242","geometry":{"type":"Polygon","coordinates":[[[-124.25,47.55],[-124.15,47.55],[-124.15,47.65],[-124.25,47.65],[-124.25,47.55]]]},"properties":{"group":"cantharellus","week":"2026-10-05","chance":0.1588,"uncertainty_low":null,"uncertainty_high":null,"applicable":true,"drivers":[],"weather_through":null,"model_version":"pnw-pilot-t1-calendar-e2c272b7acfa"}},{"type":"Feature","id":"476_-1241","geometry":{"type":"Polygon","coordinates":[[[-124.15,47.55],[-124.05,47.55],[-124.05,47.65],[-124.15,47.65],[-124.15,47.55]]]},"properties":{"group":"cantharellus","week":"2026-10-05","chance":0.0924,"uncertainty_low":null,"uncertainty_high":null,"applicable":true,"drivers":[],"weather_through":null,"model_version":"pnw-pilot-t1-calendar-e2c272b7acfa"}},{"type":"Feature","id":"477_-1243","geometry":{"type":"Polygon","coordinates":[[[-124.35,47.65],[-124.25,47.65],[-124.25,47.75],[-124.35,47.75],[-124.35,47.65]]]},"properties":{"group":"cantharellus","week":"2026-10-05","chance":0.1088,"uncertainty_low":null,"uncertainty_high":null,"applicable":true,"drivers":[],"weather_through":null,"model_version":"pnw-pilot-t1-calendar-e2c272b7acfa"}},{"type":"Feature","id":"477_-1242","geometry":{"type":"Polygon","coordinates":[[[-124.25,47.65],[-124.15,47.65],[-124.15,47.75],[-124.25,47.75],[-124.25,47.65]]]},"properties":{"group":"cantharellus","week":"2026-10-05","chance":0.1298,"uncertainty_low":null,"uncertainty_high":null,"applicable":true,"drivers":[],"weather_through":null,"model_version":"pnw-pilot-t1-calendar-e2c272b7acfa"}},{"type":"Feature","id":"477_-1241","geometry":{"type":"Polygon","coordinates":[[[-124.15,47.65],[-124.05,47.65],[-124.05,47.75],[-124.15,47.75],[-124.15,47.65]]]},"properties":{"group":"cantharellus","week":"2026-10-05","chance":0.0903,"uncertainty_low":null,"uncertainty_high":null,"applicable":true,"drivers":[],"weather_through":null,"model_version":"pnw-pilot-t1-calendar-e2c272b7acfa"}},{"type":"Feature","id":"478_-1244","geometry":{"type":"Polygon","coordinates":[[[-124.45,47.75],[-124.35,47.75],[-124.35,47.85],[-124.45,47.85],[-124.45,47.75]]]},"properties":{"group":"cantharellus","week":"2026-10-05","chance":0.0981,"uncertainty_low":null,"uncertainty_high":null,"applicable":true,"drivers":[],"weather_through":null,"model_version":"pnw-pilot-t1-calendar-e2c272b7acfa"}},{"type":"Feature","id":"478_-1243","geometry":{"type":"Polygon","coordinates":[[[-124.35,47.75],[-124.25,47.75],[-124.25,47.85],[-124.35,47.85],[-124.35,47.75]]]},"properties":{"group":"cantharellus","week":"2026-10-05","chance":0.1004,"uncertainty_low":null,"uncertainty_high":null,"applicable":true,"drivers":[],"weather_through":null,"model_version":"pnw-pilot-t1-calendar-e2c272b7acfa"}},{"type":"Feature","id":"478_-1242","geometry":{"type":"Polygon","coordinates":[[[-124.25,47.75],[-124.15,47.75],[-124.15,47.85],[-124.25,47.85],[-124.25,47.75]]]},"properties":{"group":"cantharellus","week":"2026-10-05","chance":0.12,"uncertainty_low":null,"uncertainty_high":null,"applicable":true,"drivers":[],"weather_through":null,"model_version":"pnw-pilot-t1-calendar-e2c272b7acfa"}},{"type":"Feature","id":"478_-1241","geometry":{"type":"Polygon","coordinates":[[[-124.15,47.75],[-124.05,47.75],[-124.05,47.85],[-124.15,47.85],[-124.15,47.75]]]},"properties":{"group":"cantharellus","week":"2026-10-05","chance":0.0903,"uncertainty_low":null,"uncertainty_high":null,"applicable":true,"drivers":[],"weather_through":null,"model_version":"pnw-pilot-t1-calendar-e2c272b7acfa"}},{"type":"Feature","id":"479_-1245","geometry":{"type":"Polygon","coordinates":[[[-124.55,47.85],[-124.45,47.85],[-124.45,47.95],[-124.55,47.95],[-124.55,47.85]]]},"properties":{"group":"cantharellus","week":"2026-10-05","chance":0.0799,"uncertainty_low":null,"uncertainty_high":null,"applicable":true,"drivers":[],"weather_through":null,"model_version":"pnw-pilot-t1-calendar-e2c272b7acfa"}},{"type":"Feature","id":"479_-1244","geometry":{"type":"Polygon","coordinates":[[[-124.45,47.85],[-124.35,47.85],[-124.35,47.95],[-124.45,47.95],[-124.45,47.85]]]},"properties":{"group":"cantharellus","week":"2026-10-05","chance":0.0799,"uncertainty_low":null,"uncertainty_high":null,"applicable":true,"drivers":[],"weather_through":null,"model_version":"pnw-pilot-t1-calendar-e2c272b7acfa"}},{"type":"Feature","id":"479_-1243","geometry":{"type":"Polygon","coordinates":[[[-124.35,47.85],[-124.25,47.85],[-124.25,47.95],[-124.35,47.95],[-124.35,47.85]]]},"properties":{"group":"cantharellus","week":"2026-10-05","chance":0.0818,"uncertainty_low":null,"uncertainty_high":null,"applicable":true,"drivers":[],"weather_through":null,"model_version":"pnw-pilot-t1-calendar-e2c272b7acfa"}},{"type":"Feature","id":"479_-1242","geometry":{"type":"Polygon","coordinates":[[[-124.25,47.85],[-124.15,47.85],[-124.15,47.95],[-124.25,47.95],[-124.25,47.85]]]},"properties":{"group":"cantharellus","week":"2026-10-05","chance":0.0982,"uncertainty_low":null,"uncertainty_high":null,"applicable":true,"drivers":[],"weather_through":null,"model_version":"pnw-pilot-t1-calendar-e2c272b7acfa"}},{"type":"Feature","id":"479_-1241","geometry":{"type":"Polygon","coordinates":[[[-124.15,47.85],[-124.05,47.85],[-124.05,47.95],[-124.15,47.95],[-124.15,47.85]]]},"properties":{"group":"cantharellus","week":"2026-10-05","chance":0.0751,"uncertainty_low":null,"uncertainty_high":null,"applicable":true,"drivers":[],"weather_through":null,"model_version":"pnw-pilot-t1-calendar-e2c272b7acfa"}}]}