{"type":"FeatureCollection","features":[{"type":"Feature","id":"470_-1230","geometry":{"type":"Polygon","coordinates":[[[-123.05,46.95],[-122.95,46.95],[-122.95,47.05],[-123.05,47.05],[-123.05,46.95]]]},"properties":{"group":"cantharellus","week":"2026-10-05","chance":0.1313,"uncertainty_low":null,"uncertainty_high":null,"applicable":true,"drivers":[{"label":"Rain, total of the last 14 days (mm)","value":24.8},{"label":"Rain, total of the last 3 days (mm)","value":0.2},{"label":"Air temperature, mean of the last 7 days (°C)","value":14.257}],"weather_through":"2026-10-04","model_version":"pnw-pilot-t1-synthetic-1cbe08ab21a8"}},{"type":"Feature","id":"470_-1229","geometry":{"type":"Polygon","coordinates":[[[-122.95,46.95],[-122.85,46.95],[-122.85,47.05],[-122.95,47.05],[-122.95,46.95]]]},"properties":{"group":"cantharellus","week":"2026-10-05","chance":0.1313,"uncertainty_low":null,"uncertainty_high":null,"applicable":true,"drivers":[{"label":"Rain, total of the last 14 days (mm)","value":24.8},{"label":"Rain, total of the last 3 days (mm)","value":0.2},{"label":"Air temperature, mean of the last 7 days (°C)","value":14.571}],"weather_through":"2026-10-04","model_version":"pnw-pilot-t1-synthetic-1cbe08ab21a8"}},{"type":"Feature","id":"470_-1228","geometry":{"type":"Polygon","coordinates":[[[-122.85,46.95],[-122.75,46.95],[-122.75,47.05],[-122.85,47.05],[-122.85,46.95]]]},"properties":{"group":"cantharellus","week":"2026-10-05","chance":0.1313,"uncertainty_low":null,"uncertainty_high":null,"applicable":true,"drivers":[{"label":"Rain, total of the last 14 days (mm)","value":22.4},{"label":"Rain, total of the last 3 days (mm)","value":0.1},{"label":"Air temperature, mean of the last 7 days (°C)","value":14.557}],"weather_through":"2026-10-04","model_version":"pnw-pilot-t1-synthetic-1cbe08ab21a8"}},{"type":"Feature","id":"471_-1230","geometry":{"type":"Polygon","coordinates":[[[-123.05,47.05],[-122.95,47.05],[-122.95,47.15],[-123.05,47.15],[-123.05,47.05]]]},"properties":{"group":"cantharellus","week":"2026-10-05","chance":0.1313,"uncertainty_low":null,"uncertainty_high":null,"applicable":true,"drivers":[{"label":"Rain, total of the last 14 days (mm)","value":24.8},{"label":"Rain, total of the last 3 days (mm)","value":0.2},{"label":"Air temperature, mean of the last 7 days (°C)","value":14.529}],"weather_through":"2026-10-04","model_version":"pnw-pilot-t1-synthetic-1cbe08ab21a8"}},{"type":"Feature","id":"471_-1229","geometry":{"type":"Polygon","coordinates":[[[-122.95,47.05],[-122.85,47.05],[-122.85,47.15],[-122.95,47.15],[-122.95,47.05]]]},"properties":{"group":"cantharellus","week":"2026-10-05","chance":0.1313,"uncertainty_low":null,"uncertainty_high":null,"applicable":true,"drivers":[{"label":"Rain, total of the last 14 days (mm)","value":24.8},{"label":"Rain, total of the last 3 days (mm)","value":0.2},{"label":"Air temperature, mean of the last 7 days (°C)","value":14.8}],"weather_through":"2026-10-04","model_version":"pnw-pilot-t1-synthetic-1cbe08ab21a8"}},{"type":"Feature","id":"471_-1228","geometry":{"type":"Polygon","coordinates":[[[-122.85,47.05],[-122.75,47.05],[-122.75,47.15],[-122.85,47.15],[-122.85,47.05]]]},"properties":{"group":"cantharellus","week":"2026-10-05","chance":0.1313,"uncertainty_low":null,"uncertainty_high":null,"applicable":true,"drivers":[{"label":"Rain, total of the last 14 days (mm)","value":22.4},{"label":"Rain, total of the last 3 days (mm)","value":0.1},{"label":"Air temperature, mean of the last 7 days (°C)","value":14.871}],"weather_through":"2026-10-04","model_version":"pnw-pilot-t1-synthetic-1cbe08ab21a8"}},{"type":"Feature","id":"471_-1227","geometry":{"type":"Polygon","coordinates":[[[-122.75,47.05],[-122.65,47.05],[-122.65,47.15],[-122.75,47.15],[-122.75,47.05]]]},"properties":{"group":"cantharellus","week":"2026-10-05","chance":0.1313,"uncertainty_low":null,"uncertainty_high":null,"applicable":true,"drivers":[{"label":"Rain, total of the last 14 days (mm)","value":22.4},{"label":"Rain, total of the last 3 days (mm)","value":0.1},{"label":"Air temperature, mean of the last 7 days (°C)","value":14.486}],"weather_through":"2026-10-04","model_version":"pnw-pilot-t1-synthetic-1cbe08ab21a8"}},{"type":"Feature","id":"472_-1225","geometry":{"type":"Polygon","coordinates":[[[-122.55,47.15],[-122.45,47.15],[-122.45,47.25],[-122.55,47.25],[-122.55,47.15]]]},"properties":{"group":"cantharellus","week":"2026-10-05","chance":0.1313,"uncertainty_low":null,"uncertainty_high":null,"applicable":true,"drivers":[{"label":"Rain, total of the last 14 days (mm)","value":20.3},{"label":"Rain, total of the last 3 days (mm)","value":0.0},{"label":"Air temperature, mean of the last 7 days (°C)","value":14.6}],"weather_through":"2026-10-04","model_version":"pnw-pilot-t1-synthetic-1cbe08ab21a8"}},{"type":"Feature","id":"472_-1224","geometry":{"type":"Polygon","coordinates":[[[-122.45,47.15],[-122.35,47.15],[-122.35,47.25],[-122.45,47.25],[-122.45,47.15]]]},"properties":{"group":"cantharellus","week":"2026-10-05","chance":0.1313,"uncertainty_low":null,"uncertainty_high":null,"applicable":true,"drivers":[{"label":"Rain, total of the last 14 days (mm)","value":20.3},{"label":"Rain, total of the last 3 days (mm)","value":0.0},{"label":"Air temperature, mean of the last 7 days (°C)","value":14.329}],"weather_through":"2026-10-04","model_version":"pnw-pilot-t1-synthetic-1cbe08ab21a8"}},{"type":"Feature","id":"472_-1223","geometry":{"type":"Polygon","coordinates":[[[-122.35,47.15],[-122.25,47.15],[-122.25,47.25],[-122.35,47.25],[-122.35,47.15]]]},"properties":{"group":"cantharellus","week":"2026-10-05","chance":0.1313,"uncertainty_low":null,"uncertainty_high":null,"applicable":true,"drivers":[{"label":"Rain, total of the last 14 days (mm)","value":25.0},{"label":"Rain, total of the last 3 days (mm)","value":0.0},{"label":"Air temperature, mean of the last 7 days (°C)","value":13.986}],"weather_through":"2026-10-04","model_version":"pnw-pilot-t1-synthetic-1cbe08ab21a8"}},{"type":"Feature","id":"473_-1229","geometry":{"type":"Polygon","coordinates":[[[-122.95,47.25],[-122.85,47.25],[-122.85,47.35],[-122.95,47.35],[-122.95,47.25]]]},"properties":{"group":"cantharellus","week":"2026-10-05","chance":0.1313,"uncertainty_low":null,"uncertainty_high":null,"applicable":true,"drivers":[{"label":"Rain, total of the last 14 days (mm)","value":37.6},{"label":"Rain, total of the last 3 days (mm)","value":0.0},{"label":"Air temperature, mean of the last 7 days (°C)","value":14.857}],"weather_through":"2026-10-04","model_version":"pnw-pilot-t1-synthetic-1cbe08ab21a8"}},{"type":"Feature","id":"473_-1226","geometry":{"type":"Polygon","coordinates":[[[-122.65,47.25],[-122.55,47.25],[-122.55,47.35],[-122.65,47.35],[-122.65,47.25]]]},"properties":{"group":"cantharellus","week":"2026-10-05","chance":0.1313,"uncertainty_low":null,"uncertainty_high":null,"applicable":true,"drivers":[{"label":"Rain, total of the last 14 days (mm)","value":20.3},{"label":"Rain, total of the last 3 days (mm)","value":0.0},{"label":"Air temperature, mean of the last 7 days (°C)","value":14.714}],"weather_through":"2026-10-04","model_version":"pnw-pilot-t1-synthetic-1cbe08ab21a8"}},{"type":"Feature","id":"473_-1225","geometry":{"type":"Polygon","coordinates":[[[-122.55,47.25],[-122.45,47.25],[-122.45,47.35],[-122.55,47.35],[-122.55,47.25]]]},"properties":{"group":"cantharellus","week":"2026-10-05","chance":0.1313,"uncertainty_low":null,"uncertainty_high":null,"applicable":true,"drivers":[{"label":"Rain, total of the last 14 days (mm)","value":20.3},{"label":"Rain, total of the last 3 days (mm)","value":0.0},{"label":"Air temperature, mean of the last 7 days (°C)","value":14.829}],"weather_through":"2026-10-04","model_version":"pnw-pilot-t1-synthetic-1cbe08ab21a8"}},{"type":"Feature","id":"473_-1224","geometry":{"type":"Polygon","coordinates":[[[-122.45,47.25],[-122.35,47.25],[-122.35,47.35],[-122.45,47.35],[-122.45,47.25]]]},"properties":{"group":"cantharellus","week":"2026-10-05","chance":0.1313,"uncertainty_low":null,"uncertainty_high":null,"applicable":true,"drivers":[{"label":"Rain, total of the last 14 days (mm)","value":20.3},{"label":"Rain, total of the last 3 days (mm)","value":0.0},{"label":"Air temperature, mean of the last 7 days (°C)","value":14.5}],"weather_through":"2026-10-04","model_version":"pnw-pilot-t1-synthetic-1cbe08ab21a8"}},{"type":"Feature","id":"474_-1230","geometry":{"type":"Polygon","coordinates":[[[-123.05,47.35],[-122.95,47.35],[-122.95,47.45],[-123.05,47.45],[-123.05,47.35]]]},"properties":{"group":"cantharellus","week":"2026-10-05","chance":0.1313,"uncertainty_low":null,"uncertainty_high":null,"applicable":true,"drivers":[{"label":"Rain, total of the last 14 days (mm)","value":48.0},{"label":"Rain, total of the last 3 days (mm)","value":0.0},{"label":"Air temperature, mean of the last 7 days (°C)","value":14.786}],"weather_through":"2026-10-04","model_version":"pnw-pilot-t1-synthetic-1cbe08ab21a8"}},{"type":"Feature","id":"474_-1225","geometry":{"type":"Polygon","coordinates":[[[-122.55,47.35],[-122.45,47.35],[-122.45,47.45],[-122.55,47.45],[-122.55,47.35]]]},"properties":{"group":"cantharellus","week":"2026-10-05","chance":0.1313,"uncertainty_low":null,"uncertainty_high":null,"applicable":true,"drivers":[{"label":"Rain, total of the last 14 days (mm)","value":27.8},{"label":"Rain, total of the last 3 days (mm)","value":0.0},{"label":"Air temperature, mean of the last 7 days (°C)","value":14.857}],"weather_through":"2026-10-04","model_version":"pnw-pilot-t1-synthetic-1cbe08ab21a8"}},{"type":"Feature","id":"474_-1223","geometry":{"type":"Polygon","coordinates":[[[-122.35,47.35],[-122.25,47.35],[-122.25,47.45],[-122.35,47.45],[-122.35,47.35]]]},"properties":{"group":"cantharellus","week":"2026-10-05","chance":0.1313,"uncertainty_low":null,"uncertainty_high":null,"applicable":true,"drivers":[{"label":"Rain, total of the last 14 days (mm)","value":37.8},{"label":"Rain, total of the last 3 days (mm)","value":0.2},{"label":"Air temperature, mean of the last 7 days (°C)","value":14.286}],"weather_through":"2026-10-04","model_version":"pnw-pilot-t1-synthetic-1cbe08ab21a8"}},{"type":"Feature","id":"474_-1221","geometry":{"type":"Polygon","coordinates":[[[-122.15,47.35],[-122.05,47.35],[-122.05,47.45],[-122.15,47.45],[-122.15,47.35]]]},"properties":{"group":"cantharellus","week":"2026-10-05","chance":0.1313,"uncertainty_low":null,"uncertainty_high":null,"applicable":true,"drivers":[{"label":"Rain, total of the last 14 days (mm)","value":50.2},{"label":"Rain, total of the last 3 days (mm)","value":0.2},{"label":"Air temperature, mean of the last 7 days (°C)","value":13.743}],"weather_through":"2026-10-04","model_version":"pnw-pilot-t1-synthetic-1cbe08ab21a8"}},{"type":"Feature","id":"475_-1227","geometry":{"type":"Polygon","coordinates":[[[-122.75,47.45],[-122.65,47.45],[-122.65,47.55],[-122.75,47.55],[-122.75,47.45]]]},"properties":{"group":"cantharellus","week":"2026-10-05","chance":0.1313,"uncertainty_low":null,"uncertainty_high":null,"applicable":true,"drivers":[{"label":"Rain, total of the last 14 days (mm)","value":31.6},{"label":"Rain, total of the last 3 days (mm)","value":0.1},{"label":"Air temperature, mean of the last 7 days (°C)","value":14.4}],"weather_through":"2026-10-04","model_version":"pnw-pilot-t1-synthetic-1cbe08ab21a8"}},{"type":"Feature","id":"475_-1226","geometry":{"type":"Polygon","coordinates":[[[-122.65,47.45],[-122.55,47.45],[-122.55,47.55],[-122.65,47.55],[-122.65,47.45]]]},"properties":{"group":"cantharellus","week":"2026-10-05","chance":0.1313,"uncertainty_low":null,"uncertainty_high":null,"applicable":true,"drivers":[{"label":"Rain, total of the last 14 days (mm)","value":27.8},{"label":"Rain, total of the last 3 days (mm)","value":0.0},{"label":"Air temperature, mean of the last 7 days (°C)","value":14.429}],"weather_through":"2026-10-04","model_version":"pnw-pilot-t1-synthetic-1cbe08ab21a8"}},{"type":"Feature","id":"475_-1225","geometry":{"type":"Polygon","coordinates":[[[-122.55,47.45],[-122.45,47.45],[-122.45,47.55],[-122.55,47.55],[-122.55,47.45]]]},"properties":{"group":"cantharellus","week":"2026-10-05","chance":0.1313,"uncertainty_low":null,"uncertainty_high":null,"applicable":true,"drivers":[{"label":"Rain, total of the last 14 days (mm)","value":27.8},{"label":"Rain, total of the last 3 days (mm)","value":0.0},{"label":"Air temperature, mean of the last 7 days (°C)","value":14.571}],"weather_through":"2026-10-04","model_version":"pnw-pilot-t1-synthetic-1cbe08ab21a8"}},{"type":"Feature","id":"475_-1224","geometry":{"type":"Polygon","coordinates":[[[-122.45,47.45],[-122.35,47.45],[-122.35,47.55],[-122.45,47.55],[-122.45,47.45]]]},"properties":{"group":"cantharellus","week":"2026-10-05","chance":0.1313,"uncertainty_low":null,"uncertainty_high":null,"applicable":true,"drivers":[{"label":"Rain, total of the last 14 days (mm)","value":27.8},{"label":"Rain, total of the last 3 days (mm)","value":0.0},{"label":"Air temperature, mean of the last 7 days (°C)","value":14.529}],"weather_through":"2026-10-04","model_version":"pnw-pilot-t1-synthetic-1cbe08ab21a8"}},{"type":"Feature","id":"475_-1223","geometry":{"type":"Polygon","coordinates":[[[-122.35,47.45],[-122.25,47.45],[-122.25,47.55],[-122.35,47.55],[-122.35,47.45]]]},"properties":{"group":"cantharellus","week":"2026-10-05","chance":0.1313,"uncertainty_low":null,"uncertainty_high":null,"applicable":true,"drivers":[{"label":"Rain, total of the last 14 days (mm)","value":37.8},{"label":"Rain, total of the last 3 days (mm)","value":0.2},{"label":"Air temperature, mean of the last 7 days (°C)","value":14.229}],"weather_through":"2026-10-04","model_version":"pnw-pilot-t1-synthetic-1cbe08ab21a8"}},{"type":"Feature","id":"475_-1222","geometry":{"type":"Polygon","coordinates":[[[-122.25,47.45],[-122.15,47.45],[-122.15,47.55],[-122.25,47.55],[-122.25,47.45]]]},"properties":{"group":"cantharellus","week":"2026-10-05","chance":0.1313,"uncertainty_low":null,"uncertainty_high":null,"applicable":true,"drivers":[{"label":"Rain, total of the last 14 days (mm)","value":37.8},{"label":"Rain, total of the last 3 days (mm)","value":0.2},{"label":"Air temperature, mean of the last 7 days (°C)","value":13.829}],"weather_through":"2026-10-04","model_version":"pnw-pilot-t1-synthetic-1cbe08ab21a8"}},{"type":"Feature","id":"475_-1221","geometry":{"type":"Polygon","coordinates":[[[-122.15,47.45],[-122.05,47.45],[-122.05,47.55],[-122.15,47.55],[-122.15,47.45]]]},"properties":{"group":"cantharellus","week":"2026-10-05","chance":0.1313,"uncertainty_low":null,"uncertainty_high":null,"applicable":true,"drivers":[{"label":"Rain, total of the last 14 days (mm)","value":50.2},{"label":"Rain, total of the last 3 days (mm)","value":0.2},{"label":"Air temperature, mean of the last 7 days (°C)","value":13.557}],"weather_through":"2026-10-04","model_version":"pnw-pilot-t1-synthetic-1cbe08ab21a8"}},{"type":"Feature","id":"476_-1228","geometry":{"type":"Polygon","coordinates":[[[-122.85,47.55],[-122.75,47.55],[-122.75,47.65],[-122.85,47.65],[-122.85,47.55]]]},"properties":{"group":"cantharellus","week":"2026-10-05","chance":0.1313,"uncertainty_low":null,"uncertainty_high":null,"applicable":true,"drivers":[{"label":"Rain, total of the last 14 days (mm)","value":31.6},{"label":"Rain, total of the last 3 days (mm)","value":0.1},{"label":"Air temperature, mean of the last 7 days (°C)","value":14.557}],"weather_through":"2026-10-04","model_version":"pnw-pilot-t1-synthetic-1cbe08ab21a8"}},{"type":"Feature","id":"476_-1227","geometry":{"type":"Polygon","coordinates":[[[-122.75,47.55],[-122.65,47.55],[-122.65,47.65],[-122.75,47.65],[-122.75,47.55]]]},"properties":{"group":"cantharellus","week":"2026-10-05","chance":0.1313,"uncertainty_low":null,"uncertainty_high":null,"applicable":true,"drivers":[{"label":"Rain, total of the last 14 days (mm)","value":31.6},{"label":"Rain, total of the last 3 days (mm)","value":0.1},{"label":"Air temperature, mean of the last 7 days (°C)","value":14.257}],"weather_through":"2026-10-04","model_version":"pnw-pilot-t1-synthetic-1cbe08ab21a8"}},{"type":"Feature","id":"476_-1226","geometry":{"type":"Polygon","coordinates":[[[-122.65,47.55],[-122.55,47.55],[-122.55,47.65],[-122.65,47.65],[-122.65,47.55]]]},"properties":{"group":"cantharellus","week":"2026-10-05","chance":0.1313,"uncertainty_low":null,"uncertainty_high":null,"applicable":true,"drivers":[{"label":"Rain, total of the last 14 days (mm)","value":27.8},{"label":"Rain, total of the last 3 days (mm)","value":0.0},{"label":"Air temperature, mean of the last 7 days (°C)","value":14.186}],"weather_through":"2026-10-04","model_version":"pnw-pilot-t1-synthetic-1cbe08ab21a8"}},{"type":"Feature","id":"476_-1225","geometry":{"type":"Polygon","coordinates":[[[-122.55,47.55],[-122.45,47.55],[-122.45,47.65],[-122.55,47.65],[-122.55,47.55]]]},"properties":{"group":"cantharellus","week":"2026-10-05","chance":0.1313,"uncertainty_low":null,"uncertainty_high":null,"applicable":true,"drivers":[{"label":"Rain, total of the last 14 days (mm)","value":27.8},{"label":"Rain, total of the last 3 days (mm)","value":0.0},{"label":"Air temperature, mean of the last 7 days (°C)","value":14.643}],"weather_through":"2026-10-04","model_version":"pnw-pilot-t1-synthetic-1cbe08ab21a8"}},{"type":"Feature","id":"476_-1224","geometry":{"type":"Polygon","coordinates":[[[-122.45,47.55],[-122.35,47.55],[-122.35,47.65],[-122.45,47.65],[-122.45,47.55]]]},"properties":{"group":"cantharellus","week":"2026-10-05","chance":0.1313,"uncertainty_low":null,"uncertainty_high":null,"applicable":true,"drivers":[{"label":"Rain, total of the last 14 days (mm)","value":27.8},{"label":"Rain, total of the last 3 days (mm)","value":0.0},{"label":"Air temperature, mean of the last 7 days (°C)","value":14.643}],"weather_through":"2026-10-04","model_version":"pnw-pilot-t1-synthetic-1cbe08ab21a8"}},{"type":"Feature","id":"476_-1223","geometry":{"type":"Polygon","coordinates":[[[-122.35,47.55],[-122.25,47.55],[-122.25,47.65],[-122.35,47.65],[-122.35,47.55]]]},"properties":{"group":"cantharellus","week":"2026-10-05","chance":0.1313,"uncertainty_low":null,"uncertainty_high":null,"applicable":true,"drivers":[{"label":"Rain, total of the last 14 days (mm)","value":37.8},{"label":"Rain, total of the last 3 days (mm)","value":0.2},{"label":"Air temperature, mean of the last 7 days (°C)","value":14.186}],"weather_through":"2026-10-04","model_version":"pnw-pilot-t1-synthetic-1cbe08ab21a8"}},{"type":"Feature","id":"476_-1222","geometry":{"type":"Polygon","coordinates":[[[-122.25,47.55],[-122.15,47.55],[-122.15,47.65],[-122.25,47.65],[-122.25,47.55]]]},"properties":{"group":"cantharellus","week":"2026-10-05","chance":0.1313,"uncertainty_low":null,"uncertainty_high":null,"applicable":true,"drivers":[{"label":"Rain, total of the last 14 days (mm)","value":37.8},{"label":"Rain, total of the last 3 days (mm)","value":0.2},{"label":"Air temperature, mean of the last 7 days (°C)","value":13.771}],"weather_through":"2026-10-04","model_version":"pnw-pilot-t1-synthetic-1cbe08ab21a8"}},{"type":"Feature","id":"476_-1221","geometry":{"type":"Polygon","coordinates":[[[-122.15,47.55],[-122.05,47.55],[-122.05,47.65],[-122.15,47.65],[-122.15,47.55]]]},"properties":{"group":"cantharellus","week":"2026-10-05","chance":0.1313,"uncertainty_low":null,"uncertainty_high":null,"applicable":true,"drivers":[{"label":"Rain, total of the last 14 days (mm)","value":50.2},{"label":"Rain, total of the last 3 days (mm)","value":0.2},{"label":"Air temperature, mean of the last 7 days (°C)","value":13.643}],"weather_through":"2026-10-04","model_version":"pnw-pilot-t1-synthetic-1cbe08ab21a8"}},{"type":"Feature","id":"477_-1224","geometry":{"type":"Polygon","coordinates":[[[-122.45,47.65],[-122.35,47.65],[-122.35,47.75],[-122.45,47.75],[-122.45,47.65]]]},"properties":{"group":"cantharellus","week":"2026-10-05","chance":0.1313,"uncertainty_low":null,"uncertainty_high":null,"applicable":true,"drivers":[{"label":"Rain, total of the last 14 days (mm)","value":39.0},{"label":"Rain, total of the last 3 days (mm)","value":0.3},{"label":"Air temperature, mean of the last 7 days (°C)","value":14.057}],"weather_through":"2026-10-04","model_version":"pnw-pilot-t1-synthetic-1cbe08ab21a8"}},{"type":"Feature","id":"477_-1223","geometry":{"type":"Polygon","coordinates":[[[-122.35,47.65],[-122.25,47.65],[-122.25,47.75],[-122.35,47.75],[-122.35,47.65]]]},"properties":{"group":"cantharellus","week":"2026-10-05","chance":0.1313,"uncertainty_low":null,"uncertainty_high":null,"applicable":true,"drivers":[{"label":"Rain, total of the last 14 days (mm)","value":49.0},{"label":"Rain, total of the last 3 days (mm)","value":0.3},{"label":"Air temperature, mean of the last 7 days (°C)","value":13.8}],"weather_through":"2026-10-04","model_version":"pnw-pilot-t1-synthetic-1cbe08ab21a8"}},{"type":"Feature","id":"477_-1222","geometry":{"type":"Polygon","coordinates":[[[-122.25,47.65],[-122.15,47.65],[-122.15,47.75],[-122.25,47.75],[-122.25,47.65]]]},"properties":{"group":"cantharellus","week":"2026-10-05","chance":0.1313,"uncertainty_low":null,"uncertainty_high":null,"applicable":true,"drivers":[{"label":"Rain, total of the last 14 days (mm)","value":49.0},{"label":"Rain, total of the last 3 days (mm)","value":0.3},{"label":"Air temperature, mean of the last 7 days (°C)","value":13.543}],"weather_through":"2026-10-04","model_version":"pnw-pilot-t1-synthetic-1cbe08ab21a8"}},{"type":"Feature","id":"477_-1221","geometry":{"type":"Polygon","coordinates":[[[-122.15,47.65],[-122.05,47.65],[-122.05,47.75],[-122.15,47.75],[-122.15,47.65]]]},"properties":{"group":"cantharellus","week":"2026-10-05","chance":0.1313,"uncertainty_low":null,"uncertainty_high":null,"applicable":true,"drivers":[{"label":"Rain, total of the last 14 days (mm)","value":62.9},{"label":"Rain, total of the last 3 days (mm)","value":0.6},{"label":"Air temperature, mean of the last 7 days (°C)","value":13.329}],"weather_through":"2026-10-04","model_version":"pnw-pilot-t1-synthetic-1cbe08ab21a8"}},{"type":"Feature","id":"478_-1226","geometry":{"type":"Polygon","coordinates":[[[-122.65,47.75],[-122.55,47.75],[-122.55,47.85],[-122.65,47.85],[-122.65,47.75]]]},"properties":{"group":"cantharellus","week":"2026-10-05","chance":0.1313,"uncertainty_low":null,"uncertainty_high":null,"applicable":true,"drivers":[{"label":"Rain, total of the last 14 days (mm)","value":39.0},{"label":"Rain, total of the last 3 days (mm)","value":0.3},{"label":"Air temperature, mean of the last 7 days (°C)","value":13.971}],"weather_through":"2026-10-04","model_version":"pnw-pilot-t1-synthetic-1cbe08ab21a8"}},{"type":"Feature","id":"478_-1225","geometry":{"type":"Polygon","coordinates":[[[-122.55,47.75],[-122.45,47.75],[-122.45,47.85],[-122.55,47.85],[-122.55,47.75]]]},"properties":{"group":"cantharellus","week":"2026-10-05","chance":0.1313,"uncertainty_low":null,"uncertainty_high":null,"applicable":true,"drivers":[{"label":"Rain, total of the last 14 days (mm)","value":39.0},{"label":"Rain, total of the last 3 days (mm)","value":0.3},{"label":"Air temperature, mean of the last 7 days (°C)","value":14.214}],"weather_through":"2026-10-04","model_version":"pnw-pilot-t1-synthetic-1cbe08ab21a8"}},{"type":"Feature","id":"478_-1224","geometry":{"type":"Polygon","coordinates":[[[-122.45,47.75],[-122.35,47.75],[-122.35,47.85],[-122.45,47.85],[-122.45,47.75]]]},"properties":{"group":"cantharellus","week":"2026-10-05","chance":0.1313,"uncertainty_low":null,"uncertainty_high":null,"applicable":true,"drivers":[{"label":"Rain, total of the last 14 days (mm)","value":39.0},{"label":"Rain, total of the last 3 days (mm)","value":0.3},{"label":"Air temperature, mean of the last 7 days (°C)","value":14.214}],"weather_through":"2026-10-04","model_version":"pnw-pilot-t1-synthetic-1cbe08ab21a8"}},{"type":"Feature","id":"478_-1223","geometry":{"type":"Polygon","coordinates":[[[-122.35,47.75],[-122.25,47.75],[-122.25,47.85],[-122.35,47.85],[-122.35,47.75]]]},"properties":{"group":"cantharellus","week":"2026-10-05","chance":0.1313,"uncertainty_low":null,"uncertainty_high":null,"applicable":true,"drivers":[{"label":"Rain, total of the last 14 days (mm)","value":49.0},{"label":"Rain, total of the last 3 days (mm)","value":0.3},{"label":"Air temperature, mean of the last 7 days (°C)","value":13.543}],"weather_through":"2026-10-04","model_version":"pnw-pilot-t1-synthetic-1cbe08ab21a8"}},{"type":"Feature","id":"478_-1222","geometry":{"type":"Polygon","coordinates":[[[-122.25,47.75],[-122.15,47.75],[-122.15,47.85],[-122.25,47.85],[-122.25,47.75]]]},"properties":{"group":"cantharellus","week":"2026-10-05","chance":0.1313,"uncertainty_low":null,"uncertainty_high":null,"applicable":true,"drivers":[{"label":"Rain, total of the last 14 days (mm)","value":49.0},{"label":"Rain, total of the last 3 days (mm)","value":0.3},{"label":"Air temperature, mean of the last 7 days (°C)","value":13.343}],"weather_through":"2026-10-04","model_version":"pnw-pilot-t1-synthetic-1cbe08ab21a8"}},{"type":"Feature","id":"478_-1221","geometry":{"type":"Polygon","coordinates":[[[-122.15,47.75],[-122.05,47.75],[-122.05,47.85],[-122.15,47.85],[-122.15,47.75]]]},"properties":{"group":"cantharellus","week":"2026-10-05","chance":0.1313,"uncertainty_low":null,"uncertainty_high":null,"applicable":true,"drivers":[{"label":"Rain, total of the last 14 days (mm)","value":62.9},{"label":"Rain, total of the last 3 days (mm)","value":0.6},{"label":"Air temperature, mean of the last 7 days (°C)","value":13.329}],"weather_through":"2026-10-04","model_version":"pnw-pilot-t1-synthetic-1cbe08ab21a8"}},{"type":"Feature","id":"479_-1226","geometry":{"type":"Polygon","coordinates":[[[-122.65,47.85],[-122.55,47.85],[-122.55,47.95],[-122.65,47.95],[-122.65,47.85]]]},"properties":{"group":"cantharellus","week":"2026-10-05","chance":0.1313,"uncertainty_low":null,"uncertainty_high":null,"applicable":true,"drivers":[{"label":"Rain, total of the last 14 days (mm)","value":51.7},{"label":"Rain, total of the last 3 days (mm)","value":0.5},{"label":"Air temperature, mean of the last 7 days (°C)","value":13.586}],"weather_through":"2026-10-04","model_version":"pnw-pilot-t1-synthetic-1cbe08ab21a8"}},{"type":"Feature","id":"479_-1223","geometry":{"type":"Polygon","coordinates":[[[-122.35,47.85],[-122.25,47.85],[-122.25,47.95],[-122.35,47.95],[-122.35,47.85]]]},"properties":{"group":"cantharellus","week":"2026-10-05","chance":0.1313,"uncertainty_low":null,"uncertainty_high":null,"applicable":true,"drivers":[{"label":"Rain, total of the last 14 days (mm)","value":61.0},{"label":"Rain, total of the last 3 days (mm)","value":0.7},{"label":"Air temperature, mean of the last 7 days (°C)","value":13.429}],"weather_through":"2026-10-04","model_version":"pnw-pilot-t1-synthetic-1cbe08ab21a8"}},{"type":"Feature","id":"479_-1222","geometry":{"type":"Polygon","coordinates":[[[-122.25,47.85],[-122.15,47.85],[-122.15,47.95],[-122.25,47.95],[-122.25,47.85]]]},"properties":{"group":"cantharellus","week":"2026-10-05","chance":0.1313,"uncertainty_low":null,"uncertainty_high":null,"applicable":true,"drivers":[{"label":"Rain, total of the last 14 days (mm)","value":61.0},{"label":"Rain, total of the last 3 days (mm)","value":0.7},{"label":"Air temperature, mean of the last 7 days (°C)","value":13.414}],"weather_through":"2026-10-04","model_version":"pnw-pilot-t1-synthetic-1cbe08ab21a8"}},{"type":"Feature","id":"479_-1221","geometry":{"type":"Polygon","coordinates":[[[-122.15,47.85],[-122.05,47.85],[-122.05,47.95],[-122.15,47.95],[-122.15,47.85]]]},"properties":{"group":"cantharellus","week":"2026-10-05","chance":0.1313,"uncertainty_low":null,"uncertainty_high":null,"applicable":true,"drivers":[{"label":"Rain, total of the last 14 days (mm)","value":70.2},{"label":"Rain, total of the last 3 days (mm)","value":1.0},{"label":"Air temperature, mean of the last 7 days (°C)","value":13.429}],"weather_through":"2026-10-04","model_version":"pnw-pilot-t1-synthetic-1cbe08ab21a8"}}]}