{"type":"FeatureCollection","features":[{"type":"Feature","id":"470_-1210","geometry":{"type":"Polygon","coordinates":[[[-121.05,46.95],[-120.95,46.95],[-120.95,47.05],[-121.05,47.05],[-121.05,46.95]]]},"properties":{"group":"cantharellus","week":"2026-10-05","chance":0.0277,"uncertainty_low":null,"uncertainty_high":null,"applicable":true,"drivers":[],"weather_through":null,"model_version":"pnw-pilot-t1-calendar-e2c272b7acfa"}},{"type":"Feature","id":"471_-1210","geometry":{"type":"Polygon","coordinates":[[[-121.05,47.05],[-120.95,47.05],[-120.95,47.15],[-121.05,47.15],[-121.05,47.05]]]},"properties":{"group":"cantharellus","week":"2026-10-05","chance":0.0414,"uncertainty_low":null,"uncertainty_high":null,"applicable":true,"drivers":[],"weather_through":null,"model_version":"pnw-pilot-t1-calendar-e2c272b7acfa"}},{"type":"Feature","id":"472_-1210","geometry":{"type":"Polygon","coordinates":[[[-121.05,47.15],[-120.95,47.15],[-120.95,47.25],[-121.05,47.25],[-121.05,47.15]]]},"properties":{"group":"cantharellus","week":"2026-10-05","chance":0.0403,"uncertainty_low":null,"uncertainty_high":null,"applicable":true,"drivers":[],"weather_through":null,"model_version":"pnw-pilot-t1-calendar-e2c272b7acfa"}},{"type":"Feature","id":"473_-1210","geometry":{"type":"Polygon","coordinates":[[[-121.05,47.25],[-120.95,47.25],[-120.95,47.35],[-121.05,47.35],[-121.05,47.25]]]},"properties":{"group":"cantharellus","week":"2026-10-05","chance":0.0403,"uncertainty_low":null,"uncertainty_high":null,"applicable":true,"drivers":[],"weather_through":null,"model_version":"pnw-pilot-t1-calendar-e2c272b7acfa"}},{"type":"Feature","id":"474_-1210","geometry":{"type":"Polygon","coordinates":[[[-121.05,47.35],[-120.95,47.35],[-120.95,47.45],[-121.05,47.45],[-121.05,47.35]]]},"properties":{"group":"cantharellus","week":"2026-10-05","chance":0.0415,"uncertainty_low":null,"uncertainty_high":null,"applicable":true,"drivers":[],"weather_through":null,"model_version":"pnw-pilot-t1-calendar-e2c272b7acfa"}},{"type":"Feature","id":"475_-1210","geometry":{"type":"Polygon","coordinates":[[[-121.05,47.45],[-120.95,47.45],[-120.95,47.55],[-121.05,47.55],[-121.05,47.45]]]},"properties":{"group":"cantharellus","week":"2026-10-05","chance":0.0381,"uncertainty_low":null,"uncertainty_high":null,"applicable":true,"drivers":[],"weather_through":null,"model_version":"pnw-pilot-t1-calendar-e2c272b7acfa"}},{"type":"Feature","id":"476_-1210","geometry":{"type":"Polygon","coordinates":[[[-121.05,47.55],[-120.95,47.55],[-120.95,47.65],[-121.05,47.65],[-121.05,47.55]]]},"properties":{"group":"cantharellus","week":"2026-10-05","chance":0.0283,"uncertainty_low":null,"uncertainty_high":null,"applicable":true,"drivers":[],"weather_through":null,"model_version":"pnw-pilot-t1-calendar-e2c272b7acfa"}},{"type":"Feature","id":"477_-1210","geometry":{"type":"Polygon","coordinates":[[[-121.05,47.65],[-120.95,47.65],[-120.95,47.75],[-121.05,47.75],[-121.05,47.65]]]},"properties":{"group":"cantharellus","week":"2026-10-05","chance":0.027,"uncertainty_low":null,"uncertainty_high":null,"applicable":true,"drivers":[],"weather_through":null,"model_version":"pnw-pilot-t1-calendar-e2c272b7acfa"}},{"type":"Feature","id":"478_-1210","geometry":{"type":"Polygon","coordinates":[[[-121.05,47.75],[-120.95,47.75],[-120.95,47.85],[-121.05,47.85],[-121.05,47.75]]]},"properties":{"group":"cantharellus","week":"2026-10-05","chance":0.027,"uncertainty_low":null,"uncertainty_high":null,"applicable":true,"drivers":[],"weather_through":null,"model_version":"pnw-pilot-t1-calendar-e2c272b7acfa"}},{"type":"Feature","id":"479_-1210","geometry":{"type":"Polygon","coordinates":[[[-121.05,47.85],[-120.95,47.85],[-120.95,47.95],[-121.05,47.95],[-121.05,47.85]]]},"properties":{"group":"cantharellus","week":"2026-10-05","chance":0.0243,"uncertainty_low":null,"uncertainty_high":null,"applicable":true,"drivers":[],"weather_through":null,"model_version":"pnw-pilot-t1-calendar-e2c272b7acfa"}}]}