{"type":"FeatureCollection","features":[{"type":"Feature","id":"470_-1236","geometry":{"type":"Polygon","coordinates":[[[-123.65,46.95],[-123.55,46.95],[-123.55,47.05],[-123.65,47.05],[-123.65,46.95]]]},"properties":{"group":"cantharellus","week":"2026-10-05","chance":0.0621,"uncertainty_low":null,"uncertainty_high":null,"applicable":true,"drivers":[],"weather_through":"2026-10-04","model_version":"pnw-pilot-t1-calendar-e2c272b7acfa"}},{"type":"Feature","id":"470_-1231","geometry":{"type":"Polygon","coordinates":[[[-123.15,46.95],[-123.05,46.95],[-123.05,47.05],[-123.15,47.05],[-123.15,46.95]]]},"properties":{"group":"cantharellus","week":"2026-10-05","chance":0.0415,"uncertainty_low":null,"uncertainty_high":null,"applicable":true,"drivers":[],"weather_through":"2026-10-04","model_version":"pnw-pilot-t1-calendar-e2c272b7acfa"}},{"type":"Feature","id":"471_-1231","geometry":{"type":"Polygon","coordinates":[[[-123.15,47.05],[-123.05,47.05],[-123.05,47.15],[-123.15,47.15],[-123.15,47.05]]]},"properties":{"group":"cantharellus","week":"2026-10-05","chance":0.0467,"uncertainty_low":null,"uncertainty_high":null,"applicable":true,"drivers":[],"weather_through":"2026-10-04","model_version":"pnw-pilot-t1-calendar-e2c272b7acfa"}},{"type":"Feature","id":"472_-1231","geometry":{"type":"Polygon","coordinates":[[[-123.15,47.15],[-123.05,47.15],[-123.05,47.25],[-123.15,47.25],[-123.15,47.15]]]},"properties":{"group":"cantharellus","week":"2026-10-05","chance":0.0467,"uncertainty_low":null,"uncertainty_high":null,"applicable":true,"drivers":[],"weather_through":"2026-10-04","model_version":"pnw-pilot-t1-calendar-e2c272b7acfa"}},{"type":"Feature","id":"473_-1231","geometry":{"type":"Polygon","coordinates":[[[-123.15,47.25],[-123.05,47.25],[-123.05,47.35],[-123.15,47.35],[-123.15,47.25]]]},"properties":{"group":"cantharellus","week":"2026-10-05","chance":0.0467,"uncertainty_low":null,"uncertainty_high":null,"applicable":true,"drivers":[],"weather_through":"2026-10-04","model_version":"pnw-pilot-t1-calendar-e2c272b7acfa"}},{"type":"Feature","id":"474_-1234","geometry":{"type":"Polygon","coordinates":[[[-123.45,47.35],[-123.35,47.35],[-123.35,47.45],[-123.45,47.45],[-123.45,47.35]]]},"properties":{"group":"cantharellus","week":"2026-10-05","chance":0.0713,"uncertainty_low":null,"uncertainty_high":null,"applicable":true,"drivers":[],"weather_through":"2026-10-04","model_version":"pnw-pilot-t1-calendar-e2c272b7acfa"}},{"type":"Feature","id":"474_-1233","geometry":{"type":"Polygon","coordinates":[[[-123.35,47.35],[-123.25,47.35],[-123.25,47.45],[-123.35,47.45],[-123.35,47.35]]]},"properties":{"group":"cantharellus","week":"2026-10-05","chance":0.0547,"uncertainty_low":null,"uncertainty_high":null,"applicable":true,"drivers":[],"weather_through":"2026-10-04","model_version":"pnw-pilot-t1-calendar-e2c272b7acfa"}},{"type":"Feature","id":"474_-1232","geometry":{"type":"Polygon","coordinates":[[[-123.25,47.35],[-123.15,47.35],[-123.15,47.45],[-123.25,47.45],[-123.25,47.35]]]},"properties":{"group":"cantharellus","week":"2026-10-05","chance":0.0494,"uncertainty_low":null,"uncertainty_high":null,"applicable":true,"drivers":[],"weather_through":"2026-10-04","model_version":"pnw-pilot-t1-calendar-e2c272b7acfa"}},{"type":"Feature","id":"475_-1239","geometry":{"type":"Polygon","coordinates":[[[-123.95,47.45],[-123.85,47.45],[-123.85,47.55],[-123.95,47.55],[-123.95,47.45]]]},"properties":{"group":"cantharellus","week":"2026-10-05","chance":0.0734,"uncertainty_low":null,"uncertainty_high":null,"applicable":true,"drivers":[],"weather_through":"2026-10-04","model_version":"pnw-pilot-t1-calendar-e2c272b7acfa"}},{"type":"Feature","id":"475_-1238","geometry":{"type":"Polygon","coordinates":[[[-123.85,47.45],[-123.75,47.45],[-123.75,47.55],[-123.85,47.55],[-123.85,47.45]]]},"properties":{"group":"cantharellus","week":"2026-10-05","chance":0.0805,"uncertainty_low":null,"uncertainty_high":null,"applicable":true,"drivers":[],"weather_through":"2026-10-04","model_version":"pnw-pilot-t1-calendar-e2c272b7acfa"}},{"type":"Feature","id":"475_-1233","geometry":{"type":"Polygon","coordinates":[[[-123.35,47.45],[-123.25,47.45],[-123.25,47.55],[-123.35,47.55],[-123.35,47.45]]]},"properties":{"group":"cantharellus","week":"2026-10-05","chance":0.0552,"uncertainty_low":null,"uncertainty_high":null,"applicable":true,"drivers":[],"weather_through":"2026-10-04","model_version":"pnw-pilot-t1-calendar-e2c272b7acfa"}},{"type":"Feature","id":"475_-1232","geometry":{"type":"Polygon","coordinates":[[[-123.25,47.45],[-123.15,47.45],[-123.15,47.55],[-123.25,47.55],[-123.25,47.45]]]},"properties":{"group":"cantharellus","week":"2026-10-05","chance":0.0498,"uncertainty_low":null,"uncertainty_high":null,"applicable":true,"drivers":[],"weather_through":"2026-10-04","model_version":"pnw-pilot-t1-calendar-e2c272b7acfa"}},{"type":"Feature","id":"476_-1232","geometry":{"type":"Polygon","coordinates":[[[-123.25,47.55],[-123.15,47.55],[-123.15,47.65],[-123.25,47.65],[-123.25,47.55]]]},"properties":{"group":"cantharellus","week":"2026-10-05","chance":0.0253,"uncertainty_low":null,"uncertainty_high":null,"applicable":true,"drivers":[],"weather_through":"2026-10-04","model_version":"pnw-pilot-t1-calendar-e2c272b7acfa"}},{"type":"Feature","id":"477_-1231","geometry":{"type":"Polygon","coordinates":[[[-123.15,47.65],[-123.05,47.65],[-123.05,47.75],[-123.15,47.75],[-123.15,47.65]]]},"properties":{"group":"cantharellus","week":"2026-10-05","chance":0.0228,"uncertainty_low":null,"uncertainty_high":null,"applicable":true,"drivers":[],"weather_through":"2026-10-04","model_version":"pnw-pilot-t1-calendar-e2c272b7acfa"}},{"type":"Feature","id":"478_-1231","geometry":{"type":"Polygon","coordinates":[[[-123.15,47.75],[-123.05,47.75],[-123.05,47.85],[-123.15,47.85],[-123.15,47.75]]]},"properties":{"group":"cantharellus","week":"2026-10-05","chance":0.0228,"uncertainty_low":null,"uncertainty_high":null,"applicable":true,"drivers":[],"weather_through":"2026-10-04","model_version":"pnw-pilot-t1-calendar-e2c272b7acfa"}},{"type":"Feature","id":"479_-1239","geometry":{"type":"Polygon","coordinates":[[[-123.95,47.85],[-123.85,47.85],[-123.85,47.95],[-123.95,47.95],[-123.95,47.85]]]},"properties":{"group":"cantharellus","week":"2026-10-05","chance":0.0687,"uncertainty_low":null,"uncertainty_high":null,"applicable":true,"drivers":[],"weather_through":"2026-10-04","model_version":"pnw-pilot-t1-calendar-e2c272b7acfa"}},{"type":"Feature","id":"479_-1238","geometry":{"type":"Polygon","coordinates":[[[-123.85,47.85],[-123.75,47.85],[-123.75,47.95],[-123.85,47.95],[-123.85,47.85]]]},"properties":{"group":"cantharellus","week":"2026-10-05","chance":0.0668,"uncertainty_low":null,"uncertainty_high":null,"applicable":true,"drivers":[],"weather_through":"2026-10-04","model_version":"pnw-pilot-t1-calendar-e2c272b7acfa"}},{"type":"Feature","id":"479_-1231","geometry":{"type":"Polygon","coordinates":[[[-123.15,47.85],[-123.05,47.85],[-123.05,47.95],[-123.15,47.95],[-123.15,47.85]]]},"properties":{"group":"cantharellus","week":"2026-10-05","chance":0.0158,"uncertainty_low":null,"uncertainty_high":null,"applicable":true,"drivers":[],"weather_through":"2026-10-04","model_version":"pnw-pilot-t1-calendar-e2c272b7acfa"}}]}