{"type":"FeatureCollection","features":[{"type":"Feature","id":"470_-1220","geometry":{"type":"Polygon","coordinates":[[[-122.05,46.95],[-121.95,46.95],[-121.95,47.05],[-122.05,47.05],[-122.05,46.95]]]},"properties":{"group":"cantharellus","week":"2026-10-05","chance":0.0378,"uncertainty_low":null,"uncertainty_high":null,"applicable":true,"drivers":[],"weather_through":null,"model_version":"pnw-pilot-t1-calendar-e2c272b7acfa"}},{"type":"Feature","id":"470_-1219","geometry":{"type":"Polygon","coordinates":[[[-121.95,46.95],[-121.85,46.95],[-121.85,47.05],[-121.95,47.05],[-121.95,46.95]]]},"properties":{"group":"cantharellus","week":"2026-10-05","chance":0.0464,"uncertainty_low":null,"uncertainty_high":null,"applicable":true,"drivers":[],"weather_through":null,"model_version":"pnw-pilot-t1-calendar-e2c272b7acfa"}},{"type":"Feature","id":"470_-1218","geometry":{"type":"Polygon","coordinates":[[[-121.85,46.95],[-121.75,46.95],[-121.75,47.05],[-121.85,47.05],[-121.85,46.95]]]},"properties":{"group":"cantharellus","week":"2026-10-05","chance":0.036,"uncertainty_low":null,"uncertainty_high":null,"applicable":true,"drivers":[],"weather_through":null,"model_version":"pnw-pilot-t1-calendar-e2c272b7acfa"}},{"type":"Feature","id":"470_-1217","geometry":{"type":"Polygon","coordinates":[[[-121.75,46.95],[-121.65,46.95],[-121.65,47.05],[-121.75,47.05],[-121.75,46.95]]]},"properties":{"group":"cantharellus","week":"2026-10-05","chance":0.036,"uncertainty_low":null,"uncertainty_high":null,"applicable":true,"drivers":[],"weather_through":null,"model_version":"pnw-pilot-t1-calendar-e2c272b7acfa"}},{"type":"Feature","id":"470_-1216","geometry":{"type":"Polygon","coordinates":[[[-121.65,46.95],[-121.55,46.95],[-121.55,47.05],[-121.65,47.05],[-121.65,46.95]]]},"properties":{"group":"cantharellus","week":"2026-10-05","chance":0.0445,"uncertainty_low":null,"uncertainty_high":null,"applicable":true,"drivers":[],"weather_through":null,"model_version":"pnw-pilot-t1-calendar-e2c272b7acfa"}},{"type":"Feature","id":"470_-1215","geometry":{"type":"Polygon","coordinates":[[[-121.55,46.95],[-121.45,46.95],[-121.45,47.05],[-121.55,47.05],[-121.55,46.95]]]},"properties":{"group":"cantharellus","week":"2026-10-05","chance":0.0276,"uncertainty_low":null,"uncertainty_high":null,"applicable":true,"drivers":[],"weather_through":null,"model_version":"pnw-pilot-t1-calendar-e2c272b7acfa"}},{"type":"Feature","id":"470_-1214","geometry":{"type":"Polygon","coordinates":[[[-121.45,46.95],[-121.35,46.95],[-121.35,47.05],[-121.45,47.05],[-121.45,46.95]]]},"properties":{"group":"cantharellus","week":"2026-10-05","chance":0.026,"uncertainty_low":null,"uncertainty_high":null,"applicable":true,"drivers":[],"weather_through":null,"model_version":"pnw-pilot-t1-calendar-e2c272b7acfa"}},{"type":"Feature","id":"470_-1213","geometry":{"type":"Polygon","coordinates":[[[-121.35,46.95],[-121.25,46.95],[-121.25,47.05],[-121.35,47.05],[-121.35,46.95]]]},"properties":{"group":"cantharellus","week":"2026-10-05","chance":0.026,"uncertainty_low":null,"uncertainty_high":null,"applicable":true,"drivers":[],"weather_through":null,"model_version":"pnw-pilot-t1-calendar-e2c272b7acfa"}},{"type":"Feature","id":"470_-1212","geometry":{"type":"Polygon","coordinates":[[[-121.25,46.95],[-121.15,46.95],[-121.15,47.05],[-121.25,47.05],[-121.25,46.95]]]},"properties":{"group":"cantharellus","week":"2026-10-05","chance":0.026,"uncertainty_low":null,"uncertainty_high":null,"applicable":true,"drivers":[],"weather_through":null,"model_version":"pnw-pilot-t1-calendar-e2c272b7acfa"}},{"type":"Feature","id":"470_-1211","geometry":{"type":"Polygon","coordinates":[[[-121.15,46.95],[-121.05,46.95],[-121.05,47.05],[-121.15,47.05],[-121.15,46.95]]]},"properties":{"group":"cantharellus","week":"2026-10-05","chance":0.0277,"uncertainty_low":null,"uncertainty_high":null,"applicable":true,"drivers":[],"weather_through":null,"model_version":"pnw-pilot-t1-calendar-e2c272b7acfa"}},{"type":"Feature","id":"471_-1220","geometry":{"type":"Polygon","coordinates":[[[-122.05,47.05],[-121.95,47.05],[-121.95,47.15],[-122.05,47.15],[-122.05,47.05]]]},"properties":{"group":"cantharellus","week":"2026-10-05","chance":0.0299,"uncertainty_low":null,"uncertainty_high":null,"applicable":true,"drivers":[],"weather_through":null,"model_version":"pnw-pilot-t1-calendar-e2c272b7acfa"}},{"type":"Feature","id":"471_-1219","geometry":{"type":"Polygon","coordinates":[[[-121.95,47.05],[-121.85,47.05],[-121.85,47.15],[-121.95,47.15],[-121.95,47.05]]]},"properties":{"group":"cantharellus","week":"2026-10-05","chance":0.046,"uncertainty_low":null,"uncertainty_high":null,"applicable":true,"drivers":[],"weather_through":null,"model_version":"pnw-pilot-t1-calendar-e2c272b7acfa"}},{"type":"Feature","id":"471_-1218","geometry":{"type":"Polygon","coordinates":[[[-121.85,47.05],[-121.75,47.05],[-121.75,47.15],[-121.85,47.15],[-121.85,47.05]]]},"properties":{"group":"cantharellus","week":"2026-10-05","chance":0.0369,"uncertainty_low":null,"uncertainty_high":null,"applicable":true,"drivers":[],"weather_through":null,"model_version":"pnw-pilot-t1-calendar-e2c272b7acfa"}},{"type":"Feature","id":"471_-1217","geometry":{"type":"Polygon","coordinates":[[[-121.75,47.05],[-121.65,47.05],[-121.65,47.15],[-121.75,47.15],[-121.75,47.05]]]},"properties":{"group":"cantharellus","week":"2026-10-05","chance":0.0369,"uncertainty_low":null,"uncertainty_high":null,"applicable":true,"drivers":[],"weather_through":null,"model_version":"pnw-pilot-t1-calendar-e2c272b7acfa"}},{"type":"Feature","id":"471_-1216","geometry":{"type":"Polygon","coordinates":[[[-121.65,47.05],[-121.55,47.05],[-121.55,47.15],[-121.65,47.15],[-121.65,47.05]]]},"properties":{"group":"cantharellus","week":"2026-10-05","chance":0.0501,"uncertainty_low":null,"uncertainty_high":null,"applicable":true,"drivers":[],"weather_through":null,"model_version":"pnw-pilot-t1-calendar-e2c272b7acfa"}},{"type":"Feature","id":"471_-1215","geometry":{"type":"Polygon","coordinates":[[[-121.55,47.05],[-121.45,47.05],[-121.45,47.15],[-121.55,47.15],[-121.55,47.05]]]},"properties":{"group":"cantharellus","week":"2026-10-05","chance":0.0413,"uncertainty_low":null,"uncertainty_high":null,"applicable":true,"drivers":[],"weather_through":null,"model_version":"pnw-pilot-t1-calendar-e2c272b7acfa"}},{"type":"Feature","id":"471_-1214","geometry":{"type":"Polygon","coordinates":[[[-121.45,47.05],[-121.35,47.05],[-121.35,47.15],[-121.45,47.15],[-121.45,47.05]]]},"properties":{"group":"cantharellus","week":"2026-10-05","chance":0.0389,"uncertainty_low":null,"uncertainty_high":null,"applicable":true,"drivers":[],"weather_through":null,"model_version":"pnw-pilot-t1-calendar-e2c272b7acfa"}},{"type":"Feature","id":"471_-1213","geometry":{"type":"Polygon","coordinates":[[[-121.35,47.05],[-121.25,47.05],[-121.25,47.15],[-121.35,47.15],[-121.35,47.05]]]},"properties":{"group":"cantharellus","week":"2026-10-05","chance":0.0389,"uncertainty_low":null,"uncertainty_high":null,"applicable":true,"drivers":[],"weather_through":null,"model_version":"pnw-pilot-t1-calendar-e2c272b7acfa"}},{"type":"Feature","id":"471_-1212","geometry":{"type":"Polygon","coordinates":[[[-121.25,47.05],[-121.15,47.05],[-121.15,47.15],[-121.25,47.15],[-121.25,47.05]]]},"properties":{"group":"cantharellus","week":"2026-10-05","chance":0.0389,"uncertainty_low":null,"uncertainty_high":null,"applicable":true,"drivers":[],"weather_through":null,"model_version":"pnw-pilot-t1-calendar-e2c272b7acfa"}},{"type":"Feature","id":"471_-1211","geometry":{"type":"Polygon","coordinates":[[[-121.15,47.05],[-121.05,47.05],[-121.05,47.15],[-121.15,47.15],[-121.15,47.05]]]},"properties":{"group":"cantharellus","week":"2026-10-05","chance":0.0414,"uncertainty_low":null,"uncertainty_high":null,"applicable":true,"drivers":[],"weather_through":null,"model_version":"pnw-pilot-t1-calendar-e2c272b7acfa"}},{"type":"Feature","id":"472_-1220","geometry":{"type":"Polygon","coordinates":[[[-122.05,47.15],[-121.95,47.15],[-121.95,47.25],[-122.05,47.25],[-122.05,47.15]]]},"properties":{"group":"cantharellus","week":"2026-10-05","chance":0.0285,"uncertainty_low":null,"uncertainty_high":null,"applicable":true,"drivers":[],"weather_through":null,"model_version":"pnw-pilot-t1-calendar-e2c272b7acfa"}},{"type":"Feature","id":"472_-1219","geometry":{"type":"Polygon","coordinates":[[[-121.95,47.15],[-121.85,47.15],[-121.85,47.25],[-121.95,47.25],[-121.95,47.15]]]},"properties":{"group":"cantharellus","week":"2026-10-05","chance":0.0447,"uncertainty_low":null,"uncertainty_high":null,"applicable":true,"drivers":[],"weather_through":null,"model_version":"pnw-pilot-t1-calendar-e2c272b7acfa"}},{"type":"Feature","id":"472_-1218","geometry":{"type":"Polygon","coordinates":[[[-121.85,47.15],[-121.75,47.15],[-121.75,47.25],[-121.85,47.25],[-121.85,47.15]]]},"properties":{"group":"cantharellus","week":"2026-10-05","chance":0.0359,"uncertainty_low":null,"uncertainty_high":null,"applicable":true,"drivers":[],"weather_through":null,"model_version":"pnw-pilot-t1-calendar-e2c272b7acfa"}},{"type":"Feature","id":"472_-1217","geometry":{"type":"Polygon","coordinates":[[[-121.75,47.15],[-121.65,47.15],[-121.65,47.25],[-121.75,47.25],[-121.75,47.15]]]},"properties":{"group":"cantharellus","week":"2026-10-05","chance":0.0359,"uncertainty_low":null,"uncertainty_high":null,"applicable":true,"drivers":[],"weather_through":null,"model_version":"pnw-pilot-t1-calendar-e2c272b7acfa"}},{"type":"Feature","id":"472_-1216","geometry":{"type":"Polygon","coordinates":[[[-121.65,47.15],[-121.55,47.15],[-121.55,47.25],[-121.65,47.25],[-121.65,47.15]]]},"properties":{"group":"cantharellus","week":"2026-10-05","chance":0.0471,"uncertainty_low":null,"uncertainty_high":null,"applicable":true,"drivers":[],"weather_through":null,"model_version":"pnw-pilot-t1-calendar-e2c272b7acfa"}},{"type":"Feature","id":"472_-1215","geometry":{"type":"Polygon","coordinates":[[[-121.55,47.15],[-121.45,47.15],[-121.45,47.25],[-121.55,47.25],[-121.55,47.15]]]},"properties":{"group":"cantharellus","week":"2026-10-05","chance":0.0402,"uncertainty_low":null,"uncertainty_high":null,"applicable":true,"drivers":[],"weather_through":null,"model_version":"pnw-pilot-t1-calendar-e2c272b7acfa"}},{"type":"Feature","id":"472_-1214","geometry":{"type":"Polygon","coordinates":[[[-121.45,47.15],[-121.35,47.15],[-121.35,47.25],[-121.45,47.25],[-121.45,47.15]]]},"properties":{"group":"cantharellus","week":"2026-10-05","chance":0.0379,"uncertainty_low":null,"uncertainty_high":null,"applicable":true,"drivers":[],"weather_through":null,"model_version":"pnw-pilot-t1-calendar-e2c272b7acfa"}},{"type":"Feature","id":"472_-1213","geometry":{"type":"Polygon","coordinates":[[[-121.35,47.15],[-121.25,47.15],[-121.25,47.25],[-121.35,47.25],[-121.35,47.15]]]},"properties":{"group":"cantharellus","week":"2026-10-05","chance":0.0379,"uncertainty_low":null,"uncertainty_high":null,"applicable":true,"drivers":[],"weather_through":null,"model_version":"pnw-pilot-t1-calendar-e2c272b7acfa"}},{"type":"Feature","id":"472_-1212","geometry":{"type":"Polygon","coordinates":[[[-121.25,47.15],[-121.15,47.15],[-121.15,47.25],[-121.25,47.25],[-121.25,47.15]]]},"properties":{"group":"cantharellus","week":"2026-10-05","chance":0.0379,"uncertainty_low":null,"uncertainty_high":null,"applicable":true,"drivers":[],"weather_through":null,"model_version":"pnw-pilot-t1-calendar-e2c272b7acfa"}},{"type":"Feature","id":"472_-1211","geometry":{"type":"Polygon","coordinates":[[[-121.15,47.15],[-121.05,47.15],[-121.05,47.25],[-121.15,47.25],[-121.15,47.15]]]},"properties":{"group":"cantharellus","week":"2026-10-05","chance":0.0403,"uncertainty_low":null,"uncertainty_high":null,"applicable":true,"drivers":[],"weather_through":null,"model_version":"pnw-pilot-t1-calendar-e2c272b7acfa"}},{"type":"Feature","id":"473_-1220","geometry":{"type":"Polygon","coordinates":[[[-122.05,47.25],[-121.95,47.25],[-121.95,47.35],[-122.05,47.35],[-122.05,47.25]]]},"properties":{"group":"cantharellus","week":"2026-10-05","chance":0.0285,"uncertainty_low":null,"uncertainty_high":null,"applicable":true,"drivers":[],"weather_through":null,"model_version":"pnw-pilot-t1-calendar-e2c272b7acfa"}},{"type":"Feature","id":"473_-1219","geometry":{"type":"Polygon","coordinates":[[[-121.95,47.25],[-121.85,47.25],[-121.85,47.35],[-121.95,47.35],[-121.95,47.25]]]},"properties":{"group":"cantharellus","week":"2026-10-05","chance":0.0447,"uncertainty_low":null,"uncertainty_high":null,"applicable":true,"drivers":[],"weather_through":null,"model_version":"pnw-pilot-t1-calendar-e2c272b7acfa"}},{"type":"Feature","id":"473_-1218","geometry":{"type":"Polygon","coordinates":[[[-121.85,47.25],[-121.75,47.25],[-121.75,47.35],[-121.85,47.35],[-121.85,47.25]]]},"properties":{"group":"cantharellus","week":"2026-10-05","chance":0.0359,"uncertainty_low":null,"uncertainty_high":null,"applicable":true,"drivers":[],"weather_through":null,"model_version":"pnw-pilot-t1-calendar-e2c272b7acfa"}},{"type":"Feature","id":"473_-1217","geometry":{"type":"Polygon","coordinates":[[[-121.75,47.25],[-121.65,47.25],[-121.65,47.35],[-121.75,47.35],[-121.75,47.25]]]},"properties":{"group":"cantharellus","week":"2026-10-05","chance":0.0359,"uncertainty_low":null,"uncertainty_high":null,"applicable":true,"drivers":[],"weather_through":null,"model_version":"pnw-pilot-t1-calendar-e2c272b7acfa"}},{"type":"Feature","id":"473_-1216","geometry":{"type":"Polygon","coordinates":[[[-121.65,47.25],[-121.55,47.25],[-121.55,47.35],[-121.65,47.35],[-121.65,47.25]]]},"properties":{"group":"cantharellus","week":"2026-10-05","chance":0.0471,"uncertainty_low":null,"uncertainty_high":null,"applicable":true,"drivers":[],"weather_through":null,"model_version":"pnw-pilot-t1-calendar-e2c272b7acfa"}},{"type":"Feature","id":"473_-1215","geometry":{"type":"Polygon","coordinates":[[[-121.55,47.25],[-121.45,47.25],[-121.45,47.35],[-121.55,47.35],[-121.55,47.25]]]},"properties":{"group":"cantharellus","week":"2026-10-05","chance":0.0402,"uncertainty_low":null,"uncertainty_high":null,"applicable":true,"drivers":[],"weather_through":null,"model_version":"pnw-pilot-t1-calendar-e2c272b7acfa"}},{"type":"Feature","id":"473_-1214","geometry":{"type":"Polygon","coordinates":[[[-121.45,47.25],[-121.35,47.25],[-121.35,47.35],[-121.45,47.35],[-121.45,47.25]]]},"properties":{"group":"cantharellus","week":"2026-10-05","chance":0.0379,"uncertainty_low":null,"uncertainty_high":null,"applicable":true,"drivers":[],"weather_through":null,"model_version":"pnw-pilot-t1-calendar-e2c272b7acfa"}},{"type":"Feature","id":"473_-1213","geometry":{"type":"Polygon","coordinates":[[[-121.35,47.25],[-121.25,47.25],[-121.25,47.35],[-121.35,47.35],[-121.35,47.25]]]},"properties":{"group":"cantharellus","week":"2026-10-05","chance":0.0379,"uncertainty_low":null,"uncertainty_high":null,"applicable":true,"drivers":[],"weather_through":null,"model_version":"pnw-pilot-t1-calendar-e2c272b7acfa"}},{"type":"Feature","id":"473_-1212","geometry":{"type":"Polygon","coordinates":[[[-121.25,47.25],[-121.15,47.25],[-121.15,47.35],[-121.25,47.35],[-121.25,47.25]]]},"properties":{"group":"cantharellus","week":"2026-10-05","chance":0.0379,"uncertainty_low":null,"uncertainty_high":null,"applicable":true,"drivers":[],"weather_through":null,"model_version":"pnw-pilot-t1-calendar-e2c272b7acfa"}},{"type":"Feature","id":"473_-1211","geometry":{"type":"Polygon","coordinates":[[[-121.15,47.25],[-121.05,47.25],[-121.05,47.35],[-121.15,47.35],[-121.15,47.25]]]},"properties":{"group":"cantharellus","week":"2026-10-05","chance":0.0403,"uncertainty_low":null,"uncertainty_high":null,"applicable":true,"drivers":[],"weather_through":null,"model_version":"pnw-pilot-t1-calendar-e2c272b7acfa"}},{"type":"Feature","id":"474_-1220","geometry":{"type":"Polygon","coordinates":[[[-122.05,47.35],[-121.95,47.35],[-121.95,47.45],[-122.05,47.45],[-122.05,47.35]]]},"properties":{"group":"cantharellus","week":"2026-10-05","chance":0.0277,"uncertainty_low":null,"uncertainty_high":null,"applicable":true,"drivers":[],"weather_through":null,"model_version":"pnw-pilot-t1-calendar-e2c272b7acfa"}},{"type":"Feature","id":"474_-1219","geometry":{"type":"Polygon","coordinates":[[[-121.95,47.35],[-121.85,47.35],[-121.85,47.45],[-121.95,47.45],[-121.95,47.35]]]},"properties":{"group":"cantharellus","week":"2026-10-05","chance":0.0407,"uncertainty_low":null,"uncertainty_high":null,"applicable":true,"drivers":[],"weather_through":null,"model_version":"pnw-pilot-t1-calendar-e2c272b7acfa"}},{"type":"Feature","id":"474_-1218","geometry":{"type":"Polygon","coordinates":[[[-121.85,47.35],[-121.75,47.35],[-121.75,47.45],[-121.85,47.45],[-121.85,47.35]]]},"properties":{"group":"cantharellus","week":"2026-10-05","chance":0.0342,"uncertainty_low":null,"uncertainty_high":null,"applicable":true,"drivers":[],"weather_through":null,"model_version":"pnw-pilot-t1-calendar-e2c272b7acfa"}},{"type":"Feature","id":"474_-1217","geometry":{"type":"Polygon","coordinates":[[[-121.75,47.35],[-121.65,47.35],[-121.65,47.45],[-121.75,47.45],[-121.75,47.35]]]},"properties":{"group":"cantharellus","week":"2026-10-05","chance":0.0342,"uncertainty_low":null,"uncertainty_high":null,"applicable":true,"drivers":[],"weather_through":null,"model_version":"pnw-pilot-t1-calendar-e2c272b7acfa"}},{"type":"Feature","id":"474_-1216","geometry":{"type":"Polygon","coordinates":[[[-121.65,47.35],[-121.55,47.35],[-121.55,47.45],[-121.65,47.45],[-121.65,47.35]]]},"properties":{"group":"cantharellus","week":"2026-10-05","chance":0.0433,"uncertainty_low":null,"uncertainty_high":null,"applicable":true,"drivers":[],"weather_through":null,"model_version":"pnw-pilot-t1-calendar-e2c272b7acfa"}},{"type":"Feature","id":"474_-1215","geometry":{"type":"Polygon","coordinates":[[[-121.55,47.35],[-121.45,47.35],[-121.45,47.45],[-121.55,47.45],[-121.55,47.35]]]},"properties":{"group":"cantharellus","week":"2026-10-05","chance":0.0415,"uncertainty_low":null,"uncertainty_high":null,"applicable":true,"drivers":[],"weather_through":null,"model_version":"pnw-pilot-t1-calendar-e2c272b7acfa"}},{"type":"Feature","id":"474_-1214","geometry":{"type":"Polygon","coordinates":[[[-121.45,47.35],[-121.35,47.35],[-121.35,47.45],[-121.45,47.45],[-121.45,47.35]]]},"properties":{"group":"cantharellus","week":"2026-10-05","chance":0.0391,"uncertainty_low":null,"uncertainty_high":null,"applicable":true,"drivers":[],"weather_through":null,"model_version":"pnw-pilot-t1-calendar-e2c272b7acfa"}},{"type":"Feature","id":"474_-1213","geometry":{"type":"Polygon","coordinates":[[[-121.35,47.35],[-121.25,47.35],[-121.25,47.45],[-121.35,47.45],[-121.35,47.35]]]},"properties":{"group":"cantharellus","week":"2026-10-05","chance":0.0391,"uncertainty_low":null,"uncertainty_high":null,"applicable":true,"drivers":[],"weather_through":null,"model_version":"pnw-pilot-t1-calendar-e2c272b7acfa"}},{"type":"Feature","id":"474_-1212","geometry":{"type":"Polygon","coordinates":[[[-121.25,47.35],[-121.15,47.35],[-121.15,47.45],[-121.25,47.45],[-121.25,47.35]]]},"properties":{"group":"cantharellus","week":"2026-10-05","chance":0.0391,"uncertainty_low":null,"uncertainty_high":null,"applicable":true,"drivers":[],"weather_through":null,"model_version":"pnw-pilot-t1-calendar-e2c272b7acfa"}},{"type":"Feature","id":"474_-1211","geometry":{"type":"Polygon","coordinates":[[[-121.15,47.35],[-121.05,47.35],[-121.05,47.45],[-121.15,47.45],[-121.15,47.35]]]},"properties":{"group":"cantharellus","week":"2026-10-05","chance":0.0415,"uncertainty_low":null,"uncertainty_high":null,"applicable":true,"drivers":[],"weather_through":null,"model_version":"pnw-pilot-t1-calendar-e2c272b7acfa"}},{"type":"Feature","id":"475_-1220","geometry":{"type":"Polygon","coordinates":[[[-122.05,47.45],[-121.95,47.45],[-121.95,47.55],[-122.05,47.55],[-122.05,47.45]]]},"properties":{"group":"cantharellus","week":"2026-10-05","chance":0.0279,"uncertainty_low":null,"uncertainty_high":null,"applicable":true,"drivers":[],"weather_through":null,"model_version":"pnw-pilot-t1-calendar-e2c272b7acfa"}},{"type":"Feature","id":"475_-1219","geometry":{"type":"Polygon","coordinates":[[[-121.95,47.45],[-121.85,47.45],[-121.85,47.55],[-121.95,47.55],[-121.95,47.45]]]},"properties":{"group":"cantharellus","week":"2026-10-05","chance":0.0344,"uncertainty_low":null,"uncertainty_high":null,"applicable":true,"drivers":[],"weather_through":null,"model_version":"pnw-pilot-t1-calendar-e2c272b7acfa"}},{"type":"Feature","id":"475_-1218","geometry":{"type":"Polygon","coordinates":[[[-121.85,47.45],[-121.75,47.45],[-121.75,47.55],[-121.85,47.55],[-121.85,47.45]]]},"properties":{"group":"cantharellus","week":"2026-10-05","chance":0.0314,"uncertainty_low":null,"uncertainty_high":null,"applicable":true,"drivers":[],"weather_through":null,"model_version":"pnw-pilot-t1-calendar-e2c272b7acfa"}},{"type":"Feature","id":"475_-1217","geometry":{"type":"Polygon","coordinates":[[[-121.75,47.45],[-121.65,47.45],[-121.65,47.55],[-121.75,47.55],[-121.75,47.45]]]},"properties":{"group":"cantharellus","week":"2026-10-05","chance":0.0314,"uncertainty_low":null,"uncertainty_high":null,"applicable":true,"drivers":[],"weather_through":null,"model_version":"pnw-pilot-t1-calendar-e2c272b7acfa"}},{"type":"Feature","id":"475_-1216","geometry":{"type":"Polygon","coordinates":[[[-121.65,47.45],[-121.55,47.45],[-121.55,47.55],[-121.65,47.55],[-121.65,47.45]]]},"properties":{"group":"cantharellus","week":"2026-10-05","chance":0.0397,"uncertainty_low":null,"uncertainty_high":null,"applicable":true,"drivers":[],"weather_through":null,"model_version":"pnw-pilot-t1-calendar-e2c272b7acfa"}},{"type":"Feature","id":"475_-1215","geometry":{"type":"Polygon","coordinates":[[[-121.55,47.45],[-121.45,47.45],[-121.45,47.55],[-121.55,47.55],[-121.55,47.45]]]},"properties":{"group":"cantharellus","week":"2026-10-05","chance":0.0381,"uncertainty_low":null,"uncertainty_high":null,"applicable":true,"drivers":[],"weather_through":null,"model_version":"pnw-pilot-t1-calendar-e2c272b7acfa"}},{"type":"Feature","id":"475_-1214","geometry":{"type":"Polygon","coordinates":[[[-121.45,47.45],[-121.35,47.45],[-121.35,47.55],[-121.45,47.55],[-121.45,47.45]]]},"properties":{"group":"cantharellus","week":"2026-10-05","chance":0.0359,"uncertainty_low":null,"uncertainty_high":null,"applicable":true,"drivers":[],"weather_through":null,"model_version":"pnw-pilot-t1-calendar-e2c272b7acfa"}},{"type":"Feature","id":"475_-1213","geometry":{"type":"Polygon","coordinates":[[[-121.35,47.45],[-121.25,47.45],[-121.25,47.55],[-121.35,47.55],[-121.35,47.45]]]},"properties":{"group":"cantharellus","week":"2026-10-05","chance":0.0359,"uncertainty_low":null,"uncertainty_high":null,"applicable":true,"drivers":[],"weather_through":null,"model_version":"pnw-pilot-t1-calendar-e2c272b7acfa"}},{"type":"Feature","id":"475_-1212","geometry":{"type":"Polygon","coordinates":[[[-121.25,47.45],[-121.15,47.45],[-121.15,47.55],[-121.25,47.55],[-121.25,47.45]]]},"properties":{"group":"cantharellus","week":"2026-10-05","chance":0.0359,"uncertainty_low":null,"uncertainty_high":null,"applicable":true,"drivers":[],"weather_through":null,"model_version":"pnw-pilot-t1-calendar-e2c272b7acfa"}},{"type":"Feature","id":"475_-1211","geometry":{"type":"Polygon","coordinates":[[[-121.15,47.45],[-121.05,47.45],[-121.05,47.55],[-121.15,47.55],[-121.15,47.45]]]},"properties":{"group":"cantharellus","week":"2026-10-05","chance":0.0381,"uncertainty_low":null,"uncertainty_high":null,"applicable":true,"drivers":[],"weather_through":null,"model_version":"pnw-pilot-t1-calendar-e2c272b7acfa"}},{"type":"Feature","id":"476_-1220","geometry":{"type":"Polygon","coordinates":[[[-122.05,47.55],[-121.95,47.55],[-121.95,47.65],[-122.05,47.65],[-122.05,47.55]]]},"properties":{"group":"cantharellus","week":"2026-10-05","chance":0.0251,"uncertainty_low":null,"uncertainty_high":null,"applicable":true,"drivers":[],"weather_through":null,"model_version":"pnw-pilot-t1-calendar-e2c272b7acfa"}},{"type":"Feature","id":"476_-1219","geometry":{"type":"Polygon","coordinates":[[[-121.95,47.55],[-121.85,47.55],[-121.85,47.65],[-121.95,47.65],[-121.95,47.55]]]},"properties":{"group":"cantharellus","week":"2026-10-05","chance":0.0291,"uncertainty_low":null,"uncertainty_high":null,"applicable":true,"drivers":[],"weather_through":null,"model_version":"pnw-pilot-t1-calendar-e2c272b7acfa"}},{"type":"Feature","id":"476_-1218","geometry":{"type":"Polygon","coordinates":[[[-121.85,47.55],[-121.75,47.55],[-121.75,47.65],[-121.85,47.65],[-121.85,47.55]]]},"properties":{"group":"cantharellus","week":"2026-10-05","chance":0.0267,"uncertainty_low":null,"uncertainty_high":null,"applicable":true,"drivers":[],"weather_through":null,"model_version":"pnw-pilot-t1-calendar-e2c272b7acfa"}},{"type":"Feature","id":"476_-1217","geometry":{"type":"Polygon","coordinates":[[[-121.75,47.55],[-121.65,47.55],[-121.65,47.65],[-121.75,47.65],[-121.75,47.55]]]},"properties":{"group":"cantharellus","week":"2026-10-05","chance":0.0267,"uncertainty_low":null,"uncertainty_high":null,"applicable":true,"drivers":[],"weather_through":null,"model_version":"pnw-pilot-t1-calendar-e2c272b7acfa"}},{"type":"Feature","id":"476_-1216","geometry":{"type":"Polygon","coordinates":[[[-121.65,47.55],[-121.55,47.55],[-121.55,47.65],[-121.65,47.65],[-121.65,47.55]]]},"properties":{"group":"cantharellus","week":"2026-10-05","chance":0.0319,"uncertainty_low":null,"uncertainty_high":null,"applicable":true,"drivers":[],"weather_through":null,"model_version":"pnw-pilot-t1-calendar-e2c272b7acfa"}},{"type":"Feature","id":"476_-1215","geometry":{"type":"Polygon","coordinates":[[[-121.55,47.55],[-121.45,47.55],[-121.45,47.65],[-121.55,47.65],[-121.55,47.55]]]},"properties":{"group":"cantharellus","week":"2026-10-05","chance":0.0283,"uncertainty_low":null,"uncertainty_high":null,"applicable":true,"drivers":[],"weather_through":null,"model_version":"pnw-pilot-t1-calendar-e2c272b7acfa"}},{"type":"Feature","id":"476_-1214","geometry":{"type":"Polygon","coordinates":[[[-121.45,47.55],[-121.35,47.55],[-121.35,47.65],[-121.45,47.65],[-121.45,47.55]]]},"properties":{"group":"cantharellus","week":"2026-10-05","chance":0.0266,"uncertainty_low":null,"uncertainty_high":null,"applicable":true,"drivers":[],"weather_through":null,"model_version":"pnw-pilot-t1-calendar-e2c272b7acfa"}},{"type":"Feature","id":"476_-1213","geometry":{"type":"Polygon","coordinates":[[[-121.35,47.55],[-121.25,47.55],[-121.25,47.65],[-121.35,47.65],[-121.35,47.55]]]},"properties":{"group":"cantharellus","week":"2026-10-05","chance":0.0266,"uncertainty_low":null,"uncertainty_high":null,"applicable":true,"drivers":[],"weather_through":null,"model_version":"pnw-pilot-t1-calendar-e2c272b7acfa"}},{"type":"Feature","id":"476_-1212","geometry":{"type":"Polygon","coordinates":[[[-121.25,47.55],[-121.15,47.55],[-121.15,47.65],[-121.25,47.65],[-121.25,47.55]]]},"properties":{"group":"cantharellus","week":"2026-10-05","chance":0.0266,"uncertainty_low":null,"uncertainty_high":null,"applicable":true,"drivers":[],"weather_through":null,"model_version":"pnw-pilot-t1-calendar-e2c272b7acfa"}},{"type":"Feature","id":"476_-1211","geometry":{"type":"Polygon","coordinates":[[[-121.15,47.55],[-121.05,47.55],[-121.05,47.65],[-121.15,47.65],[-121.15,47.55]]]},"properties":{"group":"cantharellus","week":"2026-10-05","chance":0.0283,"uncertainty_low":null,"uncertainty_high":null,"applicable":true,"drivers":[],"weather_through":null,"model_version":"pnw-pilot-t1-calendar-e2c272b7acfa"}},{"type":"Feature","id":"477_-1220","geometry":{"type":"Polygon","coordinates":[[[-122.05,47.65],[-121.95,47.65],[-121.95,47.75],[-122.05,47.75],[-122.05,47.65]]]},"properties":{"group":"cantharellus","week":"2026-10-05","chance":0.0251,"uncertainty_low":null,"uncertainty_high":null,"applicable":true,"drivers":[],"weather_through":null,"model_version":"pnw-pilot-t1-calendar-e2c272b7acfa"}},{"type":"Feature","id":"477_-1219","geometry":{"type":"Polygon","coordinates":[[[-121.95,47.65],[-121.85,47.65],[-121.85,47.75],[-121.95,47.75],[-121.95,47.65]]]},"properties":{"group":"cantharellus","week":"2026-10-05","chance":0.0278,"uncertainty_low":null,"uncertainty_high":null,"applicable":true,"drivers":[],"weather_through":null,"model_version":"pnw-pilot-t1-calendar-e2c272b7acfa"}},{"type":"Feature","id":"477_-1218","geometry":{"type":"Polygon","coordinates":[[[-121.85,47.65],[-121.75,47.65],[-121.75,47.75],[-121.85,47.75],[-121.85,47.65]]]},"properties":{"group":"cantharellus","week":"2026-10-05","chance":0.0256,"uncertainty_low":null,"uncertainty_high":null,"applicable":true,"drivers":[],"weather_through":null,"model_version":"pnw-pilot-t1-calendar-e2c272b7acfa"}},{"type":"Feature","id":"477_-1217","geometry":{"type":"Polygon","coordinates":[[[-121.75,47.65],[-121.65,47.65],[-121.65,47.75],[-121.75,47.75],[-121.75,47.65]]]},"properties":{"group":"cantharellus","week":"2026-10-05","chance":0.0256,"uncertainty_low":null,"uncertainty_high":null,"applicable":true,"drivers":[],"weather_through":null,"model_version":"pnw-pilot-t1-calendar-e2c272b7acfa"}},{"type":"Feature","id":"477_-1216","geometry":{"type":"Polygon","coordinates":[[[-121.65,47.65],[-121.55,47.65],[-121.55,47.75],[-121.65,47.75],[-121.65,47.65]]]},"properties":{"group":"cantharellus","week":"2026-10-05","chance":0.0305,"uncertainty_low":null,"uncertainty_high":null,"applicable":true,"drivers":[],"weather_through":null,"model_version":"pnw-pilot-t1-calendar-e2c272b7acfa"}},{"type":"Feature","id":"477_-1215","geometry":{"type":"Polygon","coordinates":[[[-121.55,47.65],[-121.45,47.65],[-121.45,47.75],[-121.55,47.75],[-121.55,47.65]]]},"properties":{"group":"cantharellus","week":"2026-10-05","chance":0.027,"uncertainty_low":null,"uncertainty_high":null,"applicable":true,"drivers":[],"weather_through":null,"model_version":"pnw-pilot-t1-calendar-e2c272b7acfa"}},{"type":"Feature","id":"477_-1214","geometry":{"type":"Polygon","coordinates":[[[-121.45,47.65],[-121.35,47.65],[-121.35,47.75],[-121.45,47.75],[-121.45,47.65]]]},"properties":{"group":"cantharellus","week":"2026-10-05","chance":0.0254,"uncertainty_low":null,"uncertainty_high":null,"applicable":true,"drivers":[],"weather_through":null,"model_version":"pnw-pilot-t1-calendar-e2c272b7acfa"}},{"type":"Feature","id":"477_-1213","geometry":{"type":"Polygon","coordinates":[[[-121.35,47.65],[-121.25,47.65],[-121.25,47.75],[-121.35,47.75],[-121.35,47.65]]]},"properties":{"group":"cantharellus","week":"2026-10-05","chance":0.0254,"uncertainty_low":null,"uncertainty_high":null,"applicable":true,"drivers":[],"weather_through":null,"model_version":"pnw-pilot-t1-calendar-e2c272b7acfa"}},{"type":"Feature","id":"477_-1212","geometry":{"type":"Polygon","coordinates":[[[-121.25,47.65],[-121.15,47.65],[-121.15,47.75],[-121.25,47.75],[-121.25,47.65]]]},"properties":{"group":"cantharellus","week":"2026-10-05","chance":0.0254,"uncertainty_low":null,"uncertainty_high":null,"applicable":true,"drivers":[],"weather_through":null,"model_version":"pnw-pilot-t1-calendar-e2c272b7acfa"}},{"type":"Feature","id":"477_-1211","geometry":{"type":"Polygon","coordinates":[[[-121.15,47.65],[-121.05,47.65],[-121.05,47.75],[-121.15,47.75],[-121.15,47.65]]]},"properties":{"group":"cantharellus","week":"2026-10-05","chance":0.027,"uncertainty_low":null,"uncertainty_high":null,"applicable":true,"drivers":[],"weather_through":null,"model_version":"pnw-pilot-t1-calendar-e2c272b7acfa"}},{"type":"Feature","id":"478_-1220","geometry":{"type":"Polygon","coordinates":[[[-122.05,47.75],[-121.95,47.75],[-121.95,47.85],[-122.05,47.85],[-122.05,47.75]]]},"properties":{"group":"cantharellus","week":"2026-10-05","chance":0.0251,"uncertainty_low":null,"uncertainty_high":null,"applicable":true,"drivers":[],"weather_through":null,"model_version":"pnw-pilot-t1-calendar-e2c272b7acfa"}},{"type":"Feature","id":"478_-1219","geometry":{"type":"Polygon","coordinates":[[[-121.95,47.75],[-121.85,47.75],[-121.85,47.85],[-121.95,47.85],[-121.95,47.75]]]},"properties":{"group":"cantharellus","week":"2026-10-05","chance":0.0278,"uncertainty_low":null,"uncertainty_high":null,"applicable":true,"drivers":[],"weather_through":null,"model_version":"pnw-pilot-t1-calendar-e2c272b7acfa"}},{"type":"Feature","id":"478_-1218","geometry":{"type":"Polygon","coordinates":[[[-121.85,47.75],[-121.75,47.75],[-121.75,47.85],[-121.85,47.85],[-121.85,47.75]]]},"properties":{"group":"cantharellus","week":"2026-10-05","chance":0.0256,"uncertainty_low":null,"uncertainty_high":null,"applicable":true,"drivers":[],"weather_through":null,"model_version":"pnw-pilot-t1-calendar-e2c272b7acfa"}},{"type":"Feature","id":"478_-1217","geometry":{"type":"Polygon","coordinates":[[[-121.75,47.75],[-121.65,47.75],[-121.65,47.85],[-121.75,47.85],[-121.75,47.75]]]},"properties":{"group":"cantharellus","week":"2026-10-05","chance":0.0256,"uncertainty_low":null,"uncertainty_high":null,"applicable":true,"drivers":[],"weather_through":null,"model_version":"pnw-pilot-t1-calendar-e2c272b7acfa"}},{"type":"Feature","id":"478_-1216","geometry":{"type":"Polygon","coordinates":[[[-121.65,47.75],[-121.55,47.75],[-121.55,47.85],[-121.65,47.85],[-121.65,47.75]]]},"properties":{"group":"cantharellus","week":"2026-10-05","chance":0.0305,"uncertainty_low":null,"uncertainty_high":null,"applicable":true,"drivers":[],"weather_through":null,"model_version":"pnw-pilot-t1-calendar-e2c272b7acfa"}},{"type":"Feature","id":"478_-1215","geometry":{"type":"Polygon","coordinates":[[[-121.55,47.75],[-121.45,47.75],[-121.45,47.85],[-121.55,47.85],[-121.55,47.75]]]},"properties":{"group":"cantharellus","week":"2026-10-05","chance":0.027,"uncertainty_low":null,"uncertainty_high":null,"applicable":true,"drivers":[],"weather_through":null,"model_version":"pnw-pilot-t1-calendar-e2c272b7acfa"}},{"type":"Feature","id":"478_-1214","geometry":{"type":"Polygon","coordinates":[[[-121.45,47.75],[-121.35,47.75],[-121.35,47.85],[-121.45,47.85],[-121.45,47.75]]]},"properties":{"group":"cantharellus","week":"2026-10-05","chance":0.0254,"uncertainty_low":null,"uncertainty_high":null,"applicable":true,"drivers":[],"weather_through":null,"model_version":"pnw-pilot-t1-calendar-e2c272b7acfa"}},{"type":"Feature","id":"478_-1213","geometry":{"type":"Polygon","coordinates":[[[-121.35,47.75],[-121.25,47.75],[-121.25,47.85],[-121.35,47.85],[-121.35,47.75]]]},"properties":{"group":"cantharellus","week":"2026-10-05","chance":0.0254,"uncertainty_low":null,"uncertainty_high":null,"applicable":true,"drivers":[],"weather_through":null,"model_version":"pnw-pilot-t1-calendar-e2c272b7acfa"}},{"type":"Feature","id":"478_-1212","geometry":{"type":"Polygon","coordinates":[[[-121.25,47.75],[-121.15,47.75],[-121.15,47.85],[-121.25,47.85],[-121.25,47.75]]]},"properties":{"group":"cantharellus","week":"2026-10-05","chance":0.0254,"uncertainty_low":null,"uncertainty_high":null,"applicable":true,"drivers":[],"weather_through":null,"model_version":"pnw-pilot-t1-calendar-e2c272b7acfa"}},{"type":"Feature","id":"478_-1211","geometry":{"type":"Polygon","coordinates":[[[-121.15,47.75],[-121.05,47.75],[-121.05,47.85],[-121.15,47.85],[-121.15,47.75]]]},"properties":{"group":"cantharellus","week":"2026-10-05","chance":0.027,"uncertainty_low":null,"uncertainty_high":null,"applicable":true,"drivers":[],"weather_through":null,"model_version":"pnw-pilot-t1-calendar-e2c272b7acfa"}},{"type":"Feature","id":"479_-1220","geometry":{"type":"Polygon","coordinates":[[[-122.05,47.85],[-121.95,47.85],[-121.95,47.95],[-122.05,47.95],[-122.05,47.85]]]},"properties":{"group":"cantharellus","week":"2026-10-05","chance":0.03,"uncertainty_low":null,"uncertainty_high":null,"applicable":true,"drivers":[],"weather_through":null,"model_version":"pnw-pilot-t1-calendar-e2c272b7acfa"}},{"type":"Feature","id":"479_-1219","geometry":{"type":"Polygon","coordinates":[[[-121.95,47.85],[-121.85,47.85],[-121.85,47.95],[-121.95,47.95],[-121.95,47.85]]]},"properties":{"group":"cantharellus","week":"2026-10-05","chance":0.0325,"uncertainty_low":null,"uncertainty_high":null,"applicable":true,"drivers":[],"weather_through":null,"model_version":"pnw-pilot-t1-calendar-e2c272b7acfa"}},{"type":"Feature","id":"479_-1218","geometry":{"type":"Polygon","coordinates":[[[-121.85,47.85],[-121.75,47.85],[-121.75,47.95],[-121.85,47.95],[-121.85,47.85]]]},"properties":{"group":"cantharellus","week":"2026-10-05","chance":0.0292,"uncertainty_low":null,"uncertainty_high":null,"applicable":true,"drivers":[],"weather_through":null,"model_version":"pnw-pilot-t1-calendar-e2c272b7acfa"}},{"type":"Feature","id":"479_-1217","geometry":{"type":"Polygon","coordinates":[[[-121.75,47.85],[-121.65,47.85],[-121.65,47.95],[-121.75,47.95],[-121.75,47.85]]]},"properties":{"group":"cantharellus","week":"2026-10-05","chance":0.0292,"uncertainty_low":null,"uncertainty_high":null,"applicable":true,"drivers":[],"weather_through":null,"model_version":"pnw-pilot-t1-calendar-e2c272b7acfa"}},{"type":"Feature","id":"479_-1216","geometry":{"type":"Polygon","coordinates":[[[-121.65,47.85],[-121.55,47.85],[-121.55,47.95],[-121.65,47.95],[-121.65,47.85]]]},"properties":{"group":"cantharellus","week":"2026-10-05","chance":0.0297,"uncertainty_low":null,"uncertainty_high":null,"applicable":true,"drivers":[],"weather_through":null,"model_version":"pnw-pilot-t1-calendar-e2c272b7acfa"}},{"type":"Feature","id":"479_-1215","geometry":{"type":"Polygon","coordinates":[[[-121.55,47.85],[-121.45,47.85],[-121.45,47.95],[-121.55,47.95],[-121.55,47.85]]]},"properties":{"group":"cantharellus","week":"2026-10-05","chance":0.025,"uncertainty_low":null,"uncertainty_high":null,"applicable":true,"drivers":[],"weather_through":null,"model_version":"pnw-pilot-t1-calendar-e2c272b7acfa"}},{"type":"Feature","id":"479_-1214","geometry":{"type":"Polygon","coordinates":[[[-121.45,47.85],[-121.35,47.85],[-121.35,47.95],[-121.45,47.95],[-121.45,47.85]]]},"properties":{"group":"cantharellus","week":"2026-10-05","chance":0.0229,"uncertainty_low":null,"uncertainty_high":null,"applicable":true,"drivers":[],"weather_through":null,"model_version":"pnw-pilot-t1-calendar-e2c272b7acfa"}},{"type":"Feature","id":"479_-1213","geometry":{"type":"Polygon","coordinates":[[[-121.35,47.85],[-121.25,47.85],[-121.25,47.95],[-121.35,47.95],[-121.35,47.85]]]},"properties":{"group":"cantharellus","week":"2026-10-05","chance":0.0229,"uncertainty_low":null,"uncertainty_high":null,"applicable":true,"drivers":[],"weather_through":null,"model_version":"pnw-pilot-t1-calendar-e2c272b7acfa"}},{"type":"Feature","id":"479_-1212","geometry":{"type":"Polygon","coordinates":[[[-121.25,47.85],[-121.15,47.85],[-121.15,47.95],[-121.25,47.95],[-121.25,47.85]]]},"properties":{"group":"cantharellus","week":"2026-10-05","chance":0.0229,"uncertainty_low":null,"uncertainty_high":null,"applicable":true,"drivers":[],"weather_through":null,"model_version":"pnw-pilot-t1-calendar-e2c272b7acfa"}},{"type":"Feature","id":"479_-1211","geometry":{"type":"Polygon","coordinates":[[[-121.15,47.85],[-121.05,47.85],[-121.05,47.95],[-121.15,47.95],[-121.15,47.85]]]},"properties":{"group":"cantharellus","week":"2026-10-05","chance":0.0243,"uncertainty_low":null,"uncertainty_high":null,"applicable":true,"drivers":[],"weather_through":null,"model_version":"pnw-pilot-t1-calendar-e2c272b7acfa"}}]}