{"type":"FeatureCollection","features":[{"type":"Feature","id":"484_-1241","geometry":{"type":"Polygon","coordinates":[[[-124.15,48.35],[-124.05,48.35],[-124.05,48.45],[-124.15,48.45],[-124.15,48.35]]]},"properties":{"group":"cantharellus","week":"2026-10-05","chance":0.0782,"uncertainty_low":null,"uncertainty_high":null,"applicable":true,"drivers":[],"weather_through":"2026-10-04","model_version":"pnw-pilot-t1-calendar-e2c272b7acfa"}},{"type":"Feature","id":"485_-1244","geometry":{"type":"Polygon","coordinates":[[[-124.45,48.45],[-124.35,48.45],[-124.35,48.55],[-124.45,48.55],[-124.45,48.45]]]},"properties":{"group":"cantharellus","week":"2026-10-05","chance":0.0723,"uncertainty_low":null,"uncertainty_high":null,"applicable":true,"drivers":[],"weather_through":"2026-10-04","model_version":"pnw-pilot-t1-calendar-e2c272b7acfa"}},{"type":"Feature","id":"485_-1243","geometry":{"type":"Polygon","coordinates":[[[-124.35,48.45],[-124.25,48.45],[-124.25,48.55],[-124.35,48.55],[-124.35,48.45]]]},"properties":{"group":"cantharellus","week":"2026-10-05","chance":0.0773,"uncertainty_low":null,"uncertainty_high":null,"applicable":true,"drivers":[],"weather_through":"2026-10-04","model_version":"pnw-pilot-t1-calendar-e2c272b7acfa"}},{"type":"Feature","id":"485_-1242","geometry":{"type":"Polygon","coordinates":[[[-124.25,48.45],[-124.15,48.45],[-124.15,48.55],[-124.25,48.55],[-124.25,48.45]]]},"properties":{"group":"cantharellus","week":"2026-10-05","chance":0.0928,"uncertainty_low":null,"uncertainty_high":null,"applicable":true,"drivers":[],"weather_through":"2026-10-04","model_version":"pnw-pilot-t1-calendar-e2c272b7acfa"}},{"type":"Feature","id":"486_-1246","geometry":{"type":"Polygon","coordinates":[[[-124.65,48.55],[-124.55,48.55],[-124.55,48.65],[-124.65,48.65],[-124.65,48.55]]]},"properties":{"group":"cantharellus","week":"2026-10-05","chance":0.0723,"uncertainty_low":null,"uncertainty_high":null,"applicable":true,"drivers":[],"weather_through":"2026-10-04","model_version":"pnw-pilot-t1-calendar-e2c272b7acfa"}},{"type":"Feature","id":"486_-1244","geometry":{"type":"Polygon","coordinates":[[[-124.45,48.55],[-124.35,48.55],[-124.35,48.65],[-124.45,48.65],[-124.45,48.55]]]},"properties":{"group":"cantharellus","week":"2026-10-05","chance":0.0723,"uncertainty_low":null,"uncertainty_high":null,"applicable":true,"drivers":[],"weather_through":"2026-10-04","model_version":"pnw-pilot-t1-calendar-e2c272b7acfa"}},{"type":"Feature","id":"487_-1247","geometry":{"type":"Polygon","coordinates":[[[-124.75,48.65],[-124.65,48.65],[-124.65,48.75],[-124.75,48.75],[-124.75,48.65]]]},"properties":{"group":"cantharellus","week":"2026-10-05","chance":0.0875,"uncertainty_low":null,"uncertainty_high":null,"applicable":true,"drivers":[],"weather_through":"2026-10-04","model_version":"pnw-pilot-t1-calendar-e2c272b7acfa"}},{"type":"Feature","id":"487_-1246","geometry":{"type":"Polygon","coordinates":[[[-124.65,48.65],[-124.55,48.65],[-124.55,48.75],[-124.65,48.75],[-124.65,48.65]]]},"properties":{"group":"cantharellus","week":"2026-10-05","chance":0.1259,"uncertainty_low":null,"uncertainty_high":null,"applicable":true,"drivers":[],"weather_through":"2026-10-04","model_version":"pnw-pilot-t1-calendar-e2c272b7acfa"}},{"type":"Feature","id":"488_-1242","geometry":{"type":"Polygon","coordinates":[[[-124.25,48.75],[-124.15,48.75],[-124.15,48.85],[-124.25,48.85],[-124.25,48.75]]]},"properties":{"group":"cantharellus","week":"2026-10-05","chance":0.1596,"uncertainty_low":null,"uncertainty_high":null,"applicable":true,"drivers":[],"weather_through":"2026-10-04","model_version":"pnw-pilot-t1-calendar-e2c272b7acfa"}},{"type":"Feature","id":"488_-1241","geometry":{"type":"Polygon","coordinates":[[[-124.15,48.75],[-124.05,48.75],[-124.05,48.85],[-124.15,48.85],[-124.15,48.75]]]},"properties":{"group":"cantharellus","week":"2026-10-05","chance":0.1177,"uncertainty_low":null,"uncertainty_high":null,"applicable":true,"drivers":[],"weather_through":"2026-10-04","model_version":"pnw-pilot-t1-calendar-e2c272b7acfa"}}]}