{"type":"FeatureCollection","features":[{"type":"Feature","id":"480_-1239","geometry":{"type":"Polygon","coordinates":[[[-123.95,47.95],[-123.85,47.95],[-123.85,48.05],[-123.95,48.05],[-123.95,47.95]]]},"properties":{"group":"cantharellus","week":"2026-10-05","chance":0.1313,"uncertainty_low":null,"uncertainty_high":null,"applicable":true,"drivers":[{"label":"Rain, total of the last 14 days (mm)","value":72.2},{"label":"Rain, total of the last 3 days (mm)","value":2.5},{"label":"Air temperature, mean of the last 7 days (°C)","value":11.043}],"weather_through":"2026-10-04","model_version":"pnw-pilot-t1-synthetic-1cbe08ab21a8"}},{"type":"Feature","id":"480_-1238","geometry":{"type":"Polygon","coordinates":[[[-123.85,47.95],[-123.75,47.95],[-123.75,48.05],[-123.85,48.05],[-123.85,47.95]]]},"properties":{"group":"cantharellus","week":"2026-10-05","chance":0.1313,"uncertainty_low":null,"uncertainty_high":null,"applicable":true,"drivers":[{"label":"Rain, total of the last 14 days (mm)","value":59.4},{"label":"Rain, total of the last 3 days (mm)","value":1.4},{"label":"Air temperature, mean of the last 7 days (°C)","value":10.629}],"weather_through":"2026-10-04","model_version":"pnw-pilot-t1-synthetic-1cbe08ab21a8"}},{"type":"Feature","id":"480_-1236","geometry":{"type":"Polygon","coordinates":[[[-123.65,47.95],[-123.55,47.95],[-123.55,48.05],[-123.65,48.05],[-123.65,47.95]]]},"properties":{"group":"cantharellus","week":"2026-10-05","chance":0.1313,"uncertainty_low":null,"uncertainty_high":null,"applicable":true,"drivers":[{"label":"Rain, total of the last 14 days (mm)","value":50.4},{"label":"Rain, total of the last 3 days (mm)","value":1.5},{"label":"Air temperature, mean of the last 7 days (°C)","value":10.429}],"weather_through":"2026-10-04","model_version":"pnw-pilot-t1-synthetic-1cbe08ab21a8"}},{"type":"Feature","id":"480_-1234","geometry":{"type":"Polygon","coordinates":[[[-123.45,47.95],[-123.35,47.95],[-123.35,48.05],[-123.45,48.05],[-123.45,47.95]]]},"properties":{"group":"cantharellus","week":"2026-10-05","chance":0.1313,"uncertainty_low":null,"uncertainty_high":null,"applicable":true,"drivers":[{"label":"Rain, total of the last 14 days (mm)","value":50.4},{"label":"Rain, total of the last 3 days (mm)","value":1.5},{"label":"Air temperature, mean of the last 7 days (°C)","value":10.957}],"weather_through":"2026-10-04","model_version":"pnw-pilot-t1-synthetic-1cbe08ab21a8"}},{"type":"Feature","id":"481_-1238","geometry":{"type":"Polygon","coordinates":[[[-123.85,48.05],[-123.75,48.05],[-123.75,48.15],[-123.85,48.15],[-123.85,48.05]]]},"properties":{"group":"cantharellus","week":"2026-10-05","chance":0.1313,"uncertainty_low":null,"uncertainty_high":null,"applicable":true,"drivers":[{"label":"Rain, total of the last 14 days (mm)","value":59.4},{"label":"Rain, total of the last 3 days (mm)","value":1.4},{"label":"Air temperature, mean of the last 7 days (°C)","value":12.171}],"weather_through":"2026-10-04","model_version":"pnw-pilot-t1-synthetic-1cbe08ab21a8"}},{"type":"Feature","id":"481_-1236","geometry":{"type":"Polygon","coordinates":[[[-123.65,48.05],[-123.55,48.05],[-123.55,48.15],[-123.65,48.15],[-123.65,48.05]]]},"properties":{"group":"cantharellus","week":"2026-10-05","chance":0.1313,"uncertainty_low":null,"uncertainty_high":null,"applicable":true,"drivers":[{"label":"Rain, total of the last 14 days (mm)","value":50.4},{"label":"Rain, total of the last 3 days (mm)","value":1.5},{"label":"Air temperature, mean of the last 7 days (°C)","value":12.229}],"weather_through":"2026-10-04","model_version":"pnw-pilot-t1-synthetic-1cbe08ab21a8"}},{"type":"Feature","id":"481_-1234","geometry":{"type":"Polygon","coordinates":[[[-123.45,48.05],[-123.35,48.05],[-123.35,48.15],[-123.45,48.15],[-123.45,48.05]]]},"properties":{"group":"cantharellus","week":"2026-10-05","chance":0.1313,"uncertainty_low":null,"uncertainty_high":null,"applicable":true,"drivers":[{"label":"Rain, total of the last 14 days (mm)","value":50.4},{"label":"Rain, total of the last 3 days (mm)","value":1.5},{"label":"Air temperature, mean of the last 7 days (°C)","value":12.757}],"weather_through":"2026-10-04","model_version":"pnw-pilot-t1-synthetic-1cbe08ab21a8"}},{"type":"Feature","id":"483_-1237","geometry":{"type":"Polygon","coordinates":[[[-123.75,48.25],[-123.65,48.25],[-123.65,48.35],[-123.75,48.35],[-123.75,48.25]]]},"properties":{"group":"cantharellus","week":"2026-10-05","chance":0.1313,"uncertainty_low":null,"uncertainty_high":null,"applicable":true,"drivers":[{"label":"Rain, total of the last 14 days (mm)","value":59.4},{"label":"Rain, total of the last 3 days (mm)","value":4.0},{"label":"Air temperature, mean of the last 7 days (°C)","value":12.586}],"weather_through":"2026-10-04","model_version":"pnw-pilot-t1-synthetic-1cbe08ab21a8"}},{"type":"Feature","id":"483_-1236","geometry":{"type":"Polygon","coordinates":[[[-123.65,48.25],[-123.55,48.25],[-123.55,48.35],[-123.65,48.35],[-123.65,48.25]]]},"properties":{"group":"cantharellus","week":"2026-10-05","chance":0.1313,"uncertainty_low":null,"uncertainty_high":null,"applicable":true,"drivers":[{"label":"Rain, total of the last 14 days (mm)","value":54.1},{"label":"Rain, total of the last 3 days (mm)","value":2.7},{"label":"Air temperature, mean of the last 7 days (°C)","value":12.671}],"weather_through":"2026-10-04","model_version":"pnw-pilot-t1-synthetic-1cbe08ab21a8"}},{"type":"Feature","id":"484_-1238","geometry":{"type":"Polygon","coordinates":[[[-123.85,48.35],[-123.75,48.35],[-123.75,48.45],[-123.85,48.45],[-123.85,48.35]]]},"properties":{"group":"cantharellus","week":"2026-10-05","chance":0.1313,"uncertainty_low":null,"uncertainty_high":null,"applicable":true,"drivers":[{"label":"Rain, total of the last 14 days (mm)","value":45.0},{"label":"Rain, total of the last 3 days (mm)","value":1.7},{"label":"Air temperature, mean of the last 7 days (°C)","value":12.786}],"weather_through":"2026-10-04","model_version":"pnw-pilot-t1-synthetic-1cbe08ab21a8"}},{"type":"Feature","id":"484_-1237","geometry":{"type":"Polygon","coordinates":[[[-123.75,48.35],[-123.65,48.35],[-123.65,48.45],[-123.75,48.45],[-123.75,48.35]]]},"properties":{"group":"cantharellus","week":"2026-10-05","chance":0.1313,"uncertainty_low":null,"uncertainty_high":null,"applicable":true,"drivers":[{"label":"Rain, total of the last 14 days (mm)","value":45.0},{"label":"Rain, total of the last 3 days (mm)","value":1.7},{"label":"Air temperature, mean of the last 7 days (°C)","value":12.829}],"weather_through":"2026-10-04","model_version":"pnw-pilot-t1-synthetic-1cbe08ab21a8"}},{"type":"Feature","id":"484_-1236","geometry":{"type":"Polygon","coordinates":[[[-123.65,48.35],[-123.55,48.35],[-123.55,48.45],[-123.65,48.45],[-123.65,48.35]]]},"properties":{"group":"cantharellus","week":"2026-10-05","chance":0.1313,"uncertainty_low":null,"uncertainty_high":null,"applicable":true,"drivers":[{"label":"Rain, total of the last 14 days (mm)","value":41.1},{"label":"Rain, total of the last 3 days (mm)","value":0.7},{"label":"Air temperature, mean of the last 7 days (°C)","value":12.914}],"weather_through":"2026-10-04","model_version":"pnw-pilot-t1-synthetic-1cbe08ab21a8"}},{"type":"Feature","id":"484_-1235","geometry":{"type":"Polygon","coordinates":[[[-123.55,48.35],[-123.45,48.35],[-123.45,48.45],[-123.55,48.45],[-123.55,48.35]]]},"properties":{"group":"cantharellus","week":"2026-10-05","chance":0.1313,"uncertainty_low":null,"uncertainty_high":null,"applicable":true,"drivers":[{"label":"Rain, total of the last 14 days (mm)","value":41.1},{"label":"Rain, total of the last 3 days (mm)","value":0.7},{"label":"Air temperature, mean of the last 7 days (°C)","value":12.929}],"weather_through":"2026-10-04","model_version":"pnw-pilot-t1-synthetic-1cbe08ab21a8"}},{"type":"Feature","id":"484_-1234","geometry":{"type":"Polygon","coordinates":[[[-123.45,48.35],[-123.35,48.35],[-123.35,48.45],[-123.45,48.45],[-123.45,48.35]]]},"properties":{"group":"cantharellus","week":"2026-10-05","chance":0.1313,"uncertainty_low":null,"uncertainty_high":null,"applicable":true,"drivers":[{"label":"Rain, total of the last 14 days (mm)","value":41.1},{"label":"Rain, total of the last 3 days (mm)","value":0.7},{"label":"Air temperature, mean of the last 7 days (°C)","value":12.943}],"weather_through":"2026-10-04","model_version":"pnw-pilot-t1-synthetic-1cbe08ab21a8"}},{"type":"Feature","id":"484_-1233","geometry":{"type":"Polygon","coordinates":[[[-123.35,48.35],[-123.25,48.35],[-123.25,48.45],[-123.35,48.45],[-123.35,48.35]]]},"properties":{"group":"cantharellus","week":"2026-10-05","chance":0.1313,"uncertainty_low":null,"uncertainty_high":null,"applicable":true,"drivers":[{"label":"Rain, total of the last 14 days (mm)","value":53.7},{"label":"Rain, total of the last 3 days (mm)","value":1.0},{"label":"Air temperature, mean of the last 7 days (°C)","value":12.429}],"weather_through":"2026-10-04","model_version":"pnw-pilot-t1-synthetic-1cbe08ab21a8"}},{"type":"Feature","id":"485_-1236","geometry":{"type":"Polygon","coordinates":[[[-123.65,48.45],[-123.55,48.45],[-123.55,48.55],[-123.65,48.55],[-123.65,48.45]]]},"properties":{"group":"cantharellus","week":"2026-10-05","chance":0.1313,"uncertainty_low":null,"uncertainty_high":null,"applicable":true,"drivers":[{"label":"Rain, total of the last 14 days (mm)","value":41.1},{"label":"Rain, total of the last 3 days (mm)","value":0.7},{"label":"Air temperature, mean of the last 7 days (°C)","value":12.714}],"weather_through":"2026-10-04","model_version":"pnw-pilot-t1-synthetic-1cbe08ab21a8"}},{"type":"Feature","id":"485_-1235","geometry":{"type":"Polygon","coordinates":[[[-123.55,48.45],[-123.45,48.45],[-123.45,48.55],[-123.55,48.55],[-123.55,48.45]]]},"properties":{"group":"cantharellus","week":"2026-10-05","chance":0.1313,"uncertainty_low":null,"uncertainty_high":null,"applicable":true,"drivers":[{"label":"Rain, total of the last 14 days (mm)","value":41.1},{"label":"Rain, total of the last 3 days (mm)","value":0.7},{"label":"Air temperature, mean of the last 7 days (°C)","value":12.914}],"weather_through":"2026-10-04","model_version":"pnw-pilot-t1-synthetic-1cbe08ab21a8"}},{"type":"Feature","id":"485_-1234","geometry":{"type":"Polygon","coordinates":[[[-123.45,48.45],[-123.35,48.45],[-123.35,48.55],[-123.45,48.55],[-123.45,48.45]]]},"properties":{"group":"cantharellus","week":"2026-10-05","chance":0.1313,"uncertainty_low":null,"uncertainty_high":null,"applicable":true,"drivers":[{"label":"Rain, total of the last 14 days (mm)","value":41.1},{"label":"Rain, total of the last 3 days (mm)","value":0.7},{"label":"Air temperature, mean of the last 7 days (°C)","value":12.929}],"weather_through":"2026-10-04","model_version":"pnw-pilot-t1-synthetic-1cbe08ab21a8"}},{"type":"Feature","id":"485_-1233","geometry":{"type":"Polygon","coordinates":[[[-123.35,48.45],[-123.25,48.45],[-123.25,48.55],[-123.35,48.55],[-123.35,48.45]]]},"properties":{"group":"cantharellus","week":"2026-10-05","chance":0.1313,"uncertainty_low":null,"uncertainty_high":null,"applicable":true,"drivers":[{"label":"Rain, total of the last 14 days (mm)","value":53.7},{"label":"Rain, total of the last 3 days (mm)","value":1.0},{"label":"Air temperature, mean of the last 7 days (°C)","value":12.429}],"weather_through":"2026-10-04","model_version":"pnw-pilot-t1-synthetic-1cbe08ab21a8"}},{"type":"Feature","id":"486_-1237","geometry":{"type":"Polygon","coordinates":[[[-123.75,48.55],[-123.65,48.55],[-123.65,48.65],[-123.75,48.65],[-123.75,48.55]]]},"properties":{"group":"cantharellus","week":"2026-10-05","chance":0.1313,"uncertainty_low":null,"uncertainty_high":null,"applicable":true,"drivers":[{"label":"Rain, total of the last 14 days (mm)","value":45.0},{"label":"Rain, total of the last 3 days (mm)","value":1.7},{"label":"Air temperature, mean of the last 7 days (°C)","value":12.643}],"weather_through":"2026-10-04","model_version":"pnw-pilot-t1-synthetic-1cbe08ab21a8"}},{"type":"Feature","id":"486_-1235","geometry":{"type":"Polygon","coordinates":[[[-123.55,48.55],[-123.45,48.55],[-123.45,48.65],[-123.55,48.65],[-123.55,48.55]]]},"properties":{"group":"cantharellus","week":"2026-10-05","chance":0.1313,"uncertainty_low":null,"uncertainty_high":null,"applicable":true,"drivers":[{"label":"Rain, total of the last 14 days (mm)","value":41.1},{"label":"Rain, total of the last 3 days (mm)","value":0.7},{"label":"Air temperature, mean of the last 7 days (°C)","value":13.086}],"weather_through":"2026-10-04","model_version":"pnw-pilot-t1-synthetic-1cbe08ab21a8"}},{"type":"Feature","id":"486_-1234","geometry":{"type":"Polygon","coordinates":[[[-123.45,48.55],[-123.35,48.55],[-123.35,48.65],[-123.45,48.65],[-123.45,48.55]]]},"properties":{"group":"cantharellus","week":"2026-10-05","chance":0.1313,"uncertainty_low":null,"uncertainty_high":null,"applicable":true,"drivers":[{"label":"Rain, total of the last 14 days (mm)","value":41.1},{"label":"Rain, total of the last 3 days (mm)","value":0.7},{"label":"Air temperature, mean of the last 7 days (°C)","value":13.086}],"weather_through":"2026-10-04","model_version":"pnw-pilot-t1-synthetic-1cbe08ab21a8"}},{"type":"Feature","id":"486_-1231","geometry":{"type":"Polygon","coordinates":[[[-123.15,48.55],[-123.05,48.55],[-123.05,48.65],[-123.15,48.65],[-123.15,48.55]]]},"properties":{"group":"cantharellus","week":"2026-10-05","chance":0.1313,"uncertainty_low":null,"uncertainty_high":null,"applicable":true,"drivers":[{"label":"Rain, total of the last 14 days (mm)","value":59.3},{"label":"Rain, total of the last 3 days (mm)","value":0.8},{"label":"Air temperature, mean of the last 7 days (°C)","value":12.4}],"weather_through":"2026-10-04","model_version":"pnw-pilot-t1-synthetic-1cbe08ab21a8"}},{"type":"Feature","id":"487_-1237","geometry":{"type":"Polygon","coordinates":[[[-123.75,48.65],[-123.65,48.65],[-123.65,48.75],[-123.75,48.75],[-123.75,48.65]]]},"properties":{"group":"cantharellus","week":"2026-10-05","chance":0.1313,"uncertainty_low":null,"uncertainty_high":null,"applicable":true,"drivers":[{"label":"Rain, total of the last 14 days (mm)","value":47.0},{"label":"Rain, total of the last 3 days (mm)","value":4.4},{"label":"Air temperature, mean of the last 7 days (°C)","value":13.071}],"weather_through":"2026-10-04","model_version":"pnw-pilot-t1-synthetic-1cbe08ab21a8"}},{"type":"Feature","id":"487_-1234","geometry":{"type":"Polygon","coordinates":[[[-123.45,48.65],[-123.35,48.65],[-123.35,48.75],[-123.45,48.75],[-123.45,48.65]]]},"properties":{"group":"cantharellus","week":"2026-10-05","chance":0.1313,"uncertainty_low":null,"uncertainty_high":null,"applicable":true,"drivers":[{"label":"Rain, total of the last 14 days (mm)","value":46.7},{"label":"Rain, total of the last 3 days (mm)","value":3.8},{"label":"Air temperature, mean of the last 7 days (°C)","value":13.171}],"weather_through":"2026-10-04","model_version":"pnw-pilot-t1-synthetic-1cbe08ab21a8"}},{"type":"Feature","id":"488_-1236","geometry":{"type":"Polygon","coordinates":[[[-123.65,48.75],[-123.55,48.75],[-123.55,48.85],[-123.65,48.85],[-123.65,48.75]]]},"properties":{"group":"cantharellus","week":"2026-10-05","chance":0.1313,"uncertainty_low":null,"uncertainty_high":null,"applicable":true,"drivers":[{"label":"Rain, total of the last 14 days (mm)","value":46.7},{"label":"Rain, total of the last 3 days (mm)","value":3.8},{"label":"Air temperature, mean of the last 7 days (°C)","value":13.529}],"weather_through":"2026-10-04","model_version":"pnw-pilot-t1-synthetic-1cbe08ab21a8"}},{"type":"Feature","id":"488_-1235","geometry":{"type":"Polygon","coordinates":[[[-123.55,48.75],[-123.45,48.75],[-123.45,48.85],[-123.55,48.85],[-123.55,48.75]]]},"properties":{"group":"cantharellus","week":"2026-10-05","chance":0.1313,"uncertainty_low":null,"uncertainty_high":null,"applicable":true,"drivers":[{"label":"Rain, total of the last 14 days (mm)","value":46.7},{"label":"Rain, total of the last 3 days (mm)","value":3.8},{"label":"Air temperature, mean of the last 7 days (°C)","value":13.571}],"weather_through":"2026-10-04","model_version":"pnw-pilot-t1-synthetic-1cbe08ab21a8"}},{"type":"Feature","id":"488_-1234","geometry":{"type":"Polygon","coordinates":[[[-123.45,48.75],[-123.35,48.75],[-123.35,48.85],[-123.45,48.85],[-123.45,48.75]]]},"properties":{"group":"cantharellus","week":"2026-10-05","chance":0.1313,"uncertainty_low":null,"uncertainty_high":null,"applicable":true,"drivers":[{"label":"Rain, total of the last 14 days (mm)","value":46.7},{"label":"Rain, total of the last 3 days (mm)","value":3.8},{"label":"Air temperature, mean of the last 7 days (°C)","value":13.171}],"weather_through":"2026-10-04","model_version":"pnw-pilot-t1-synthetic-1cbe08ab21a8"}},{"type":"Feature","id":"488_-1233","geometry":{"type":"Polygon","coordinates":[[[-123.35,48.75],[-123.25,48.75],[-123.25,48.85],[-123.35,48.85],[-123.35,48.75]]]},"properties":{"group":"cantharellus","week":"2026-10-05","chance":0.1313,"uncertainty_low":null,"uncertainty_high":null,"applicable":true,"drivers":[{"label":"Rain, total of the last 14 days (mm)","value":57.2},{"label":"Rain, total of the last 3 days (mm)","value":2.5},{"label":"Air temperature, mean of the last 7 days (°C)","value":13.029}],"weather_through":"2026-10-04","model_version":"pnw-pilot-t1-synthetic-1cbe08ab21a8"}},{"type":"Feature","id":"489_-1236","geometry":{"type":"Polygon","coordinates":[[[-123.65,48.85],[-123.55,48.85],[-123.55,48.95],[-123.65,48.95],[-123.65,48.85]]]},"properties":{"group":"cantharellus","week":"2026-10-05","chance":0.1313,"uncertainty_low":null,"uncertainty_high":null,"applicable":true,"drivers":[{"label":"Rain, total of the last 14 days (mm)","value":54.5},{"label":"Rain, total of the last 3 days (mm)","value":4.4},{"label":"Air temperature, mean of the last 7 days (°C)","value":13.971}],"weather_through":"2026-10-04","model_version":"pnw-pilot-t1-synthetic-1cbe08ab21a8"}},{"type":"Feature","id":"489_-1235","geometry":{"type":"Polygon","coordinates":[[[-123.55,48.85],[-123.45,48.85],[-123.45,48.95],[-123.55,48.95],[-123.55,48.85]]]},"properties":{"group":"cantharellus","week":"2026-10-05","chance":0.1313,"uncertainty_low":null,"uncertainty_high":null,"applicable":true,"drivers":[{"label":"Rain, total of the last 14 days (mm)","value":54.5},{"label":"Rain, total of the last 3 days (mm)","value":4.4},{"label":"Air temperature, mean of the last 7 days (°C)","value":13.971}],"weather_through":"2026-10-04","model_version":"pnw-pilot-t1-synthetic-1cbe08ab21a8"}},{"type":"Feature","id":"489_-1234","geometry":{"type":"Polygon","coordinates":[[[-123.45,48.85],[-123.35,48.85],[-123.35,48.95],[-123.45,48.95],[-123.45,48.85]]]},"properties":{"group":"cantharellus","week":"2026-10-05","chance":0.1313,"uncertainty_low":null,"uncertainty_high":null,"applicable":true,"drivers":[{"label":"Rain, total of the last 14 days (mm)","value":54.5},{"label":"Rain, total of the last 3 days (mm)","value":4.4},{"label":"Air temperature, mean of the last 7 days (°C)","value":13.971}],"weather_through":"2026-10-04","model_version":"pnw-pilot-t1-synthetic-1cbe08ab21a8"}},{"type":"Feature","id":"489_-1233","geometry":{"type":"Polygon","coordinates":[[[-123.35,48.85],[-123.25,48.85],[-123.25,48.95],[-123.35,48.95],[-123.35,48.85]]]},"properties":{"group":"cantharellus","week":"2026-10-05","chance":0.1313,"uncertainty_low":null,"uncertainty_high":null,"applicable":true,"drivers":[{"label":"Rain, total of the last 14 days (mm)","value":65.7},{"label":"Rain, total of the last 3 days (mm)","value":5.2},{"label":"Air temperature, mean of the last 7 days (°C)","value":14.157}],"weather_through":"2026-10-04","model_version":"pnw-pilot-t1-synthetic-1cbe08ab21a8"}}]}