{"type":"FeatureCollection","features":[{"type":"Feature","id":"480_-1220","geometry":{"type":"Polygon","coordinates":[[[-122.05,47.95],[-121.95,47.95],[-121.95,48.05],[-122.05,48.05],[-122.05,47.95]]]},"properties":{"group":"cantharellus","week":"2026-10-05","chance":0.0366,"uncertainty_low":null,"uncertainty_high":null,"applicable":true,"drivers":[],"weather_through":null,"model_version":"pnw-pilot-t1-calendar-e2c272b7acfa"}},{"type":"Feature","id":"480_-1219","geometry":{"type":"Polygon","coordinates":[[[-121.95,47.95],[-121.85,47.95],[-121.85,48.05],[-121.95,48.05],[-121.95,47.95]]]},"properties":{"group":"cantharellus","week":"2026-10-05","chance":0.0396,"uncertainty_low":null,"uncertainty_high":null,"applicable":true,"drivers":[],"weather_through":null,"model_version":"pnw-pilot-t1-calendar-e2c272b7acfa"}},{"type":"Feature","id":"480_-1218","geometry":{"type":"Polygon","coordinates":[[[-121.85,47.95],[-121.75,47.95],[-121.75,48.05],[-121.85,48.05],[-121.85,47.95]]]},"properties":{"group":"cantharellus","week":"2026-10-05","chance":0.0356,"uncertainty_low":null,"uncertainty_high":null,"applicable":true,"drivers":[],"weather_through":null,"model_version":"pnw-pilot-t1-calendar-e2c272b7acfa"}},{"type":"Feature","id":"480_-1217","geometry":{"type":"Polygon","coordinates":[[[-121.75,47.95],[-121.65,47.95],[-121.65,48.05],[-121.75,48.05],[-121.75,47.95]]]},"properties":{"group":"cantharellus","week":"2026-10-05","chance":0.0356,"uncertainty_low":null,"uncertainty_high":null,"applicable":true,"drivers":[],"weather_through":null,"model_version":"pnw-pilot-t1-calendar-e2c272b7acfa"}},{"type":"Feature","id":"480_-1216","geometry":{"type":"Polygon","coordinates":[[[-121.65,47.95],[-121.55,47.95],[-121.55,48.05],[-121.65,48.05],[-121.65,47.95]]]},"properties":{"group":"cantharellus","week":"2026-10-05","chance":0.0363,"uncertainty_low":null,"uncertainty_high":null,"applicable":true,"drivers":[],"weather_through":null,"model_version":"pnw-pilot-t1-calendar-e2c272b7acfa"}},{"type":"Feature","id":"480_-1215","geometry":{"type":"Polygon","coordinates":[[[-121.55,47.95],[-121.45,47.95],[-121.45,48.05],[-121.55,48.05],[-121.55,47.95]]]},"properties":{"group":"cantharellus","week":"2026-10-05","chance":0.0306,"uncertainty_low":null,"uncertainty_high":null,"applicable":true,"drivers":[],"weather_through":null,"model_version":"pnw-pilot-t1-calendar-e2c272b7acfa"}},{"type":"Feature","id":"480_-1214","geometry":{"type":"Polygon","coordinates":[[[-121.45,47.95],[-121.35,47.95],[-121.35,48.05],[-121.45,48.05],[-121.45,47.95]]]},"properties":{"group":"cantharellus","week":"2026-10-05","chance":0.0279,"uncertainty_low":null,"uncertainty_high":null,"applicable":true,"drivers":[],"weather_through":null,"model_version":"pnw-pilot-t1-calendar-e2c272b7acfa"}},{"type":"Feature","id":"480_-1213","geometry":{"type":"Polygon","coordinates":[[[-121.35,47.95],[-121.25,47.95],[-121.25,48.05],[-121.35,48.05],[-121.35,47.95]]]},"properties":{"group":"cantharellus","week":"2026-10-05","chance":0.0279,"uncertainty_low":null,"uncertainty_high":null,"applicable":true,"drivers":[],"weather_through":null,"model_version":"pnw-pilot-t1-calendar-e2c272b7acfa"}},{"type":"Feature","id":"480_-1212","geometry":{"type":"Polygon","coordinates":[[[-121.25,47.95],[-121.15,47.95],[-121.15,48.05],[-121.25,48.05],[-121.25,47.95]]]},"properties":{"group":"cantharellus","week":"2026-10-05","chance":0.0279,"uncertainty_low":null,"uncertainty_high":null,"applicable":true,"drivers":[],"weather_through":null,"model_version":"pnw-pilot-t1-calendar-e2c272b7acfa"}},{"type":"Feature","id":"480_-1211","geometry":{"type":"Polygon","coordinates":[[[-121.15,47.95],[-121.05,47.95],[-121.05,48.05],[-121.15,48.05],[-121.15,47.95]]]},"properties":{"group":"cantharellus","week":"2026-10-05","chance":0.0297,"uncertainty_low":null,"uncertainty_high":null,"applicable":true,"drivers":[],"weather_through":null,"model_version":"pnw-pilot-t1-calendar-e2c272b7acfa"}},{"type":"Feature","id":"481_-1220","geometry":{"type":"Polygon","coordinates":[[[-122.05,48.05],[-121.95,48.05],[-121.95,48.15],[-122.05,48.15],[-122.05,48.05]]]},"properties":{"group":"cantharellus","week":"2026-10-05","chance":0.0421,"uncertainty_low":null,"uncertainty_high":null,"applicable":true,"drivers":[],"weather_through":null,"model_version":"pnw-pilot-t1-calendar-e2c272b7acfa"}},{"type":"Feature","id":"481_-1219","geometry":{"type":"Polygon","coordinates":[[[-121.95,48.05],[-121.85,48.05],[-121.85,48.15],[-121.95,48.15],[-121.95,48.05]]]},"properties":{"group":"cantharellus","week":"2026-10-05","chance":0.0455,"uncertainty_low":null,"uncertainty_high":null,"applicable":true,"drivers":[],"weather_through":null,"model_version":"pnw-pilot-t1-calendar-e2c272b7acfa"}},{"type":"Feature","id":"481_-1218","geometry":{"type":"Polygon","coordinates":[[[-121.85,48.05],[-121.75,48.05],[-121.75,48.15],[-121.85,48.15],[-121.85,48.05]]]},"properties":{"group":"cantharellus","week":"2026-10-05","chance":0.0424,"uncertainty_low":null,"uncertainty_high":null,"applicable":true,"drivers":[],"weather_through":null,"model_version":"pnw-pilot-t1-calendar-e2c272b7acfa"}},{"type":"Feature","id":"481_-1217","geometry":{"type":"Polygon","coordinates":[[[-121.75,48.05],[-121.65,48.05],[-121.65,48.15],[-121.75,48.15],[-121.75,48.05]]]},"properties":{"group":"cantharellus","week":"2026-10-05","chance":0.0424,"uncertainty_low":null,"uncertainty_high":null,"applicable":true,"drivers":[],"weather_through":null,"model_version":"pnw-pilot-t1-calendar-e2c272b7acfa"}},{"type":"Feature","id":"481_-1216","geometry":{"type":"Polygon","coordinates":[[[-121.65,48.05],[-121.55,48.05],[-121.55,48.15],[-121.65,48.15],[-121.65,48.05]]]},"properties":{"group":"cantharellus","week":"2026-10-05","chance":0.0417,"uncertainty_low":null,"uncertainty_high":null,"applicable":true,"drivers":[],"weather_through":null,"model_version":"pnw-pilot-t1-calendar-e2c272b7acfa"}},{"type":"Feature","id":"481_-1215","geometry":{"type":"Polygon","coordinates":[[[-121.55,48.05],[-121.45,48.05],[-121.45,48.15],[-121.55,48.15],[-121.55,48.05]]]},"properties":{"group":"cantharellus","week":"2026-10-05","chance":0.0352,"uncertainty_low":null,"uncertainty_high":null,"applicable":true,"drivers":[],"weather_through":null,"model_version":"pnw-pilot-t1-calendar-e2c272b7acfa"}},{"type":"Feature","id":"481_-1214","geometry":{"type":"Polygon","coordinates":[[[-121.45,48.05],[-121.35,48.05],[-121.35,48.15],[-121.45,48.15],[-121.45,48.05]]]},"properties":{"group":"cantharellus","week":"2026-10-05","chance":0.0322,"uncertainty_low":null,"uncertainty_high":null,"applicable":true,"drivers":[],"weather_through":null,"model_version":"pnw-pilot-t1-calendar-e2c272b7acfa"}},{"type":"Feature","id":"481_-1213","geometry":{"type":"Polygon","coordinates":[[[-121.35,48.05],[-121.25,48.05],[-121.25,48.15],[-121.35,48.15],[-121.35,48.05]]]},"properties":{"group":"cantharellus","week":"2026-10-05","chance":0.0322,"uncertainty_low":null,"uncertainty_high":null,"applicable":true,"drivers":[],"weather_through":null,"model_version":"pnw-pilot-t1-calendar-e2c272b7acfa"}},{"type":"Feature","id":"481_-1212","geometry":{"type":"Polygon","coordinates":[[[-121.25,48.05],[-121.15,48.05],[-121.15,48.15],[-121.25,48.15],[-121.25,48.05]]]},"properties":{"group":"cantharellus","week":"2026-10-05","chance":0.0322,"uncertainty_low":null,"uncertainty_high":null,"applicable":true,"drivers":[],"weather_through":null,"model_version":"pnw-pilot-t1-calendar-e2c272b7acfa"}},{"type":"Feature","id":"481_-1211","geometry":{"type":"Polygon","coordinates":[[[-121.15,48.05],[-121.05,48.05],[-121.05,48.15],[-121.15,48.15],[-121.15,48.05]]]},"properties":{"group":"cantharellus","week":"2026-10-05","chance":0.0342,"uncertainty_low":null,"uncertainty_high":null,"applicable":true,"drivers":[],"weather_through":null,"model_version":"pnw-pilot-t1-calendar-e2c272b7acfa"}},{"type":"Feature","id":"482_-1220","geometry":{"type":"Polygon","coordinates":[[[-122.05,48.15],[-121.95,48.15],[-121.95,48.25],[-122.05,48.25],[-122.05,48.15]]]},"properties":{"group":"cantharellus","week":"2026-10-05","chance":0.0421,"uncertainty_low":null,"uncertainty_high":null,"applicable":true,"drivers":[],"weather_through":null,"model_version":"pnw-pilot-t1-calendar-e2c272b7acfa"}},{"type":"Feature","id":"482_-1219","geometry":{"type":"Polygon","coordinates":[[[-121.95,48.15],[-121.85,48.15],[-121.85,48.25],[-121.95,48.25],[-121.95,48.15]]]},"properties":{"group":"cantharellus","week":"2026-10-05","chance":0.0455,"uncertainty_low":null,"uncertainty_high":null,"applicable":true,"drivers":[],"weather_through":null,"model_version":"pnw-pilot-t1-calendar-e2c272b7acfa"}},{"type":"Feature","id":"482_-1218","geometry":{"type":"Polygon","coordinates":[[[-121.85,48.15],[-121.75,48.15],[-121.75,48.25],[-121.85,48.25],[-121.85,48.15]]]},"properties":{"group":"cantharellus","week":"2026-10-05","chance":0.0424,"uncertainty_low":null,"uncertainty_high":null,"applicable":true,"drivers":[],"weather_through":null,"model_version":"pnw-pilot-t1-calendar-e2c272b7acfa"}},{"type":"Feature","id":"482_-1217","geometry":{"type":"Polygon","coordinates":[[[-121.75,48.15],[-121.65,48.15],[-121.65,48.25],[-121.75,48.25],[-121.75,48.15]]]},"properties":{"group":"cantharellus","week":"2026-10-05","chance":0.0424,"uncertainty_low":null,"uncertainty_high":null,"applicable":true,"drivers":[],"weather_through":null,"model_version":"pnw-pilot-t1-calendar-e2c272b7acfa"}},{"type":"Feature","id":"482_-1216","geometry":{"type":"Polygon","coordinates":[[[-121.65,48.15],[-121.55,48.15],[-121.55,48.25],[-121.65,48.25],[-121.65,48.15]]]},"properties":{"group":"cantharellus","week":"2026-10-05","chance":0.0417,"uncertainty_low":null,"uncertainty_high":null,"applicable":true,"drivers":[],"weather_through":null,"model_version":"pnw-pilot-t1-calendar-e2c272b7acfa"}},{"type":"Feature","id":"482_-1215","geometry":{"type":"Polygon","coordinates":[[[-121.55,48.15],[-121.45,48.15],[-121.45,48.25],[-121.55,48.25],[-121.55,48.15]]]},"properties":{"group":"cantharellus","week":"2026-10-05","chance":0.0352,"uncertainty_low":null,"uncertainty_high":null,"applicable":true,"drivers":[],"weather_through":null,"model_version":"pnw-pilot-t1-calendar-e2c272b7acfa"}},{"type":"Feature","id":"482_-1214","geometry":{"type":"Polygon","coordinates":[[[-121.45,48.15],[-121.35,48.15],[-121.35,48.25],[-121.45,48.25],[-121.45,48.15]]]},"properties":{"group":"cantharellus","week":"2026-10-05","chance":0.0322,"uncertainty_low":null,"uncertainty_high":null,"applicable":true,"drivers":[],"weather_through":null,"model_version":"pnw-pilot-t1-calendar-e2c272b7acfa"}},{"type":"Feature","id":"482_-1213","geometry":{"type":"Polygon","coordinates":[[[-121.35,48.15],[-121.25,48.15],[-121.25,48.25],[-121.35,48.25],[-121.35,48.15]]]},"properties":{"group":"cantharellus","week":"2026-10-05","chance":0.0322,"uncertainty_low":null,"uncertainty_high":null,"applicable":true,"drivers":[],"weather_through":null,"model_version":"pnw-pilot-t1-calendar-e2c272b7acfa"}},{"type":"Feature","id":"482_-1212","geometry":{"type":"Polygon","coordinates":[[[-121.25,48.15],[-121.15,48.15],[-121.15,48.25],[-121.25,48.25],[-121.25,48.15]]]},"properties":{"group":"cantharellus","week":"2026-10-05","chance":0.0322,"uncertainty_low":null,"uncertainty_high":null,"applicable":true,"drivers":[],"weather_through":null,"model_version":"pnw-pilot-t1-calendar-e2c272b7acfa"}},{"type":"Feature","id":"482_-1211","geometry":{"type":"Polygon","coordinates":[[[-121.15,48.15],[-121.05,48.15],[-121.05,48.25],[-121.15,48.25],[-121.15,48.15]]]},"properties":{"group":"cantharellus","week":"2026-10-05","chance":0.0342,"uncertainty_low":null,"uncertainty_high":null,"applicable":true,"drivers":[],"weather_through":null,"model_version":"pnw-pilot-t1-calendar-e2c272b7acfa"}},{"type":"Feature","id":"483_-1220","geometry":{"type":"Polygon","coordinates":[[[-122.05,48.25],[-121.95,48.25],[-121.95,48.35],[-122.05,48.35],[-122.05,48.25]]]},"properties":{"group":"cantharellus","week":"2026-10-05","chance":0.0483,"uncertainty_low":null,"uncertainty_high":null,"applicable":true,"drivers":[],"weather_through":null,"model_version":"pnw-pilot-t1-calendar-e2c272b7acfa"}},{"type":"Feature","id":"483_-1219","geometry":{"type":"Polygon","coordinates":[[[-121.95,48.25],[-121.85,48.25],[-121.85,48.35],[-121.95,48.35],[-121.95,48.25]]]},"properties":{"group":"cantharellus","week":"2026-10-05","chance":0.0547,"uncertainty_low":null,"uncertainty_high":null,"applicable":true,"drivers":[],"weather_through":null,"model_version":"pnw-pilot-t1-calendar-e2c272b7acfa"}},{"type":"Feature","id":"483_-1218","geometry":{"type":"Polygon","coordinates":[[[-121.85,48.25],[-121.75,48.25],[-121.75,48.35],[-121.85,48.35],[-121.85,48.25]]]},"properties":{"group":"cantharellus","week":"2026-10-05","chance":0.0544,"uncertainty_low":null,"uncertainty_high":null,"applicable":true,"drivers":[],"weather_through":null,"model_version":"pnw-pilot-t1-calendar-e2c272b7acfa"}},{"type":"Feature","id":"483_-1217","geometry":{"type":"Polygon","coordinates":[[[-121.75,48.25],[-121.65,48.25],[-121.65,48.35],[-121.75,48.35],[-121.75,48.25]]]},"properties":{"group":"cantharellus","week":"2026-10-05","chance":0.0544,"uncertainty_low":null,"uncertainty_high":null,"applicable":true,"drivers":[],"weather_through":null,"model_version":"pnw-pilot-t1-calendar-e2c272b7acfa"}},{"type":"Feature","id":"483_-1216","geometry":{"type":"Polygon","coordinates":[[[-121.65,48.25],[-121.55,48.25],[-121.55,48.35],[-121.65,48.35],[-121.65,48.25]]]},"properties":{"group":"cantharellus","week":"2026-10-05","chance":0.0535,"uncertainty_low":null,"uncertainty_high":null,"applicable":true,"drivers":[],"weather_through":null,"model_version":"pnw-pilot-t1-calendar-e2c272b7acfa"}},{"type":"Feature","id":"483_-1215","geometry":{"type":"Polygon","coordinates":[[[-121.55,48.25],[-121.45,48.25],[-121.45,48.35],[-121.55,48.35],[-121.55,48.25]]]},"properties":{"group":"cantharellus","week":"2026-10-05","chance":0.0452,"uncertainty_low":null,"uncertainty_high":null,"applicable":true,"drivers":[],"weather_through":null,"model_version":"pnw-pilot-t1-calendar-e2c272b7acfa"}},{"type":"Feature","id":"483_-1214","geometry":{"type":"Polygon","coordinates":[[[-121.45,48.25],[-121.35,48.25],[-121.35,48.35],[-121.45,48.35],[-121.45,48.25]]]},"properties":{"group":"cantharellus","week":"2026-10-05","chance":0.0413,"uncertainty_low":null,"uncertainty_high":null,"applicable":true,"drivers":[],"weather_through":null,"model_version":"pnw-pilot-t1-calendar-e2c272b7acfa"}},{"type":"Feature","id":"483_-1213","geometry":{"type":"Polygon","coordinates":[[[-121.35,48.25],[-121.25,48.25],[-121.25,48.35],[-121.35,48.35],[-121.35,48.25]]]},"properties":{"group":"cantharellus","week":"2026-10-05","chance":0.0413,"uncertainty_low":null,"uncertainty_high":null,"applicable":true,"drivers":[],"weather_through":null,"model_version":"pnw-pilot-t1-calendar-e2c272b7acfa"}},{"type":"Feature","id":"483_-1212","geometry":{"type":"Polygon","coordinates":[[[-121.25,48.25],[-121.15,48.25],[-121.15,48.35],[-121.25,48.35],[-121.25,48.25]]]},"properties":{"group":"cantharellus","week":"2026-10-05","chance":0.0413,"uncertainty_low":null,"uncertainty_high":null,"applicable":true,"drivers":[],"weather_through":null,"model_version":"pnw-pilot-t1-calendar-e2c272b7acfa"}},{"type":"Feature","id":"483_-1211","geometry":{"type":"Polygon","coordinates":[[[-121.15,48.25],[-121.05,48.25],[-121.05,48.35],[-121.15,48.35],[-121.15,48.25]]]},"properties":{"group":"cantharellus","week":"2026-10-05","chance":0.0439,"uncertainty_low":null,"uncertainty_high":null,"applicable":true,"drivers":[],"weather_through":null,"model_version":"pnw-pilot-t1-calendar-e2c272b7acfa"}},{"type":"Feature","id":"484_-1220","geometry":{"type":"Polygon","coordinates":[[[-122.05,48.35],[-121.95,48.35],[-121.95,48.45],[-122.05,48.45],[-122.05,48.35]]]},"properties":{"group":"cantharellus","week":"2026-10-05","chance":0.0503,"uncertainty_low":null,"uncertainty_high":null,"applicable":true,"drivers":[],"weather_through":null,"model_version":"pnw-pilot-t1-calendar-e2c272b7acfa"}},{"type":"Feature","id":"484_-1219","geometry":{"type":"Polygon","coordinates":[[[-121.95,48.35],[-121.85,48.35],[-121.85,48.45],[-121.95,48.45],[-121.95,48.35]]]},"properties":{"group":"cantharellus","week":"2026-10-05","chance":0.0548,"uncertainty_low":null,"uncertainty_high":null,"applicable":true,"drivers":[],"weather_through":null,"model_version":"pnw-pilot-t1-calendar-e2c272b7acfa"}},{"type":"Feature","id":"484_-1218","geometry":{"type":"Polygon","coordinates":[[[-121.85,48.35],[-121.75,48.35],[-121.75,48.45],[-121.85,48.45],[-121.85,48.35]]]},"properties":{"group":"cantharellus","week":"2026-10-05","chance":0.058,"uncertainty_low":null,"uncertainty_high":null,"applicable":true,"drivers":[],"weather_through":null,"model_version":"pnw-pilot-t1-calendar-e2c272b7acfa"}},{"type":"Feature","id":"484_-1217","geometry":{"type":"Polygon","coordinates":[[[-121.75,48.35],[-121.65,48.35],[-121.65,48.45],[-121.75,48.45],[-121.75,48.35]]]},"properties":{"group":"cantharellus","week":"2026-10-05","chance":0.058,"uncertainty_low":null,"uncertainty_high":null,"applicable":true,"drivers":[],"weather_through":null,"model_version":"pnw-pilot-t1-calendar-e2c272b7acfa"}},{"type":"Feature","id":"484_-1216","geometry":{"type":"Polygon","coordinates":[[[-121.65,48.35],[-121.55,48.35],[-121.55,48.45],[-121.65,48.45],[-121.65,48.35]]]},"properties":{"group":"cantharellus","week":"2026-10-05","chance":0.0571,"uncertainty_low":null,"uncertainty_high":null,"applicable":true,"drivers":[],"weather_through":null,"model_version":"pnw-pilot-t1-calendar-e2c272b7acfa"}},{"type":"Feature","id":"484_-1215","geometry":{"type":"Polygon","coordinates":[[[-121.55,48.35],[-121.45,48.35],[-121.45,48.45],[-121.55,48.45],[-121.55,48.35]]]},"properties":{"group":"cantharellus","week":"2026-10-05","chance":0.0483,"uncertainty_low":null,"uncertainty_high":null,"applicable":true,"drivers":[],"weather_through":null,"model_version":"pnw-pilot-t1-calendar-e2c272b7acfa"}},{"type":"Feature","id":"484_-1214","geometry":{"type":"Polygon","coordinates":[[[-121.45,48.35],[-121.35,48.35],[-121.35,48.45],[-121.45,48.45],[-121.45,48.35]]]},"properties":{"group":"cantharellus","week":"2026-10-05","chance":0.0442,"uncertainty_low":null,"uncertainty_high":null,"applicable":true,"drivers":[],"weather_through":null,"model_version":"pnw-pilot-t1-calendar-e2c272b7acfa"}},{"type":"Feature","id":"484_-1213","geometry":{"type":"Polygon","coordinates":[[[-121.35,48.35],[-121.25,48.35],[-121.25,48.45],[-121.35,48.45],[-121.35,48.35]]]},"properties":{"group":"cantharellus","week":"2026-10-05","chance":0.0442,"uncertainty_low":null,"uncertainty_high":null,"applicable":true,"drivers":[],"weather_through":null,"model_version":"pnw-pilot-t1-calendar-e2c272b7acfa"}},{"type":"Feature","id":"484_-1212","geometry":{"type":"Polygon","coordinates":[[[-121.25,48.35],[-121.15,48.35],[-121.15,48.45],[-121.25,48.45],[-121.25,48.35]]]},"properties":{"group":"cantharellus","week":"2026-10-05","chance":0.0442,"uncertainty_low":null,"uncertainty_high":null,"applicable":true,"drivers":[],"weather_through":null,"model_version":"pnw-pilot-t1-calendar-e2c272b7acfa"}},{"type":"Feature","id":"484_-1211","geometry":{"type":"Polygon","coordinates":[[[-121.15,48.35],[-121.05,48.35],[-121.05,48.45],[-121.15,48.45],[-121.15,48.35]]]},"properties":{"group":"cantharellus","week":"2026-10-05","chance":0.0469,"uncertainty_low":null,"uncertainty_high":null,"applicable":true,"drivers":[],"weather_through":null,"model_version":"pnw-pilot-t1-calendar-e2c272b7acfa"}},{"type":"Feature","id":"485_-1220","geometry":{"type":"Polygon","coordinates":[[[-122.05,48.45],[-121.95,48.45],[-121.95,48.55],[-122.05,48.55],[-122.05,48.45]]]},"properties":{"group":"cantharellus","week":"2026-10-05","chance":0.0523,"uncertainty_low":null,"uncertainty_high":null,"applicable":true,"drivers":[],"weather_through":null,"model_version":"pnw-pilot-t1-calendar-e2c272b7acfa"}},{"type":"Feature","id":"485_-1219","geometry":{"type":"Polygon","coordinates":[[[-121.95,48.45],[-121.85,48.45],[-121.85,48.55],[-121.95,48.55],[-121.95,48.45]]]},"properties":{"group":"cantharellus","week":"2026-10-05","chance":0.057,"uncertainty_low":null,"uncertainty_high":null,"applicable":true,"drivers":[],"weather_through":null,"model_version":"pnw-pilot-t1-calendar-e2c272b7acfa"}},{"type":"Feature","id":"485_-1218","geometry":{"type":"Polygon","coordinates":[[[-121.85,48.45],[-121.75,48.45],[-121.75,48.55],[-121.85,48.55],[-121.85,48.45]]]},"properties":{"group":"cantharellus","week":"2026-10-05","chance":0.0604,"uncertainty_low":null,"uncertainty_high":null,"applicable":true,"drivers":[],"weather_through":null,"model_version":"pnw-pilot-t1-calendar-e2c272b7acfa"}},{"type":"Feature","id":"485_-1217","geometry":{"type":"Polygon","coordinates":[[[-121.75,48.45],[-121.65,48.45],[-121.65,48.55],[-121.75,48.55],[-121.75,48.45]]]},"properties":{"group":"cantharellus","week":"2026-10-05","chance":0.0604,"uncertainty_low":null,"uncertainty_high":null,"applicable":true,"drivers":[],"weather_through":null,"model_version":"pnw-pilot-t1-calendar-e2c272b7acfa"}},{"type":"Feature","id":"485_-1216","geometry":{"type":"Polygon","coordinates":[[[-121.65,48.45],[-121.55,48.45],[-121.55,48.55],[-121.65,48.55],[-121.65,48.45]]]},"properties":{"group":"cantharellus","week":"2026-10-05","chance":0.0594,"uncertainty_low":null,"uncertainty_high":null,"applicable":true,"drivers":[],"weather_through":null,"model_version":"pnw-pilot-t1-calendar-e2c272b7acfa"}},{"type":"Feature","id":"485_-1215","geometry":{"type":"Polygon","coordinates":[[[-121.55,48.45],[-121.45,48.45],[-121.45,48.55],[-121.55,48.55],[-121.55,48.45]]]},"properties":{"group":"cantharellus","week":"2026-10-05","chance":0.0503,"uncertainty_low":null,"uncertainty_high":null,"applicable":true,"drivers":[],"weather_through":null,"model_version":"pnw-pilot-t1-calendar-e2c272b7acfa"}},{"type":"Feature","id":"485_-1214","geometry":{"type":"Polygon","coordinates":[[[-121.45,48.45],[-121.35,48.45],[-121.35,48.55],[-121.45,48.55],[-121.45,48.45]]]},"properties":{"group":"cantharellus","week":"2026-10-05","chance":0.046,"uncertainty_low":null,"uncertainty_high":null,"applicable":true,"drivers":[],"weather_through":null,"model_version":"pnw-pilot-t1-calendar-e2c272b7acfa"}},{"type":"Feature","id":"485_-1213","geometry":{"type":"Polygon","coordinates":[[[-121.35,48.45],[-121.25,48.45],[-121.25,48.55],[-121.35,48.55],[-121.35,48.45]]]},"properties":{"group":"cantharellus","week":"2026-10-05","chance":0.046,"uncertainty_low":null,"uncertainty_high":null,"applicable":true,"drivers":[],"weather_through":null,"model_version":"pnw-pilot-t1-calendar-e2c272b7acfa"}},{"type":"Feature","id":"485_-1212","geometry":{"type":"Polygon","coordinates":[[[-121.25,48.45],[-121.15,48.45],[-121.15,48.55],[-121.25,48.55],[-121.25,48.45]]]},"properties":{"group":"cantharellus","week":"2026-10-05","chance":0.046,"uncertainty_low":null,"uncertainty_high":null,"applicable":true,"drivers":[],"weather_through":null,"model_version":"pnw-pilot-t1-calendar-e2c272b7acfa"}},{"type":"Feature","id":"485_-1211","geometry":{"type":"Polygon","coordinates":[[[-121.15,48.45],[-121.05,48.45],[-121.05,48.55],[-121.15,48.55],[-121.15,48.45]]]},"properties":{"group":"cantharellus","week":"2026-10-05","chance":0.0488,"uncertainty_low":null,"uncertainty_high":null,"applicable":true,"drivers":[],"weather_through":null,"model_version":"pnw-pilot-t1-calendar-e2c272b7acfa"}},{"type":"Feature","id":"486_-1220","geometry":{"type":"Polygon","coordinates":[[[-122.05,48.55],[-121.95,48.55],[-121.95,48.65],[-122.05,48.65],[-122.05,48.55]]]},"properties":{"group":"cantharellus","week":"2026-10-05","chance":0.0536,"uncertainty_low":null,"uncertainty_high":null,"applicable":true,"drivers":[],"weather_through":null,"model_version":"pnw-pilot-t1-calendar-e2c272b7acfa"}},{"type":"Feature","id":"486_-1219","geometry":{"type":"Polygon","coordinates":[[[-121.95,48.55],[-121.85,48.55],[-121.85,48.65],[-121.95,48.65],[-121.95,48.55]]]},"properties":{"group":"cantharellus","week":"2026-10-05","chance":0.0581,"uncertainty_low":null,"uncertainty_high":null,"applicable":true,"drivers":[],"weather_through":null,"model_version":"pnw-pilot-t1-calendar-e2c272b7acfa"}},{"type":"Feature","id":"486_-1218","geometry":{"type":"Polygon","coordinates":[[[-121.85,48.55],[-121.75,48.55],[-121.75,48.65],[-121.85,48.65],[-121.85,48.55]]]},"properties":{"group":"cantharellus","week":"2026-10-05","chance":0.0615,"uncertainty_low":null,"uncertainty_high":null,"applicable":true,"drivers":[],"weather_through":null,"model_version":"pnw-pilot-t1-calendar-e2c272b7acfa"}},{"type":"Feature","id":"486_-1217","geometry":{"type":"Polygon","coordinates":[[[-121.75,48.55],[-121.65,48.55],[-121.65,48.65],[-121.75,48.65],[-121.75,48.55]]]},"properties":{"group":"cantharellus","week":"2026-10-05","chance":0.0615,"uncertainty_low":null,"uncertainty_high":null,"applicable":true,"drivers":[],"weather_through":null,"model_version":"pnw-pilot-t1-calendar-e2c272b7acfa"}},{"type":"Feature","id":"486_-1216","geometry":{"type":"Polygon","coordinates":[[[-121.65,48.55],[-121.55,48.55],[-121.55,48.65],[-121.65,48.65],[-121.65,48.55]]]},"properties":{"group":"cantharellus","week":"2026-10-05","chance":0.0605,"uncertainty_low":null,"uncertainty_high":null,"applicable":true,"drivers":[],"weather_through":null,"model_version":"pnw-pilot-t1-calendar-e2c272b7acfa"}},{"type":"Feature","id":"486_-1215","geometry":{"type":"Polygon","coordinates":[[[-121.55,48.55],[-121.45,48.55],[-121.45,48.65],[-121.55,48.65],[-121.55,48.55]]]},"properties":{"group":"cantharellus","week":"2026-10-05","chance":0.0512,"uncertainty_low":null,"uncertainty_high":null,"applicable":true,"drivers":[],"weather_through":null,"model_version":"pnw-pilot-t1-calendar-e2c272b7acfa"}},{"type":"Feature","id":"486_-1214","geometry":{"type":"Polygon","coordinates":[[[-121.45,48.55],[-121.35,48.55],[-121.35,48.65],[-121.45,48.65],[-121.45,48.55]]]},"properties":{"group":"cantharellus","week":"2026-10-05","chance":0.0469,"uncertainty_low":null,"uncertainty_high":null,"applicable":true,"drivers":[],"weather_through":null,"model_version":"pnw-pilot-t1-calendar-e2c272b7acfa"}},{"type":"Feature","id":"486_-1213","geometry":{"type":"Polygon","coordinates":[[[-121.35,48.55],[-121.25,48.55],[-121.25,48.65],[-121.35,48.65],[-121.35,48.55]]]},"properties":{"group":"cantharellus","week":"2026-10-05","chance":0.0469,"uncertainty_low":null,"uncertainty_high":null,"applicable":true,"drivers":[],"weather_through":null,"model_version":"pnw-pilot-t1-calendar-e2c272b7acfa"}},{"type":"Feature","id":"486_-1212","geometry":{"type":"Polygon","coordinates":[[[-121.25,48.55],[-121.15,48.55],[-121.15,48.65],[-121.25,48.65],[-121.25,48.55]]]},"properties":{"group":"cantharellus","week":"2026-10-05","chance":0.0469,"uncertainty_low":null,"uncertainty_high":null,"applicable":true,"drivers":[],"weather_through":null,"model_version":"pnw-pilot-t1-calendar-e2c272b7acfa"}},{"type":"Feature","id":"486_-1211","geometry":{"type":"Polygon","coordinates":[[[-121.15,48.55],[-121.05,48.55],[-121.05,48.65],[-121.15,48.65],[-121.15,48.55]]]},"properties":{"group":"cantharellus","week":"2026-10-05","chance":0.0498,"uncertainty_low":null,"uncertainty_high":null,"applicable":true,"drivers":[],"weather_through":null,"model_version":"pnw-pilot-t1-calendar-e2c272b7acfa"}},{"type":"Feature","id":"487_-1220","geometry":{"type":"Polygon","coordinates":[[[-122.05,48.65],[-121.95,48.65],[-121.95,48.75],[-122.05,48.75],[-122.05,48.65]]]},"properties":{"group":"cantharellus","week":"2026-10-05","chance":0.1206,"uncertainty_low":null,"uncertainty_high":null,"applicable":true,"drivers":[],"weather_through":null,"model_version":"pnw-pilot-t1-calendar-e2c272b7acfa"}},{"type":"Feature","id":"487_-1219","geometry":{"type":"Polygon","coordinates":[[[-121.95,48.65],[-121.85,48.65],[-121.85,48.75],[-121.95,48.75],[-121.95,48.65]]]},"properties":{"group":"cantharellus","week":"2026-10-05","chance":0.1301,"uncertainty_low":null,"uncertainty_high":null,"applicable":true,"drivers":[],"weather_through":null,"model_version":"pnw-pilot-t1-calendar-e2c272b7acfa"}},{"type":"Feature","id":"487_-1218","geometry":{"type":"Polygon","coordinates":[[[-121.85,48.65],[-121.75,48.65],[-121.75,48.75],[-121.85,48.75],[-121.85,48.65]]]},"properties":{"group":"cantharellus","week":"2026-10-05","chance":0.1371,"uncertainty_low":null,"uncertainty_high":null,"applicable":true,"drivers":[],"weather_through":null,"model_version":"pnw-pilot-t1-calendar-e2c272b7acfa"}},{"type":"Feature","id":"487_-1217","geometry":{"type":"Polygon","coordinates":[[[-121.75,48.65],[-121.65,48.65],[-121.65,48.75],[-121.75,48.75],[-121.75,48.65]]]},"properties":{"group":"cantharellus","week":"2026-10-05","chance":0.1345,"uncertainty_low":null,"uncertainty_high":null,"applicable":true,"drivers":[],"weather_through":null,"model_version":"pnw-pilot-t1-calendar-e2c272b7acfa"}},{"type":"Feature","id":"487_-1216","geometry":{"type":"Polygon","coordinates":[[[-121.65,48.65],[-121.55,48.65],[-121.55,48.75],[-121.65,48.75],[-121.65,48.65]]]},"properties":{"group":"cantharellus","week":"2026-10-05","chance":0.1325,"uncertainty_low":null,"uncertainty_high":null,"applicable":true,"drivers":[],"weather_through":null,"model_version":"pnw-pilot-t1-calendar-e2c272b7acfa"}},{"type":"Feature","id":"487_-1215","geometry":{"type":"Polygon","coordinates":[[[-121.55,48.65],[-121.45,48.65],[-121.45,48.75],[-121.55,48.75],[-121.55,48.65]]]},"properties":{"group":"cantharellus","week":"2026-10-05","chance":0.1135,"uncertainty_low":null,"uncertainty_high":null,"applicable":true,"drivers":[],"weather_through":null,"model_version":"pnw-pilot-t1-calendar-e2c272b7acfa"}},{"type":"Feature","id":"487_-1214","geometry":{"type":"Polygon","coordinates":[[[-121.45,48.65],[-121.35,48.65],[-121.35,48.75],[-121.45,48.75],[-121.45,48.65]]]},"properties":{"group":"cantharellus","week":"2026-10-05","chance":0.1044,"uncertainty_low":null,"uncertainty_high":null,"applicable":true,"drivers":[],"weather_through":null,"model_version":"pnw-pilot-t1-calendar-e2c272b7acfa"}},{"type":"Feature","id":"487_-1213","geometry":{"type":"Polygon","coordinates":[[[-121.35,48.65],[-121.25,48.65],[-121.25,48.75],[-121.35,48.75],[-121.35,48.65]]]},"properties":{"group":"cantharellus","week":"2026-10-05","chance":0.1044,"uncertainty_low":null,"uncertainty_high":null,"applicable":true,"drivers":[],"weather_through":null,"model_version":"pnw-pilot-t1-calendar-e2c272b7acfa"}},{"type":"Feature","id":"487_-1212","geometry":{"type":"Polygon","coordinates":[[[-121.25,48.65],[-121.15,48.65],[-121.15,48.75],[-121.25,48.75],[-121.25,48.65]]]},"properties":{"group":"cantharellus","week":"2026-10-05","chance":0.1044,"uncertainty_low":null,"uncertainty_high":null,"applicable":true,"drivers":[],"weather_through":null,"model_version":"pnw-pilot-t1-calendar-e2c272b7acfa"}},{"type":"Feature","id":"487_-1211","geometry":{"type":"Polygon","coordinates":[[[-121.15,48.65],[-121.05,48.65],[-121.05,48.75],[-121.15,48.75],[-121.15,48.65]]]},"properties":{"group":"cantharellus","week":"2026-10-05","chance":0.1104,"uncertainty_low":null,"uncertainty_high":null,"applicable":true,"drivers":[],"weather_through":null,"model_version":"pnw-pilot-t1-calendar-e2c272b7acfa"}},{"type":"Feature","id":"488_-1220","geometry":{"type":"Polygon","coordinates":[[[-122.05,48.75],[-121.95,48.75],[-121.95,48.85],[-122.05,48.85],[-122.05,48.75]]]},"properties":{"group":"cantharellus","week":"2026-10-05","chance":0.1073,"uncertainty_low":null,"uncertainty_high":null,"applicable":true,"drivers":[],"weather_through":null,"model_version":"pnw-pilot-t1-calendar-e2c272b7acfa"}},{"type":"Feature","id":"488_-1219","geometry":{"type":"Polygon","coordinates":[[[-121.95,48.75],[-121.85,48.75],[-121.85,48.85],[-121.95,48.85],[-121.95,48.75]]]},"properties":{"group":"cantharellus","week":"2026-10-05","chance":0.1158,"uncertainty_low":null,"uncertainty_high":null,"applicable":true,"drivers":[],"weather_through":null,"model_version":"pnw-pilot-t1-calendar-e2c272b7acfa"}},{"type":"Feature","id":"488_-1218","geometry":{"type":"Polygon","coordinates":[[[-121.85,48.75],[-121.75,48.75],[-121.75,48.85],[-121.85,48.85],[-121.85,48.75]]]},"properties":{"group":"cantharellus","week":"2026-10-05","chance":0.1221,"uncertainty_low":null,"uncertainty_high":null,"applicable":true,"drivers":[],"weather_through":null,"model_version":"pnw-pilot-t1-calendar-e2c272b7acfa"}},{"type":"Feature","id":"488_-1217","geometry":{"type":"Polygon","coordinates":[[[-121.75,48.75],[-121.65,48.75],[-121.65,48.85],[-121.75,48.85],[-121.75,48.75]]]},"properties":{"group":"cantharellus","week":"2026-10-05","chance":0.1198,"uncertainty_low":null,"uncertainty_high":null,"applicable":true,"drivers":[],"weather_through":null,"model_version":"pnw-pilot-t1-calendar-e2c272b7acfa"}},{"type":"Feature","id":"488_-1216","geometry":{"type":"Polygon","coordinates":[[[-121.65,48.75],[-121.55,48.75],[-121.55,48.85],[-121.65,48.85],[-121.65,48.75]]]},"properties":{"group":"cantharellus","week":"2026-10-05","chance":0.118,"uncertainty_low":null,"uncertainty_high":null,"applicable":true,"drivers":[],"weather_through":null,"model_version":"pnw-pilot-t1-calendar-e2c272b7acfa"}},{"type":"Feature","id":"488_-1215","geometry":{"type":"Polygon","coordinates":[[[-121.55,48.75],[-121.45,48.75],[-121.45,48.85],[-121.55,48.85],[-121.55,48.75]]]},"properties":{"group":"cantharellus","week":"2026-10-05","chance":0.1008,"uncertainty_low":null,"uncertainty_high":null,"applicable":true,"drivers":[],"weather_through":null,"model_version":"pnw-pilot-t1-calendar-e2c272b7acfa"}},{"type":"Feature","id":"488_-1214","geometry":{"type":"Polygon","coordinates":[[[-121.45,48.75],[-121.35,48.75],[-121.35,48.85],[-121.45,48.85],[-121.45,48.75]]]},"properties":{"group":"cantharellus","week":"2026-10-05","chance":0.0926,"uncertainty_low":null,"uncertainty_high":null,"applicable":true,"drivers":[],"weather_through":null,"model_version":"pnw-pilot-t1-calendar-e2c272b7acfa"}},{"type":"Feature","id":"488_-1213","geometry":{"type":"Polygon","coordinates":[[[-121.35,48.75],[-121.25,48.75],[-121.25,48.85],[-121.35,48.85],[-121.35,48.75]]]},"properties":{"group":"cantharellus","week":"2026-10-05","chance":0.0926,"uncertainty_low":null,"uncertainty_high":null,"applicable":true,"drivers":[],"weather_through":null,"model_version":"pnw-pilot-t1-calendar-e2c272b7acfa"}},{"type":"Feature","id":"488_-1212","geometry":{"type":"Polygon","coordinates":[[[-121.25,48.75],[-121.15,48.75],[-121.15,48.85],[-121.25,48.85],[-121.25,48.75]]]},"properties":{"group":"cantharellus","week":"2026-10-05","chance":0.0926,"uncertainty_low":null,"uncertainty_high":null,"applicable":true,"drivers":[],"weather_through":null,"model_version":"pnw-pilot-t1-calendar-e2c272b7acfa"}},{"type":"Feature","id":"488_-1211","geometry":{"type":"Polygon","coordinates":[[[-121.15,48.75],[-121.05,48.75],[-121.05,48.85],[-121.15,48.85],[-121.15,48.75]]]},"properties":{"group":"cantharellus","week":"2026-10-05","chance":0.098,"uncertainty_low":null,"uncertainty_high":null,"applicable":true,"drivers":[],"weather_through":null,"model_version":"pnw-pilot-t1-calendar-e2c272b7acfa"}},{"type":"Feature","id":"489_-1220","geometry":{"type":"Polygon","coordinates":[[[-122.05,48.85],[-121.95,48.85],[-121.95,48.95],[-122.05,48.95],[-122.05,48.85]]]},"properties":{"group":"cantharellus","week":"2026-10-05","chance":0.1056,"uncertainty_low":null,"uncertainty_high":null,"applicable":true,"drivers":[],"weather_through":null,"model_version":"pnw-pilot-t1-calendar-e2c272b7acfa"}},{"type":"Feature","id":"489_-1219","geometry":{"type":"Polygon","coordinates":[[[-121.95,48.85],[-121.85,48.85],[-121.85,48.95],[-121.95,48.95],[-121.95,48.85]]]},"properties":{"group":"cantharellus","week":"2026-10-05","chance":0.114,"uncertainty_low":null,"uncertainty_high":null,"applicable":true,"drivers":[],"weather_through":null,"model_version":"pnw-pilot-t1-calendar-e2c272b7acfa"}},{"type":"Feature","id":"489_-1218","geometry":{"type":"Polygon","coordinates":[[[-121.85,48.85],[-121.75,48.85],[-121.75,48.95],[-121.85,48.95],[-121.85,48.85]]]},"properties":{"group":"cantharellus","week":"2026-10-05","chance":0.1203,"uncertainty_low":null,"uncertainty_high":null,"applicable":true,"drivers":[],"weather_through":null,"model_version":"pnw-pilot-t1-calendar-e2c272b7acfa"}},{"type":"Feature","id":"489_-1217","geometry":{"type":"Polygon","coordinates":[[[-121.75,48.85],[-121.65,48.85],[-121.65,48.95],[-121.75,48.95],[-121.75,48.85]]]},"properties":{"group":"cantharellus","week":"2026-10-05","chance":0.118,"uncertainty_low":null,"uncertainty_high":null,"applicable":true,"drivers":[],"weather_through":null,"model_version":"pnw-pilot-t1-calendar-e2c272b7acfa"}},{"type":"Feature","id":"489_-1216","geometry":{"type":"Polygon","coordinates":[[[-121.65,48.85],[-121.55,48.85],[-121.55,48.95],[-121.65,48.95],[-121.65,48.85]]]},"properties":{"group":"cantharellus","week":"2026-10-05","chance":0.1162,"uncertainty_low":null,"uncertainty_high":null,"applicable":true,"drivers":[],"weather_through":null,"model_version":"pnw-pilot-t1-calendar-e2c272b7acfa"}},{"type":"Feature","id":"489_-1215","geometry":{"type":"Polygon","coordinates":[[[-121.55,48.85],[-121.45,48.85],[-121.45,48.95],[-121.55,48.95],[-121.55,48.85]]]},"properties":{"group":"cantharellus","week":"2026-10-05","chance":0.0992,"uncertainty_low":null,"uncertainty_high":null,"applicable":true,"drivers":[],"weather_through":null,"model_version":"pnw-pilot-t1-calendar-e2c272b7acfa"}},{"type":"Feature","id":"489_-1214","geometry":{"type":"Polygon","coordinates":[[[-121.45,48.85],[-121.35,48.85],[-121.35,48.95],[-121.45,48.95],[-121.45,48.85]]]},"properties":{"group":"cantharellus","week":"2026-10-05","chance":0.0912,"uncertainty_low":null,"uncertainty_high":null,"applicable":true,"drivers":[],"weather_through":null,"model_version":"pnw-pilot-t1-calendar-e2c272b7acfa"}},{"type":"Feature","id":"489_-1213","geometry":{"type":"Polygon","coordinates":[[[-121.35,48.85],[-121.25,48.85],[-121.25,48.95],[-121.35,48.95],[-121.35,48.85]]]},"properties":{"group":"cantharellus","week":"2026-10-05","chance":0.0912,"uncertainty_low":null,"uncertainty_high":null,"applicable":true,"drivers":[],"weather_through":null,"model_version":"pnw-pilot-t1-calendar-e2c272b7acfa"}},{"type":"Feature","id":"489_-1212","geometry":{"type":"Polygon","coordinates":[[[-121.25,48.85],[-121.15,48.85],[-121.15,48.95],[-121.25,48.95],[-121.25,48.85]]]},"properties":{"group":"cantharellus","week":"2026-10-05","chance":0.0912,"uncertainty_low":null,"uncertainty_high":null,"applicable":true,"drivers":[],"weather_through":null,"model_version":"pnw-pilot-t1-calendar-e2c272b7acfa"}},{"type":"Feature","id":"489_-1211","geometry":{"type":"Polygon","coordinates":[[[-121.15,48.85],[-121.05,48.85],[-121.05,48.95],[-121.15,48.95],[-121.15,48.85]]]},"properties":{"group":"cantharellus","week":"2026-10-05","chance":0.0965,"uncertainty_low":null,"uncertainty_high":null,"applicable":true,"drivers":[],"weather_through":null,"model_version":"pnw-pilot-t1-calendar-e2c272b7acfa"}}]}