{"type":"FeatureCollection","features":[{"type":"Feature","id":"480_-1210","geometry":{"type":"Polygon","coordinates":[[[-121.05,47.95],[-120.95,47.95],[-120.95,48.05],[-121.05,48.05],[-121.05,47.95]]]},"properties":{"group":"cantharellus","week":"2026-10-05","chance":0.0297,"uncertainty_low":null,"uncertainty_high":null,"applicable":true,"drivers":[],"weather_through":null,"model_version":"pnw-pilot-t1-calendar-e2c272b7acfa"}},{"type":"Feature","id":"481_-1210","geometry":{"type":"Polygon","coordinates":[[[-121.05,48.05],[-120.95,48.05],[-120.95,48.15],[-121.05,48.15],[-121.05,48.05]]]},"properties":{"group":"cantharellus","week":"2026-10-05","chance":0.0342,"uncertainty_low":null,"uncertainty_high":null,"applicable":true,"drivers":[],"weather_through":null,"model_version":"pnw-pilot-t1-calendar-e2c272b7acfa"}},{"type":"Feature","id":"482_-1210","geometry":{"type":"Polygon","coordinates":[[[-121.05,48.15],[-120.95,48.15],[-120.95,48.25],[-121.05,48.25],[-121.05,48.15]]]},"properties":{"group":"cantharellus","week":"2026-10-05","chance":0.0342,"uncertainty_low":null,"uncertainty_high":null,"applicable":true,"drivers":[],"weather_through":null,"model_version":"pnw-pilot-t1-calendar-e2c272b7acfa"}},{"type":"Feature","id":"483_-1210","geometry":{"type":"Polygon","coordinates":[[[-121.05,48.25],[-120.95,48.25],[-120.95,48.35],[-121.05,48.35],[-121.05,48.25]]]},"properties":{"group":"cantharellus","week":"2026-10-05","chance":0.0439,"uncertainty_low":null,"uncertainty_high":null,"applicable":true,"drivers":[],"weather_through":null,"model_version":"pnw-pilot-t1-calendar-e2c272b7acfa"}},{"type":"Feature","id":"484_-1210","geometry":{"type":"Polygon","coordinates":[[[-121.05,48.35],[-120.95,48.35],[-120.95,48.45],[-121.05,48.45],[-121.05,48.35]]]},"properties":{"group":"cantharellus","week":"2026-10-05","chance":0.0469,"uncertainty_low":null,"uncertainty_high":null,"applicable":true,"drivers":[],"weather_through":null,"model_version":"pnw-pilot-t1-calendar-e2c272b7acfa"}},{"type":"Feature","id":"485_-1210","geometry":{"type":"Polygon","coordinates":[[[-121.05,48.45],[-120.95,48.45],[-120.95,48.55],[-121.05,48.55],[-121.05,48.45]]]},"properties":{"group":"cantharellus","week":"2026-10-05","chance":0.0488,"uncertainty_low":null,"uncertainty_high":null,"applicable":true,"drivers":[],"weather_through":null,"model_version":"pnw-pilot-t1-calendar-e2c272b7acfa"}},{"type":"Feature","id":"486_-1210","geometry":{"type":"Polygon","coordinates":[[[-121.05,48.55],[-120.95,48.55],[-120.95,48.65],[-121.05,48.65],[-121.05,48.55]]]},"properties":{"group":"cantharellus","week":"2026-10-05","chance":0.0498,"uncertainty_low":null,"uncertainty_high":null,"applicable":true,"drivers":[],"weather_through":null,"model_version":"pnw-pilot-t1-calendar-e2c272b7acfa"}},{"type":"Feature","id":"487_-1210","geometry":{"type":"Polygon","coordinates":[[[-121.05,48.65],[-120.95,48.65],[-120.95,48.75],[-121.05,48.75],[-121.05,48.65]]]},"properties":{"group":"cantharellus","week":"2026-10-05","chance":0.1104,"uncertainty_low":null,"uncertainty_high":null,"applicable":true,"drivers":[],"weather_through":null,"model_version":"pnw-pilot-t1-calendar-e2c272b7acfa"}},{"type":"Feature","id":"488_-1210","geometry":{"type":"Polygon","coordinates":[[[-121.05,48.75],[-120.95,48.75],[-120.95,48.85],[-121.05,48.85],[-121.05,48.75]]]},"properties":{"group":"cantharellus","week":"2026-10-05","chance":0.098,"uncertainty_low":null,"uncertainty_high":null,"applicable":true,"drivers":[],"weather_through":null,"model_version":"pnw-pilot-t1-calendar-e2c272b7acfa"}},{"type":"Feature","id":"489_-1210","geometry":{"type":"Polygon","coordinates":[[[-121.05,48.85],[-120.95,48.85],[-120.95,48.95],[-121.05,48.95],[-121.05,48.85]]]},"properties":{"group":"cantharellus","week":"2026-10-05","chance":0.0965,"uncertainty_low":null,"uncertainty_high":null,"applicable":true,"drivers":[],"weather_through":null,"model_version":"pnw-pilot-t1-calendar-e2c272b7acfa"}}]}