{"type":"FeatureCollection","features":[{"type":"Feature","id":"480_-1227","geometry":{"type":"Polygon","coordinates":[[[-122.75,47.95],[-122.65,47.95],[-122.65,48.05],[-122.75,48.05],[-122.75,47.95]]]},"properties":{"group":"cantharellus","week":"2026-10-05","chance":0.1313,"uncertainty_low":null,"uncertainty_high":null,"applicable":true,"drivers":[{"label":"Rain, total of the last 14 days (mm)","value":55.5},{"label":"Rain, total of the last 3 days (mm)","value":1.2},{"label":"Air temperature, mean of the last 7 days (°C)","value":13.557}],"weather_through":"2026-10-04","model_version":"pnw-pilot-t1-synthetic-1cbe08ab21a8"}},{"type":"Feature","id":"480_-1221","geometry":{"type":"Polygon","coordinates":[[[-122.15,47.95],[-122.05,47.95],[-122.05,48.05],[-122.15,48.05],[-122.15,47.95]]]},"properties":{"group":"cantharellus","week":"2026-10-05","chance":0.1313,"uncertainty_low":null,"uncertainty_high":null,"applicable":true,"drivers":[{"label":"Rain, total of the last 14 days (mm)","value":70.2},{"label":"Rain, total of the last 3 days (mm)","value":1.0},{"label":"Air temperature, mean of the last 7 days (°C)","value":13.271}],"weather_through":"2026-10-04","model_version":"pnw-pilot-t1-synthetic-1cbe08ab21a8"}},{"type":"Feature","id":"481_-1228","geometry":{"type":"Polygon","coordinates":[[[-122.85,48.05],[-122.75,48.05],[-122.75,48.15],[-122.85,48.15],[-122.85,48.05]]]},"properties":{"group":"cantharellus","week":"2026-10-05","chance":0.1313,"uncertainty_low":null,"uncertainty_high":null,"applicable":true,"drivers":[{"label":"Rain, total of the last 14 days (mm)","value":55.5},{"label":"Rain, total of the last 3 days (mm)","value":1.2},{"label":"Air temperature, mean of the last 7 days (°C)","value":13.243}],"weather_through":"2026-10-04","model_version":"pnw-pilot-t1-synthetic-1cbe08ab21a8"}},{"type":"Feature","id":"484_-1227","geometry":{"type":"Polygon","coordinates":[[[-122.75,48.35],[-122.65,48.35],[-122.65,48.45],[-122.75,48.45],[-122.75,48.35]]]},"properties":{"group":"cantharellus","week":"2026-10-05","chance":0.1313,"uncertainty_low":null,"uncertainty_high":null,"applicable":true,"drivers":[{"label":"Rain, total of the last 14 days (mm)","value":60.7},{"label":"Rain, total of the last 3 days (mm)","value":0.5},{"label":"Air temperature, mean of the last 7 days (°C)","value":12.6}],"weather_through":"2026-10-04","model_version":"pnw-pilot-t1-synthetic-1cbe08ab21a8"}},{"type":"Feature","id":"484_-1226","geometry":{"type":"Polygon","coordinates":[[[-122.65,48.35],[-122.55,48.35],[-122.55,48.45],[-122.65,48.45],[-122.65,48.35]]]},"properties":{"group":"cantharellus","week":"2026-10-05","chance":0.1313,"uncertainty_low":null,"uncertainty_high":null,"applicable":true,"drivers":[{"label":"Rain, total of the last 14 days (mm)","value":58.3},{"label":"Rain, total of the last 3 days (mm)","value":0.3},{"label":"Air temperature, mean of the last 7 days (°C)","value":12.914}],"weather_through":"2026-10-04","model_version":"pnw-pilot-t1-synthetic-1cbe08ab21a8"}},{"type":"Feature","id":"485_-1230","geometry":{"type":"Polygon","coordinates":[[[-123.05,48.45],[-122.95,48.45],[-122.95,48.55],[-123.05,48.55],[-123.05,48.45]]]},"properties":{"group":"cantharellus","week":"2026-10-05","chance":0.1313,"uncertainty_low":null,"uncertainty_high":null,"applicable":true,"drivers":[{"label":"Rain, total of the last 14 days (mm)","value":59.3},{"label":"Rain, total of the last 3 days (mm)","value":0.8},{"label":"Air temperature, mean of the last 7 days (°C)","value":12.4}],"weather_through":"2026-10-04","model_version":"pnw-pilot-t1-synthetic-1cbe08ab21a8"}},{"type":"Feature","id":"485_-1227","geometry":{"type":"Polygon","coordinates":[[[-122.75,48.45],[-122.65,48.45],[-122.65,48.55],[-122.75,48.55],[-122.75,48.45]]]},"properties":{"group":"cantharellus","week":"2026-10-05","chance":0.1313,"uncertainty_low":null,"uncertainty_high":null,"applicable":true,"drivers":[{"label":"Rain, total of the last 14 days (mm)","value":60.7},{"label":"Rain, total of the last 3 days (mm)","value":0.5},{"label":"Air temperature, mean of the last 7 days (°C)","value":12.6}],"weather_through":"2026-10-04","model_version":"pnw-pilot-t1-synthetic-1cbe08ab21a8"}},{"type":"Feature","id":"485_-1226","geometry":{"type":"Polygon","coordinates":[[[-122.65,48.45],[-122.55,48.45],[-122.55,48.55],[-122.65,48.55],[-122.65,48.45]]]},"properties":{"group":"cantharellus","week":"2026-10-05","chance":0.1313,"uncertainty_low":null,"uncertainty_high":null,"applicable":true,"drivers":[{"label":"Rain, total of the last 14 days (mm)","value":58.3},{"label":"Rain, total of the last 3 days (mm)","value":0.3},{"label":"Air temperature, mean of the last 7 days (°C)","value":13.114}],"weather_through":"2026-10-04","model_version":"pnw-pilot-t1-synthetic-1cbe08ab21a8"}},{"type":"Feature","id":"486_-1224","geometry":{"type":"Polygon","coordinates":[[[-122.45,48.55],[-122.35,48.55],[-122.35,48.65],[-122.45,48.65],[-122.45,48.55]]]},"properties":{"group":"cantharellus","week":"2026-10-05","chance":0.1313,"uncertainty_low":null,"uncertainty_high":null,"applicable":true,"drivers":[{"label":"Rain, total of the last 14 days (mm)","value":58.3},{"label":"Rain, total of the last 3 days (mm)","value":0.3},{"label":"Air temperature, mean of the last 7 days (°C)","value":13.243}],"weather_through":"2026-10-04","model_version":"pnw-pilot-t1-synthetic-1cbe08ab21a8"}},{"type":"Feature","id":"487_-1225","geometry":{"type":"Polygon","coordinates":[[[-122.55,48.65],[-122.45,48.65],[-122.45,48.75],[-122.55,48.75],[-122.55,48.65]]]},"properties":{"group":"cantharellus","week":"2026-10-05","chance":0.1313,"uncertainty_low":null,"uncertainty_high":null,"applicable":true,"drivers":[{"label":"Rain, total of the last 14 days (mm)","value":80.5},{"label":"Rain, total of the last 3 days (mm)","value":3.5},{"label":"Air temperature, mean of the last 7 days (°C)","value":13.3}],"weather_through":"2026-10-04","model_version":"pnw-pilot-t1-synthetic-1cbe08ab21a8"}},{"type":"Feature","id":"487_-1224","geometry":{"type":"Polygon","coordinates":[[[-122.45,48.65],[-122.35,48.65],[-122.35,48.75],[-122.45,48.75],[-122.45,48.65]]]},"properties":{"group":"cantharellus","week":"2026-10-05","chance":0.1313,"uncertainty_low":null,"uncertainty_high":null,"applicable":true,"drivers":[{"label":"Rain, total of the last 14 days (mm)","value":80.5},{"label":"Rain, total of the last 3 days (mm)","value":3.5},{"label":"Air temperature, mean of the last 7 days (°C)","value":13.157}],"weather_through":"2026-10-04","model_version":"pnw-pilot-t1-synthetic-1cbe08ab21a8"}},{"type":"Feature","id":"487_-1223","geometry":{"type":"Polygon","coordinates":[[[-122.35,48.65],[-122.25,48.65],[-122.25,48.75],[-122.35,48.75],[-122.35,48.65]]]},"properties":{"group":"cantharellus","week":"2026-10-05","chance":0.1313,"uncertainty_low":null,"uncertainty_high":null,"applicable":true,"drivers":[{"label":"Rain, total of the last 14 days (mm)","value":92.1},{"label":"Rain, total of the last 3 days (mm)","value":3.7},{"label":"Air temperature, mean of the last 7 days (°C)","value":12.529}],"weather_through":"2026-10-04","model_version":"pnw-pilot-t1-synthetic-1cbe08ab21a8"}},{"type":"Feature","id":"488_-1225","geometry":{"type":"Polygon","coordinates":[[[-122.55,48.75],[-122.45,48.75],[-122.45,48.85],[-122.55,48.85],[-122.55,48.75]]]},"properties":{"group":"cantharellus","week":"2026-10-05","chance":0.1313,"uncertainty_low":null,"uncertainty_high":null,"applicable":true,"drivers":[{"label":"Rain, total of the last 14 days (mm)","value":80.5},{"label":"Rain, total of the last 3 days (mm)","value":3.5},{"label":"Air temperature, mean of the last 7 days (°C)","value":13.214}],"weather_through":"2026-10-04","model_version":"pnw-pilot-t1-synthetic-1cbe08ab21a8"}},{"type":"Feature","id":"488_-1224","geometry":{"type":"Polygon","coordinates":[[[-122.45,48.75],[-122.35,48.75],[-122.35,48.85],[-122.45,48.85],[-122.45,48.75]]]},"properties":{"group":"cantharellus","week":"2026-10-05","chance":0.1313,"uncertainty_low":null,"uncertainty_high":null,"applicable":true,"drivers":[{"label":"Rain, total of the last 14 days (mm)","value":80.5},{"label":"Rain, total of the last 3 days (mm)","value":3.5},{"label":"Air temperature, mean of the last 7 days (°C)","value":13.143}],"weather_through":"2026-10-04","model_version":"pnw-pilot-t1-synthetic-1cbe08ab21a8"}},{"type":"Feature","id":"488_-1223","geometry":{"type":"Polygon","coordinates":[[[-122.35,48.75],[-122.25,48.75],[-122.25,48.85],[-122.35,48.85],[-122.35,48.75]]]},"properties":{"group":"cantharellus","week":"2026-10-05","chance":0.1313,"uncertainty_low":null,"uncertainty_high":null,"applicable":true,"drivers":[{"label":"Rain, total of the last 14 days (mm)","value":92.1},{"label":"Rain, total of the last 3 days (mm)","value":3.7},{"label":"Air temperature, mean of the last 7 days (°C)","value":12.743}],"weather_through":"2026-10-04","model_version":"pnw-pilot-t1-synthetic-1cbe08ab21a8"}}]}