{"type":"FeatureCollection","features":[{"type":"Feature","id":"490_-1220","geometry":{"type":"Polygon","coordinates":[[[-122.05,48.95],[-121.95,48.95],[-121.95,49.05],[-122.05,49.05],[-122.05,48.95]]]},"properties":{"group":"cantharellus","week":"2026-10-05","chance":0.0163,"uncertainty_low":null,"uncertainty_high":null,"applicable":true,"drivers":[],"weather_through":null,"model_version":"pnw-pilot-t1-calendar-e2c272b7acfa"}},{"type":"Feature","id":"490_-1219","geometry":{"type":"Polygon","coordinates":[[[-121.95,48.95],[-121.85,48.95],[-121.85,49.05],[-121.95,49.05],[-121.95,48.95]]]},"properties":{"group":"cantharellus","week":"2026-10-05","chance":0.0166,"uncertainty_low":null,"uncertainty_high":null,"applicable":true,"drivers":[],"weather_through":null,"model_version":"pnw-pilot-t1-calendar-e2c272b7acfa"}},{"type":"Feature","id":"490_-1218","geometry":{"type":"Polygon","coordinates":[[[-121.85,48.95],[-121.75,48.95],[-121.75,49.05],[-121.85,49.05],[-121.85,48.95]]]},"properties":{"group":"cantharellus","week":"2026-10-05","chance":0.0176,"uncertainty_low":null,"uncertainty_high":null,"applicable":true,"drivers":[],"weather_through":null,"model_version":"pnw-pilot-t1-calendar-e2c272b7acfa"}},{"type":"Feature","id":"490_-1217","geometry":{"type":"Polygon","coordinates":[[[-121.75,48.95],[-121.65,48.95],[-121.65,49.05],[-121.75,49.05],[-121.75,48.95]]]},"properties":{"group":"cantharellus","week":"2026-10-05","chance":0.0176,"uncertainty_low":null,"uncertainty_high":null,"applicable":true,"drivers":[],"weather_through":null,"model_version":"pnw-pilot-t1-calendar-e2c272b7acfa"}},{"type":"Feature","id":"490_-1216","geometry":{"type":"Polygon","coordinates":[[[-121.65,48.95],[-121.55,48.95],[-121.55,49.05],[-121.65,49.05],[-121.65,48.95]]]},"properties":{"group":"cantharellus","week":"2026-10-05","chance":0.0173,"uncertainty_low":null,"uncertainty_high":null,"applicable":true,"drivers":[],"weather_through":null,"model_version":"pnw-pilot-t1-calendar-e2c272b7acfa"}},{"type":"Feature","id":"490_-1215","geometry":{"type":"Polygon","coordinates":[[[-121.55,48.95],[-121.45,48.95],[-121.45,49.05],[-121.55,49.05],[-121.55,48.95]]]},"properties":{"group":"cantharellus","week":"2026-10-05","chance":0.0145,"uncertainty_low":null,"uncertainty_high":null,"applicable":true,"drivers":[],"weather_through":null,"model_version":"pnw-pilot-t1-calendar-e2c272b7acfa"}},{"type":"Feature","id":"490_-1214","geometry":{"type":"Polygon","coordinates":[[[-121.45,48.95],[-121.35,48.95],[-121.35,49.05],[-121.45,49.05],[-121.45,48.95]]]},"properties":{"group":"cantharellus","week":"2026-10-05","chance":0.0145,"uncertainty_low":null,"uncertainty_high":null,"applicable":true,"drivers":[],"weather_through":null,"model_version":"pnw-pilot-t1-calendar-e2c272b7acfa"}},{"type":"Feature","id":"490_-1213","geometry":{"type":"Polygon","coordinates":[[[-121.35,48.95],[-121.25,48.95],[-121.25,49.05],[-121.35,49.05],[-121.35,48.95]]]},"properties":{"group":"cantharellus","week":"2026-10-05","chance":0.0145,"uncertainty_low":null,"uncertainty_high":null,"applicable":true,"drivers":[],"weather_through":null,"model_version":"pnw-pilot-t1-calendar-e2c272b7acfa"}},{"type":"Feature","id":"490_-1212","geometry":{"type":"Polygon","coordinates":[[[-121.25,48.95],[-121.15,48.95],[-121.15,49.05],[-121.25,49.05],[-121.25,48.95]]]},"properties":{"group":"cantharellus","week":"2026-10-05","chance":0.0145,"uncertainty_low":null,"uncertainty_high":null,"applicable":true,"drivers":[],"weather_through":null,"model_version":"pnw-pilot-t1-calendar-e2c272b7acfa"}},{"type":"Feature","id":"490_-1211","geometry":{"type":"Polygon","coordinates":[[[-121.15,48.95],[-121.05,48.95],[-121.05,49.05],[-121.15,49.05],[-121.15,48.95]]]},"properties":{"group":"cantharellus","week":"2026-10-05","chance":0.015,"uncertainty_low":null,"uncertainty_high":null,"applicable":true,"drivers":[],"weather_through":null,"model_version":"pnw-pilot-t1-calendar-e2c272b7acfa"}},{"type":"Feature","id":"491_-1220","geometry":{"type":"Polygon","coordinates":[[[-122.05,49.05],[-121.95,49.05],[-121.95,49.15],[-122.05,49.15],[-122.05,49.05]]]},"properties":{"group":"cantharellus","week":"2026-10-05","chance":0.0163,"uncertainty_low":null,"uncertainty_high":null,"applicable":true,"drivers":[],"weather_through":null,"model_version":"pnw-pilot-t1-calendar-e2c272b7acfa"}},{"type":"Feature","id":"491_-1219","geometry":{"type":"Polygon","coordinates":[[[-121.95,49.05],[-121.85,49.05],[-121.85,49.15],[-121.95,49.15],[-121.95,49.05]]]},"properties":{"group":"cantharellus","week":"2026-10-05","chance":0.0166,"uncertainty_low":null,"uncertainty_high":null,"applicable":true,"drivers":[],"weather_through":null,"model_version":"pnw-pilot-t1-calendar-e2c272b7acfa"}},{"type":"Feature","id":"491_-1218","geometry":{"type":"Polygon","coordinates":[[[-121.85,49.05],[-121.75,49.05],[-121.75,49.15],[-121.85,49.15],[-121.85,49.05]]]},"properties":{"group":"cantharellus","week":"2026-10-05","chance":0.0176,"uncertainty_low":null,"uncertainty_high":null,"applicable":true,"drivers":[],"weather_through":null,"model_version":"pnw-pilot-t1-calendar-e2c272b7acfa"}},{"type":"Feature","id":"491_-1217","geometry":{"type":"Polygon","coordinates":[[[-121.75,49.05],[-121.65,49.05],[-121.65,49.15],[-121.75,49.15],[-121.75,49.05]]]},"properties":{"group":"cantharellus","week":"2026-10-05","chance":0.0176,"uncertainty_low":null,"uncertainty_high":null,"applicable":true,"drivers":[],"weather_through":null,"model_version":"pnw-pilot-t1-calendar-e2c272b7acfa"}},{"type":"Feature","id":"491_-1216","geometry":{"type":"Polygon","coordinates":[[[-121.65,49.05],[-121.55,49.05],[-121.55,49.15],[-121.65,49.15],[-121.65,49.05]]]},"properties":{"group":"cantharellus","week":"2026-10-05","chance":0.0173,"uncertainty_low":null,"uncertainty_high":null,"applicable":true,"drivers":[],"weather_through":null,"model_version":"pnw-pilot-t1-calendar-e2c272b7acfa"}},{"type":"Feature","id":"491_-1215","geometry":{"type":"Polygon","coordinates":[[[-121.55,49.05],[-121.45,49.05],[-121.45,49.15],[-121.55,49.15],[-121.55,49.05]]]},"properties":{"group":"cantharellus","week":"2026-10-05","chance":0.0145,"uncertainty_low":null,"uncertainty_high":null,"applicable":true,"drivers":[],"weather_through":null,"model_version":"pnw-pilot-t1-calendar-e2c272b7acfa"}},{"type":"Feature","id":"491_-1214","geometry":{"type":"Polygon","coordinates":[[[-121.45,49.05],[-121.35,49.05],[-121.35,49.15],[-121.45,49.15],[-121.45,49.05]]]},"properties":{"group":"cantharellus","week":"2026-10-05","chance":0.0145,"uncertainty_low":null,"uncertainty_high":null,"applicable":true,"drivers":[],"weather_through":null,"model_version":"pnw-pilot-t1-calendar-e2c272b7acfa"}},{"type":"Feature","id":"491_-1213","geometry":{"type":"Polygon","coordinates":[[[-121.35,49.05],[-121.25,49.05],[-121.25,49.15],[-121.35,49.15],[-121.35,49.05]]]},"properties":{"group":"cantharellus","week":"2026-10-05","chance":0.0145,"uncertainty_low":null,"uncertainty_high":null,"applicable":true,"drivers":[],"weather_through":null,"model_version":"pnw-pilot-t1-calendar-e2c272b7acfa"}},{"type":"Feature","id":"491_-1212","geometry":{"type":"Polygon","coordinates":[[[-121.25,49.05],[-121.15,49.05],[-121.15,49.15],[-121.25,49.15],[-121.25,49.05]]]},"properties":{"group":"cantharellus","week":"2026-10-05","chance":0.0145,"uncertainty_low":null,"uncertainty_high":null,"applicable":true,"drivers":[],"weather_through":null,"model_version":"pnw-pilot-t1-calendar-e2c272b7acfa"}},{"type":"Feature","id":"491_-1211","geometry":{"type":"Polygon","coordinates":[[[-121.15,49.05],[-121.05,49.05],[-121.05,49.15],[-121.15,49.15],[-121.15,49.05]]]},"properties":{"group":"cantharellus","week":"2026-10-05","chance":0.015,"uncertainty_low":null,"uncertainty_high":null,"applicable":true,"drivers":[],"weather_through":null,"model_version":"pnw-pilot-t1-calendar-e2c272b7acfa"}},{"type":"Feature","id":"492_-1220","geometry":{"type":"Polygon","coordinates":[[[-122.05,49.15],[-121.95,49.15],[-121.95,49.25],[-122.05,49.25],[-122.05,49.15]]]},"properties":{"group":"cantharellus","week":"2026-10-05","chance":0.0145,"uncertainty_low":null,"uncertainty_high":null,"applicable":true,"drivers":[],"weather_through":null,"model_version":"pnw-pilot-t1-calendar-e2c272b7acfa"}},{"type":"Feature","id":"492_-1219","geometry":{"type":"Polygon","coordinates":[[[-121.95,49.15],[-121.85,49.15],[-121.85,49.25],[-121.95,49.25],[-121.95,49.15]]]},"properties":{"group":"cantharellus","week":"2026-10-05","chance":0.0147,"uncertainty_low":null,"uncertainty_high":null,"applicable":true,"drivers":[],"weather_through":null,"model_version":"pnw-pilot-t1-calendar-e2c272b7acfa"}},{"type":"Feature","id":"492_-1218","geometry":{"type":"Polygon","coordinates":[[[-121.85,49.15],[-121.75,49.15],[-121.75,49.25],[-121.85,49.25],[-121.85,49.15]]]},"properties":{"group":"cantharellus","week":"2026-10-05","chance":0.0156,"uncertainty_low":null,"uncertainty_high":null,"applicable":true,"drivers":[],"weather_through":null,"model_version":"pnw-pilot-t1-calendar-e2c272b7acfa"}},{"type":"Feature","id":"492_-1217","geometry":{"type":"Polygon","coordinates":[[[-121.75,49.15],[-121.65,49.15],[-121.65,49.25],[-121.75,49.25],[-121.75,49.15]]]},"properties":{"group":"cantharellus","week":"2026-10-05","chance":0.0156,"uncertainty_low":null,"uncertainty_high":null,"applicable":true,"drivers":[],"weather_through":null,"model_version":"pnw-pilot-t1-calendar-e2c272b7acfa"}},{"type":"Feature","id":"492_-1216","geometry":{"type":"Polygon","coordinates":[[[-121.65,49.15],[-121.55,49.15],[-121.55,49.25],[-121.65,49.25],[-121.65,49.15]]]},"properties":{"group":"cantharellus","week":"2026-10-05","chance":0.0153,"uncertainty_low":null,"uncertainty_high":null,"applicable":true,"drivers":[],"weather_through":null,"model_version":"pnw-pilot-t1-calendar-e2c272b7acfa"}},{"type":"Feature","id":"492_-1215","geometry":{"type":"Polygon","coordinates":[[[-121.55,49.15],[-121.45,49.15],[-121.45,49.25],[-121.55,49.25],[-121.55,49.15]]]},"properties":{"group":"cantharellus","week":"2026-10-05","chance":0.0145,"uncertainty_low":null,"uncertainty_high":null,"applicable":true,"drivers":[],"weather_through":null,"model_version":"pnw-pilot-t1-calendar-e2c272b7acfa"}},{"type":"Feature","id":"492_-1214","geometry":{"type":"Polygon","coordinates":[[[-121.45,49.15],[-121.35,49.15],[-121.35,49.25],[-121.45,49.25],[-121.45,49.15]]]},"properties":{"group":"cantharellus","week":"2026-10-05","chance":0.0145,"uncertainty_low":null,"uncertainty_high":null,"applicable":true,"drivers":[],"weather_through":null,"model_version":"pnw-pilot-t1-calendar-e2c272b7acfa"}},{"type":"Feature","id":"492_-1213","geometry":{"type":"Polygon","coordinates":[[[-121.35,49.15],[-121.25,49.15],[-121.25,49.25],[-121.35,49.25],[-121.35,49.15]]]},"properties":{"group":"cantharellus","week":"2026-10-05","chance":0.0145,"uncertainty_low":null,"uncertainty_high":null,"applicable":true,"drivers":[],"weather_through":null,"model_version":"pnw-pilot-t1-calendar-e2c272b7acfa"}},{"type":"Feature","id":"492_-1212","geometry":{"type":"Polygon","coordinates":[[[-121.25,49.15],[-121.15,49.15],[-121.15,49.25],[-121.25,49.25],[-121.25,49.15]]]},"properties":{"group":"cantharellus","week":"2026-10-05","chance":0.0145,"uncertainty_low":null,"uncertainty_high":null,"applicable":true,"drivers":[],"weather_through":null,"model_version":"pnw-pilot-t1-calendar-e2c272b7acfa"}},{"type":"Feature","id":"492_-1211","geometry":{"type":"Polygon","coordinates":[[[-121.15,49.15],[-121.05,49.15],[-121.05,49.25],[-121.15,49.25],[-121.15,49.15]]]},"properties":{"group":"cantharellus","week":"2026-10-05","chance":0.015,"uncertainty_low":null,"uncertainty_high":null,"applicable":true,"drivers":[],"weather_through":null,"model_version":"pnw-pilot-t1-calendar-e2c272b7acfa"}},{"type":"Feature","id":"493_-1220","geometry":{"type":"Polygon","coordinates":[[[-122.05,49.25],[-121.95,49.25],[-121.95,49.35],[-122.05,49.35],[-122.05,49.25]]]},"properties":{"group":"cantharellus","week":"2026-10-05","chance":0.0256,"uncertainty_low":null,"uncertainty_high":null,"applicable":true,"drivers":[],"weather_through":null,"model_version":"pnw-pilot-t1-calendar-e2c272b7acfa"}},{"type":"Feature","id":"493_-1219","geometry":{"type":"Polygon","coordinates":[[[-121.95,49.25],[-121.85,49.25],[-121.85,49.35],[-121.95,49.35],[-121.95,49.25]]]},"properties":{"group":"cantharellus","week":"2026-10-05","chance":0.026,"uncertainty_low":null,"uncertainty_high":null,"applicable":true,"drivers":[],"weather_through":null,"model_version":"pnw-pilot-t1-calendar-e2c272b7acfa"}},{"type":"Feature","id":"493_-1218","geometry":{"type":"Polygon","coordinates":[[[-121.85,49.25],[-121.75,49.25],[-121.75,49.35],[-121.85,49.35],[-121.85,49.25]]]},"properties":{"group":"cantharellus","week":"2026-10-05","chance":0.0276,"uncertainty_low":null,"uncertainty_high":null,"applicable":true,"drivers":[],"weather_through":null,"model_version":"pnw-pilot-t1-calendar-e2c272b7acfa"}},{"type":"Feature","id":"493_-1217","geometry":{"type":"Polygon","coordinates":[[[-121.75,49.25],[-121.65,49.25],[-121.65,49.35],[-121.75,49.35],[-121.75,49.25]]]},"properties":{"group":"cantharellus","week":"2026-10-05","chance":0.0276,"uncertainty_low":null,"uncertainty_high":null,"applicable":true,"drivers":[],"weather_through":null,"model_version":"pnw-pilot-t1-calendar-e2c272b7acfa"}},{"type":"Feature","id":"493_-1216","geometry":{"type":"Polygon","coordinates":[[[-121.65,49.25],[-121.55,49.25],[-121.55,49.35],[-121.65,49.35],[-121.65,49.25]]]},"properties":{"group":"cantharellus","week":"2026-10-05","chance":0.0272,"uncertainty_low":null,"uncertainty_high":null,"applicable":true,"drivers":[],"weather_through":null,"model_version":"pnw-pilot-t1-calendar-e2c272b7acfa"}},{"type":"Feature","id":"493_-1215","geometry":{"type":"Polygon","coordinates":[[[-121.55,49.25],[-121.45,49.25],[-121.45,49.35],[-121.55,49.35],[-121.55,49.25]]]},"properties":{"group":"cantharellus","week":"2026-10-05","chance":0.0257,"uncertainty_low":null,"uncertainty_high":null,"applicable":true,"drivers":[],"weather_through":null,"model_version":"pnw-pilot-t1-calendar-e2c272b7acfa"}},{"type":"Feature","id":"493_-1214","geometry":{"type":"Polygon","coordinates":[[[-121.45,49.25],[-121.35,49.25],[-121.35,49.35],[-121.45,49.35],[-121.45,49.25]]]},"properties":{"group":"cantharellus","week":"2026-10-05","chance":0.0257,"uncertainty_low":null,"uncertainty_high":null,"applicable":true,"drivers":[],"weather_through":null,"model_version":"pnw-pilot-t1-calendar-e2c272b7acfa"}},{"type":"Feature","id":"493_-1213","geometry":{"type":"Polygon","coordinates":[[[-121.35,49.25],[-121.25,49.25],[-121.25,49.35],[-121.35,49.35],[-121.35,49.25]]]},"properties":{"group":"cantharellus","week":"2026-10-05","chance":0.0257,"uncertainty_low":null,"uncertainty_high":null,"applicable":true,"drivers":[],"weather_through":null,"model_version":"pnw-pilot-t1-calendar-e2c272b7acfa"}},{"type":"Feature","id":"493_-1212","geometry":{"type":"Polygon","coordinates":[[[-121.25,49.25],[-121.15,49.25],[-121.15,49.35],[-121.25,49.35],[-121.25,49.25]]]},"properties":{"group":"cantharellus","week":"2026-10-05","chance":0.0257,"uncertainty_low":null,"uncertainty_high":null,"applicable":true,"drivers":[],"weather_through":null,"model_version":"pnw-pilot-t1-calendar-e2c272b7acfa"}},{"type":"Feature","id":"493_-1211","geometry":{"type":"Polygon","coordinates":[[[-121.15,49.25],[-121.05,49.25],[-121.05,49.35],[-121.15,49.35],[-121.15,49.25]]]},"properties":{"group":"cantharellus","week":"2026-10-05","chance":0.0265,"uncertainty_low":null,"uncertainty_high":null,"applicable":true,"drivers":[],"weather_through":null,"model_version":"pnw-pilot-t1-calendar-e2c272b7acfa"}},{"type":"Feature","id":"494_-1220","geometry":{"type":"Polygon","coordinates":[[[-122.05,49.35],[-121.95,49.35],[-121.95,49.45],[-122.05,49.45],[-122.05,49.35]]]},"properties":{"group":"cantharellus","week":"2026-10-05","chance":0.0256,"uncertainty_low":null,"uncertainty_high":null,"applicable":true,"drivers":[],"weather_through":null,"model_version":"pnw-pilot-t1-calendar-e2c272b7acfa"}},{"type":"Feature","id":"494_-1219","geometry":{"type":"Polygon","coordinates":[[[-121.95,49.35],[-121.85,49.35],[-121.85,49.45],[-121.95,49.45],[-121.95,49.35]]]},"properties":{"group":"cantharellus","week":"2026-10-05","chance":0.026,"uncertainty_low":null,"uncertainty_high":null,"applicable":true,"drivers":[],"weather_through":null,"model_version":"pnw-pilot-t1-calendar-e2c272b7acfa"}},{"type":"Feature","id":"494_-1218","geometry":{"type":"Polygon","coordinates":[[[-121.85,49.35],[-121.75,49.35],[-121.75,49.45],[-121.85,49.45],[-121.85,49.35]]]},"properties":{"group":"cantharellus","week":"2026-10-05","chance":0.0276,"uncertainty_low":null,"uncertainty_high":null,"applicable":true,"drivers":[],"weather_through":null,"model_version":"pnw-pilot-t1-calendar-e2c272b7acfa"}},{"type":"Feature","id":"494_-1217","geometry":{"type":"Polygon","coordinates":[[[-121.75,49.35],[-121.65,49.35],[-121.65,49.45],[-121.75,49.45],[-121.75,49.35]]]},"properties":{"group":"cantharellus","week":"2026-10-05","chance":0.0276,"uncertainty_low":null,"uncertainty_high":null,"applicable":true,"drivers":[],"weather_through":null,"model_version":"pnw-pilot-t1-calendar-e2c272b7acfa"}},{"type":"Feature","id":"494_-1216","geometry":{"type":"Polygon","coordinates":[[[-121.65,49.35],[-121.55,49.35],[-121.55,49.45],[-121.65,49.45],[-121.65,49.35]]]},"properties":{"group":"cantharellus","week":"2026-10-05","chance":0.0272,"uncertainty_low":null,"uncertainty_high":null,"applicable":true,"drivers":[],"weather_through":null,"model_version":"pnw-pilot-t1-calendar-e2c272b7acfa"}},{"type":"Feature","id":"494_-1215","geometry":{"type":"Polygon","coordinates":[[[-121.55,49.35],[-121.45,49.35],[-121.45,49.45],[-121.55,49.45],[-121.55,49.35]]]},"properties":{"group":"cantharellus","week":"2026-10-05","chance":0.0257,"uncertainty_low":null,"uncertainty_high":null,"applicable":true,"drivers":[],"weather_through":null,"model_version":"pnw-pilot-t1-calendar-e2c272b7acfa"}},{"type":"Feature","id":"494_-1214","geometry":{"type":"Polygon","coordinates":[[[-121.45,49.35],[-121.35,49.35],[-121.35,49.45],[-121.45,49.45],[-121.45,49.35]]]},"properties":{"group":"cantharellus","week":"2026-10-05","chance":0.0257,"uncertainty_low":null,"uncertainty_high":null,"applicable":true,"drivers":[],"weather_through":null,"model_version":"pnw-pilot-t1-calendar-e2c272b7acfa"}},{"type":"Feature","id":"494_-1213","geometry":{"type":"Polygon","coordinates":[[[-121.35,49.35],[-121.25,49.35],[-121.25,49.45],[-121.35,49.45],[-121.35,49.35]]]},"properties":{"group":"cantharellus","week":"2026-10-05","chance":0.0257,"uncertainty_low":null,"uncertainty_high":null,"applicable":true,"drivers":[],"weather_through":null,"model_version":"pnw-pilot-t1-calendar-e2c272b7acfa"}},{"type":"Feature","id":"494_-1212","geometry":{"type":"Polygon","coordinates":[[[-121.25,49.35],[-121.15,49.35],[-121.15,49.45],[-121.25,49.45],[-121.25,49.35]]]},"properties":{"group":"cantharellus","week":"2026-10-05","chance":0.0257,"uncertainty_low":null,"uncertainty_high":null,"applicable":true,"drivers":[],"weather_through":null,"model_version":"pnw-pilot-t1-calendar-e2c272b7acfa"}},{"type":"Feature","id":"494_-1211","geometry":{"type":"Polygon","coordinates":[[[-121.15,49.35],[-121.05,49.35],[-121.05,49.45],[-121.15,49.45],[-121.15,49.35]]]},"properties":{"group":"cantharellus","week":"2026-10-05","chance":0.0265,"uncertainty_low":null,"uncertainty_high":null,"applicable":true,"drivers":[],"weather_through":null,"model_version":"pnw-pilot-t1-calendar-e2c272b7acfa"}},{"type":"Feature","id":"495_-1220","geometry":{"type":"Polygon","coordinates":[[[-122.05,49.45],[-121.95,49.45],[-121.95,49.55],[-122.05,49.55],[-122.05,49.45]]]},"properties":{"group":"cantharellus","week":"2026-10-05","chance":0.0256,"uncertainty_low":null,"uncertainty_high":null,"applicable":true,"drivers":[],"weather_through":null,"model_version":"pnw-pilot-t1-calendar-e2c272b7acfa"}},{"type":"Feature","id":"495_-1219","geometry":{"type":"Polygon","coordinates":[[[-121.95,49.45],[-121.85,49.45],[-121.85,49.55],[-121.95,49.55],[-121.95,49.45]]]},"properties":{"group":"cantharellus","week":"2026-10-05","chance":0.026,"uncertainty_low":null,"uncertainty_high":null,"applicable":true,"drivers":[],"weather_through":null,"model_version":"pnw-pilot-t1-calendar-e2c272b7acfa"}},{"type":"Feature","id":"495_-1218","geometry":{"type":"Polygon","coordinates":[[[-121.85,49.45],[-121.75,49.45],[-121.75,49.55],[-121.85,49.55],[-121.85,49.45]]]},"properties":{"group":"cantharellus","week":"2026-10-05","chance":0.0276,"uncertainty_low":null,"uncertainty_high":null,"applicable":true,"drivers":[],"weather_through":null,"model_version":"pnw-pilot-t1-calendar-e2c272b7acfa"}},{"type":"Feature","id":"495_-1217","geometry":{"type":"Polygon","coordinates":[[[-121.75,49.45],[-121.65,49.45],[-121.65,49.55],[-121.75,49.55],[-121.75,49.45]]]},"properties":{"group":"cantharellus","week":"2026-10-05","chance":0.0276,"uncertainty_low":null,"uncertainty_high":null,"applicable":true,"drivers":[],"weather_through":null,"model_version":"pnw-pilot-t1-calendar-e2c272b7acfa"}},{"type":"Feature","id":"495_-1216","geometry":{"type":"Polygon","coordinates":[[[-121.65,49.45],[-121.55,49.45],[-121.55,49.55],[-121.65,49.55],[-121.65,49.45]]]},"properties":{"group":"cantharellus","week":"2026-10-05","chance":0.0272,"uncertainty_low":null,"uncertainty_high":null,"applicable":true,"drivers":[],"weather_through":null,"model_version":"pnw-pilot-t1-calendar-e2c272b7acfa"}},{"type":"Feature","id":"495_-1215","geometry":{"type":"Polygon","coordinates":[[[-121.55,49.45],[-121.45,49.45],[-121.45,49.55],[-121.55,49.55],[-121.55,49.45]]]},"properties":{"group":"cantharellus","week":"2026-10-05","chance":0.0257,"uncertainty_low":null,"uncertainty_high":null,"applicable":true,"drivers":[],"weather_through":null,"model_version":"pnw-pilot-t1-calendar-e2c272b7acfa"}},{"type":"Feature","id":"495_-1214","geometry":{"type":"Polygon","coordinates":[[[-121.45,49.45],[-121.35,49.45],[-121.35,49.55],[-121.45,49.55],[-121.45,49.45]]]},"properties":{"group":"cantharellus","week":"2026-10-05","chance":0.0257,"uncertainty_low":null,"uncertainty_high":null,"applicable":true,"drivers":[],"weather_through":null,"model_version":"pnw-pilot-t1-calendar-e2c272b7acfa"}},{"type":"Feature","id":"495_-1213","geometry":{"type":"Polygon","coordinates":[[[-121.35,49.45],[-121.25,49.45],[-121.25,49.55],[-121.35,49.55],[-121.35,49.45]]]},"properties":{"group":"cantharellus","week":"2026-10-05","chance":0.0257,"uncertainty_low":null,"uncertainty_high":null,"applicable":true,"drivers":[],"weather_through":null,"model_version":"pnw-pilot-t1-calendar-e2c272b7acfa"}},{"type":"Feature","id":"495_-1212","geometry":{"type":"Polygon","coordinates":[[[-121.25,49.45],[-121.15,49.45],[-121.15,49.55],[-121.25,49.55],[-121.25,49.45]]]},"properties":{"group":"cantharellus","week":"2026-10-05","chance":0.0257,"uncertainty_low":null,"uncertainty_high":null,"applicable":true,"drivers":[],"weather_through":null,"model_version":"pnw-pilot-t1-calendar-e2c272b7acfa"}},{"type":"Feature","id":"495_-1211","geometry":{"type":"Polygon","coordinates":[[[-121.15,49.45],[-121.05,49.45],[-121.05,49.55],[-121.15,49.55],[-121.15,49.45]]]},"properties":{"group":"cantharellus","week":"2026-10-05","chance":0.0265,"uncertainty_low":null,"uncertainty_high":null,"applicable":true,"drivers":[],"weather_through":null,"model_version":"pnw-pilot-t1-calendar-e2c272b7acfa"}}]}