{"type":"FeatureCollection","features":[{"type":"Feature","id":"490_-1210","geometry":{"type":"Polygon","coordinates":[[[-121.05,48.95],[-120.95,48.95],[-120.95,49.05],[-121.05,49.05],[-121.05,48.95]]]},"properties":{"group":"cantharellus","week":"2026-10-05","chance":0.015,"uncertainty_low":null,"uncertainty_high":null,"applicable":true,"drivers":[],"weather_through":null,"model_version":"pnw-pilot-t1-calendar-e2c272b7acfa"}},{"type":"Feature","id":"491_-1210","geometry":{"type":"Polygon","coordinates":[[[-121.05,49.05],[-120.95,49.05],[-120.95,49.15],[-121.05,49.15],[-121.05,49.05]]]},"properties":{"group":"cantharellus","week":"2026-10-05","chance":0.015,"uncertainty_low":null,"uncertainty_high":null,"applicable":true,"drivers":[],"weather_through":null,"model_version":"pnw-pilot-t1-calendar-e2c272b7acfa"}},{"type":"Feature","id":"492_-1210","geometry":{"type":"Polygon","coordinates":[[[-121.05,49.15],[-120.95,49.15],[-120.95,49.25],[-121.05,49.25],[-121.05,49.15]]]},"properties":{"group":"cantharellus","week":"2026-10-05","chance":0.015,"uncertainty_low":null,"uncertainty_high":null,"applicable":true,"drivers":[],"weather_through":null,"model_version":"pnw-pilot-t1-calendar-e2c272b7acfa"}},{"type":"Feature","id":"493_-1210","geometry":{"type":"Polygon","coordinates":[[[-121.05,49.25],[-120.95,49.25],[-120.95,49.35],[-121.05,49.35],[-121.05,49.25]]]},"properties":{"group":"cantharellus","week":"2026-10-05","chance":0.0265,"uncertainty_low":null,"uncertainty_high":null,"applicable":true,"drivers":[],"weather_through":null,"model_version":"pnw-pilot-t1-calendar-e2c272b7acfa"}},{"type":"Feature","id":"494_-1210","geometry":{"type":"Polygon","coordinates":[[[-121.05,49.35],[-120.95,49.35],[-120.95,49.45],[-121.05,49.45],[-121.05,49.35]]]},"properties":{"group":"cantharellus","week":"2026-10-05","chance":0.0265,"uncertainty_low":null,"uncertainty_high":null,"applicable":true,"drivers":[],"weather_through":null,"model_version":"pnw-pilot-t1-calendar-e2c272b7acfa"}},{"type":"Feature","id":"495_-1210","geometry":{"type":"Polygon","coordinates":[[[-121.05,49.45],[-120.95,49.45],[-120.95,49.55],[-121.05,49.55],[-121.05,49.45]]]},"properties":{"group":"cantharellus","week":"2026-10-05","chance":0.0265,"uncertainty_low":null,"uncertainty_high":null,"applicable":true,"drivers":[],"weather_through":null,"model_version":"pnw-pilot-t1-calendar-e2c272b7acfa"}}]}