{"type":"FeatureCollection","features":[{"type":"Feature","id":"490_-1228","geometry":{"type":"Polygon","coordinates":[[[-122.85,48.95],[-122.75,48.95],[-122.75,49.05],[-122.85,49.05],[-122.85,48.95]]]},"properties":{"group":"cantharellus","week":"2026-10-05","chance":0.1313,"uncertainty_low":null,"uncertainty_high":null,"applicable":true,"drivers":[{"label":"Rain, total of the last 14 days (mm)","value":74.8},{"label":"Rain, total of the last 3 days (mm)","value":2.8},{"label":"Air temperature, mean of the last 7 days (°C)","value":13.314}],"weather_through":"2026-10-04","model_version":"pnw-pilot-t1-synthetic-1cbe08ab21a8"}},{"type":"Feature","id":"490_-1227","geometry":{"type":"Polygon","coordinates":[[[-122.75,48.95],[-122.65,48.95],[-122.65,49.05],[-122.75,49.05],[-122.75,48.95]]]},"properties":{"group":"cantharellus","week":"2026-10-05","chance":0.1313,"uncertainty_low":null,"uncertainty_high":null,"applicable":true,"drivers":[{"label":"Rain, total of the last 14 days (mm)","value":74.8},{"label":"Rain, total of the last 3 days (mm)","value":2.8},{"label":"Air temperature, mean of the last 7 days (°C)","value":13.371}],"weather_through":"2026-10-04","model_version":"pnw-pilot-t1-synthetic-1cbe08ab21a8"}},{"type":"Feature","id":"490_-1226","geometry":{"type":"Polygon","coordinates":[[[-122.65,48.95],[-122.55,48.95],[-122.55,49.05],[-122.65,49.05],[-122.65,48.95]]]},"properties":{"group":"cantharellus","week":"2026-10-05","chance":0.1313,"uncertainty_low":null,"uncertainty_high":null,"applicable":true,"drivers":[{"label":"Rain, total of the last 14 days (mm)","value":77.9},{"label":"Rain, total of the last 3 days (mm)","value":2.6},{"label":"Air temperature, mean of the last 7 days (°C)","value":13.414}],"weather_through":"2026-10-04","model_version":"pnw-pilot-t1-synthetic-1cbe08ab21a8"}},{"type":"Feature","id":"490_-1225","geometry":{"type":"Polygon","coordinates":[[[-122.55,48.95],[-122.45,48.95],[-122.45,49.05],[-122.55,49.05],[-122.55,48.95]]]},"properties":{"group":"cantharellus","week":"2026-10-05","chance":0.1313,"uncertainty_low":null,"uncertainty_high":null,"applicable":true,"drivers":[{"label":"Rain, total of the last 14 days (mm)","value":77.9},{"label":"Rain, total of the last 3 days (mm)","value":2.6},{"label":"Air temperature, mean of the last 7 days (°C)","value":13.429}],"weather_through":"2026-10-04","model_version":"pnw-pilot-t1-synthetic-1cbe08ab21a8"}},{"type":"Feature","id":"491_-1229","geometry":{"type":"Polygon","coordinates":[[[-122.95,49.05],[-122.85,49.05],[-122.85,49.15],[-122.95,49.15],[-122.95,49.05]]]},"properties":{"group":"cantharellus","week":"2026-10-05","chance":0.1313,"uncertainty_low":null,"uncertainty_high":null,"applicable":true,"drivers":[{"label":"Rain, total of the last 14 days (mm)","value":69.2},{"label":"Rain, total of the last 3 days (mm)","value":3.4},{"label":"Air temperature, mean of the last 7 days (°C)","value":13.286}],"weather_through":"2026-10-04","model_version":"pnw-pilot-t1-synthetic-1cbe08ab21a8"}},{"type":"Feature","id":"491_-1228","geometry":{"type":"Polygon","coordinates":[[[-122.85,49.05],[-122.75,49.05],[-122.75,49.15],[-122.85,49.15],[-122.85,49.05]]]},"properties":{"group":"cantharellus","week":"2026-10-05","chance":0.1313,"uncertainty_low":null,"uncertainty_high":null,"applicable":true,"drivers":[{"label":"Rain, total of the last 14 days (mm)","value":74.8},{"label":"Rain, total of the last 3 days (mm)","value":2.8},{"label":"Air temperature, mean of the last 7 days (°C)","value":13.329}],"weather_through":"2026-10-04","model_version":"pnw-pilot-t1-synthetic-1cbe08ab21a8"}},{"type":"Feature","id":"491_-1226","geometry":{"type":"Polygon","coordinates":[[[-122.65,49.05],[-122.55,49.05],[-122.55,49.15],[-122.65,49.15],[-122.65,49.05]]]},"properties":{"group":"cantharellus","week":"2026-10-05","chance":0.1313,"uncertainty_low":null,"uncertainty_high":null,"applicable":true,"drivers":[{"label":"Rain, total of the last 14 days (mm)","value":77.9},{"label":"Rain, total of the last 3 days (mm)","value":2.6},{"label":"Air temperature, mean of the last 7 days (°C)","value":13.5}],"weather_through":"2026-10-04","model_version":"pnw-pilot-t1-synthetic-1cbe08ab21a8"}},{"type":"Feature","id":"491_-1224","geometry":{"type":"Polygon","coordinates":[[[-122.45,49.05],[-122.35,49.05],[-122.35,49.15],[-122.45,49.15],[-122.45,49.05]]]},"properties":{"group":"cantharellus","week":"2026-10-05","chance":0.1313,"uncertainty_low":null,"uncertainty_high":null,"applicable":true,"drivers":[{"label":"Rain, total of the last 14 days (mm)","value":77.9},{"label":"Rain, total of the last 3 days (mm)","value":2.6},{"label":"Air temperature, mean of the last 7 days (°C)","value":13.543}],"weather_through":"2026-10-04","model_version":"pnw-pilot-t1-synthetic-1cbe08ab21a8"}},{"type":"Feature","id":"491_-1223","geometry":{"type":"Polygon","coordinates":[[[-122.35,49.05],[-122.25,49.05],[-122.25,49.15],[-122.35,49.15],[-122.35,49.05]]]},"properties":{"group":"cantharellus","week":"2026-10-05","chance":0.1313,"uncertainty_low":null,"uncertainty_high":null,"applicable":true,"drivers":[{"label":"Rain, total of the last 14 days (mm)","value":85.5},{"label":"Rain, total of the last 3 days (mm)","value":3.8},{"label":"Air temperature, mean of the last 7 days (°C)","value":13.129}],"weather_through":"2026-10-04","model_version":"pnw-pilot-t1-synthetic-1cbe08ab21a8"}},{"type":"Feature","id":"491_-1222","geometry":{"type":"Polygon","coordinates":[[[-122.25,49.05],[-122.15,49.05],[-122.15,49.15],[-122.25,49.15],[-122.25,49.05]]]},"properties":{"group":"cantharellus","week":"2026-10-05","chance":0.1313,"uncertainty_low":null,"uncertainty_high":null,"applicable":true,"drivers":[{"label":"Rain, total of the last 14 days (mm)","value":85.5},{"label":"Rain, total of the last 3 days (mm)","value":3.8},{"label":"Air temperature, mean of the last 7 days (°C)","value":12.9}],"weather_through":"2026-10-04","model_version":"pnw-pilot-t1-synthetic-1cbe08ab21a8"}},{"type":"Feature","id":"492_-1230","geometry":{"type":"Polygon","coordinates":[[[-123.05,49.15],[-122.95,49.15],[-122.95,49.25],[-123.05,49.25],[-123.05,49.15]]]},"properties":{"group":"cantharellus","week":"2026-10-05","chance":0.1313,"uncertainty_low":null,"uncertainty_high":null,"applicable":true,"drivers":[{"label":"Rain, total of the last 14 days (mm)","value":96.2},{"label":"Rain, total of the last 3 days (mm)","value":5.0},{"label":"Air temperature, mean of the last 7 days (°C)","value":13.4}],"weather_through":"2026-10-04","model_version":"pnw-pilot-t1-synthetic-1cbe08ab21a8"}},{"type":"Feature","id":"492_-1229","geometry":{"type":"Polygon","coordinates":[[[-122.95,49.15],[-122.85,49.15],[-122.85,49.25],[-122.95,49.25],[-122.95,49.15]]]},"properties":{"group":"cantharellus","week":"2026-10-05","chance":0.1313,"uncertainty_low":null,"uncertainty_high":null,"applicable":true,"drivers":[{"label":"Rain, total of the last 14 days (mm)","value":96.2},{"label":"Rain, total of the last 3 days (mm)","value":5.0},{"label":"Air temperature, mean of the last 7 days (°C)","value":13.529}],"weather_through":"2026-10-04","model_version":"pnw-pilot-t1-synthetic-1cbe08ab21a8"}},{"type":"Feature","id":"492_-1228","geometry":{"type":"Polygon","coordinates":[[[-122.85,49.15],[-122.75,49.15],[-122.75,49.25],[-122.85,49.25],[-122.85,49.15]]]},"properties":{"group":"cantharellus","week":"2026-10-05","chance":0.1313,"uncertainty_low":null,"uncertainty_high":null,"applicable":true,"drivers":[{"label":"Rain, total of the last 14 days (mm)","value":102.8},{"label":"Rain, total of the last 3 days (mm)","value":4.7},{"label":"Air temperature, mean of the last 7 days (°C)","value":13.586}],"weather_through":"2026-10-04","model_version":"pnw-pilot-t1-synthetic-1cbe08ab21a8"}},{"type":"Feature","id":"492_-1227","geometry":{"type":"Polygon","coordinates":[[[-122.75,49.15],[-122.65,49.15],[-122.65,49.25],[-122.75,49.25],[-122.75,49.15]]]},"properties":{"group":"cantharellus","week":"2026-10-05","chance":0.1313,"uncertainty_low":null,"uncertainty_high":null,"applicable":true,"drivers":[{"label":"Rain, total of the last 14 days (mm)","value":102.8},{"label":"Rain, total of the last 3 days (mm)","value":4.7},{"label":"Air temperature, mean of the last 7 days (°C)","value":13.329}],"weather_through":"2026-10-04","model_version":"pnw-pilot-t1-synthetic-1cbe08ab21a8"}},{"type":"Feature","id":"492_-1226","geometry":{"type":"Polygon","coordinates":[[[-122.65,49.15],[-122.55,49.15],[-122.55,49.25],[-122.65,49.25],[-122.65,49.15]]]},"properties":{"group":"cantharellus","week":"2026-10-05","chance":0.1313,"uncertainty_low":null,"uncertainty_high":null,"applicable":true,"drivers":[{"label":"Rain, total of the last 14 days (mm)","value":120.3},{"label":"Rain, total of the last 3 days (mm)","value":5.7},{"label":"Air temperature, mean of the last 7 days (°C)","value":13.1}],"weather_through":"2026-10-04","model_version":"pnw-pilot-t1-synthetic-1cbe08ab21a8"}},{"type":"Feature","id":"492_-1225","geometry":{"type":"Polygon","coordinates":[[[-122.55,49.15],[-122.45,49.15],[-122.45,49.25],[-122.55,49.25],[-122.55,49.15]]]},"properties":{"group":"cantharellus","week":"2026-10-05","chance":0.1313,"uncertainty_low":null,"uncertainty_high":null,"applicable":true,"drivers":[{"label":"Rain, total of the last 14 days (mm)","value":120.3},{"label":"Rain, total of the last 3 days (mm)","value":5.7},{"label":"Air temperature, mean of the last 7 days (°C)","value":13.0}],"weather_through":"2026-10-04","model_version":"pnw-pilot-t1-synthetic-1cbe08ab21a8"}},{"type":"Feature","id":"492_-1224","geometry":{"type":"Polygon","coordinates":[[[-122.45,49.15],[-122.35,49.15],[-122.35,49.25],[-122.45,49.25],[-122.45,49.15]]]},"properties":{"group":"cantharellus","week":"2026-10-05","chance":0.1313,"uncertainty_low":null,"uncertainty_high":null,"applicable":true,"drivers":[{"label":"Rain, total of the last 14 days (mm)","value":120.3},{"label":"Rain, total of the last 3 days (mm)","value":5.7},{"label":"Air temperature, mean of the last 7 days (°C)","value":12.986}],"weather_through":"2026-10-04","model_version":"pnw-pilot-t1-synthetic-1cbe08ab21a8"}},{"type":"Feature","id":"493_-1230","geometry":{"type":"Polygon","coordinates":[[[-123.05,49.25],[-122.95,49.25],[-122.95,49.35],[-123.05,49.35],[-123.05,49.25]]]},"properties":{"group":"cantharellus","week":"2026-10-05","chance":0.1313,"uncertainty_low":null,"uncertainty_high":null,"applicable":true,"drivers":[{"label":"Rain, total of the last 14 days (mm)","value":96.2},{"label":"Rain, total of the last 3 days (mm)","value":5.0},{"label":"Air temperature, mean of the last 7 days (°C)","value":13.014}],"weather_through":"2026-10-04","model_version":"pnw-pilot-t1-synthetic-1cbe08ab21a8"}},{"type":"Feature","id":"493_-1229","geometry":{"type":"Polygon","coordinates":[[[-122.95,49.25],[-122.85,49.25],[-122.85,49.35],[-122.95,49.35],[-122.95,49.25]]]},"properties":{"group":"cantharellus","week":"2026-10-05","chance":0.1313,"uncertainty_low":null,"uncertainty_high":null,"applicable":true,"drivers":[{"label":"Rain, total of the last 14 days (mm)","value":96.2},{"label":"Rain, total of the last 3 days (mm)","value":5.0},{"label":"Air temperature, mean of the last 7 days (°C)","value":13.3}],"weather_through":"2026-10-04","model_version":"pnw-pilot-t1-synthetic-1cbe08ab21a8"}},{"type":"Feature","id":"493_-1228","geometry":{"type":"Polygon","coordinates":[[[-122.85,49.25],[-122.75,49.25],[-122.75,49.35],[-122.85,49.35],[-122.85,49.25]]]},"properties":{"group":"cantharellus","week":"2026-10-05","chance":0.1313,"uncertainty_low":null,"uncertainty_high":null,"applicable":true,"drivers":[{"label":"Rain, total of the last 14 days (mm)","value":102.8},{"label":"Rain, total of the last 3 days (mm)","value":4.7},{"label":"Air temperature, mean of the last 7 days (°C)","value":13.114}],"weather_through":"2026-10-04","model_version":"pnw-pilot-t1-synthetic-1cbe08ab21a8"}},{"type":"Feature","id":"493_-1227","geometry":{"type":"Polygon","coordinates":[[[-122.75,49.25],[-122.65,49.25],[-122.65,49.35],[-122.75,49.35],[-122.75,49.25]]]},"properties":{"group":"cantharellus","week":"2026-10-05","chance":0.1313,"uncertainty_low":null,"uncertainty_high":null,"applicable":true,"drivers":[{"label":"Rain, total of the last 14 days (mm)","value":102.8},{"label":"Rain, total of the last 3 days (mm)","value":4.7},{"label":"Air temperature, mean of the last 7 days (°C)","value":12.714}],"weather_through":"2026-10-04","model_version":"pnw-pilot-t1-synthetic-1cbe08ab21a8"}},{"type":"Feature","id":"493_-1226","geometry":{"type":"Polygon","coordinates":[[[-122.65,49.25],[-122.55,49.25],[-122.55,49.35],[-122.65,49.35],[-122.65,49.25]]]},"properties":{"group":"cantharellus","week":"2026-10-05","chance":0.1313,"uncertainty_low":null,"uncertainty_high":null,"applicable":true,"drivers":[{"label":"Rain, total of the last 14 days (mm)","value":120.3},{"label":"Rain, total of the last 3 days (mm)","value":5.7},{"label":"Air temperature, mean of the last 7 days (°C)","value":12.329}],"weather_through":"2026-10-04","model_version":"pnw-pilot-t1-synthetic-1cbe08ab21a8"}},{"type":"Feature","id":"493_-1225","geometry":{"type":"Polygon","coordinates":[[[-122.55,49.25],[-122.45,49.25],[-122.45,49.35],[-122.55,49.35],[-122.55,49.25]]]},"properties":{"group":"cantharellus","week":"2026-10-05","chance":0.1313,"uncertainty_low":null,"uncertainty_high":null,"applicable":true,"drivers":[{"label":"Rain, total of the last 14 days (mm)","value":120.3},{"label":"Rain, total of the last 3 days (mm)","value":5.7},{"label":"Air temperature, mean of the last 7 days (°C)","value":12.229}],"weather_through":"2026-10-04","model_version":"pnw-pilot-t1-synthetic-1cbe08ab21a8"}},{"type":"Feature","id":"494_-1230","geometry":{"type":"Polygon","coordinates":[[[-123.05,49.35],[-122.95,49.35],[-122.95,49.45],[-123.05,49.45],[-123.05,49.35]]]},"properties":{"group":"cantharellus","week":"2026-10-05","chance":0.1313,"uncertainty_low":null,"uncertainty_high":null,"applicable":true,"drivers":[{"label":"Rain, total of the last 14 days (mm)","value":111.6},{"label":"Rain, total of the last 3 days (mm)","value":6.2},{"label":"Air temperature, mean of the last 7 days (°C)","value":11.043}],"weather_through":"2026-10-04","model_version":"pnw-pilot-t1-synthetic-1cbe08ab21a8"}},{"type":"Feature","id":"494_-1229","geometry":{"type":"Polygon","coordinates":[[[-122.95,49.35],[-122.85,49.35],[-122.85,49.45],[-122.95,49.45],[-122.95,49.35]]]},"properties":{"group":"cantharellus","week":"2026-10-05","chance":0.1313,"uncertainty_low":null,"uncertainty_high":null,"applicable":true,"drivers":[{"label":"Rain, total of the last 14 days (mm)","value":111.6},{"label":"Rain, total of the last 3 days (mm)","value":6.2},{"label":"Air temperature, mean of the last 7 days (°C)","value":11.086}],"weather_through":"2026-10-04","model_version":"pnw-pilot-t1-synthetic-1cbe08ab21a8"}}]}