{"type":"FeatureCollection","features":[{"type":"Feature","id":"492_-1241","geometry":{"type":"Polygon","coordinates":[[[-124.15,49.15],[-124.05,49.15],[-124.05,49.25],[-124.15,49.25],[-124.15,49.15]]]},"properties":{"group":"cantharellus","week":"2026-10-05","chance":0.1313,"uncertainty_low":null,"uncertainty_high":null,"applicable":true,"drivers":[{"label":"Rain, total of the last 14 days (mm)","value":60.2},{"label":"Rain, total of the last 3 days (mm)","value":5.2},{"label":"Air temperature, mean of the last 7 days (°C)","value":12.357}],"weather_through":"2026-10-04","model_version":"pnw-pilot-t1-synthetic-1cbe08ab21a8"}},{"type":"Feature","id":"493_-1249","geometry":{"type":"Polygon","coordinates":[[[-124.95,49.25],[-124.85,49.25],[-124.85,49.35],[-124.95,49.35],[-124.95,49.25]]]},"properties":{"group":"cantharellus","week":"2026-10-05","chance":0.1313,"uncertainty_low":null,"uncertainty_high":null,"applicable":true,"drivers":[{"label":"Rain, total of the last 14 days (mm)","value":63.0},{"label":"Rain, total of the last 3 days (mm)","value":3.0},{"label":"Air temperature, mean of the last 7 days (°C)","value":12.643}],"weather_through":"2026-10-04","model_version":"pnw-pilot-t1-synthetic-1cbe08ab21a8"}},{"type":"Feature","id":"493_-1247","geometry":{"type":"Polygon","coordinates":[[[-124.75,49.25],[-124.65,49.25],[-124.65,49.35],[-124.75,49.35],[-124.75,49.25]]]},"properties":{"group":"cantharellus","week":"2026-10-05","chance":0.1313,"uncertainty_low":null,"uncertainty_high":null,"applicable":true,"drivers":[{"label":"Rain, total of the last 14 days (mm)","value":53.2},{"label":"Rain, total of the last 3 days (mm)","value":2.7},{"label":"Air temperature, mean of the last 7 days (°C)","value":12.214}],"weather_through":"2026-10-04","model_version":"pnw-pilot-t1-synthetic-1cbe08ab21a8"}},{"type":"Feature","id":"493_-1246","geometry":{"type":"Polygon","coordinates":[[[-124.65,49.25],[-124.55,49.25],[-124.55,49.35],[-124.65,49.35],[-124.65,49.25]]]},"properties":{"group":"cantharellus","week":"2026-10-05","chance":0.1313,"uncertainty_low":null,"uncertainty_high":null,"applicable":true,"drivers":[{"label":"Rain, total of the last 14 days (mm)","value":45.8},{"label":"Rain, total of the last 3 days (mm)","value":3.0},{"label":"Air temperature, mean of the last 7 days (°C)","value":12.071}],"weather_through":"2026-10-04","model_version":"pnw-pilot-t1-synthetic-1cbe08ab21a8"}},{"type":"Feature","id":"493_-1243","geometry":{"type":"Polygon","coordinates":[[[-124.35,49.25],[-124.25,49.25],[-124.25,49.35],[-124.35,49.35],[-124.35,49.25]]]},"properties":{"group":"cantharellus","week":"2026-10-05","chance":0.1313,"uncertainty_low":null,"uncertainty_high":null,"applicable":true,"drivers":[{"label":"Rain, total of the last 14 days (mm)","value":55.1},{"label":"Rain, total of the last 3 days (mm)","value":5.5},{"label":"Air temperature, mean of the last 7 days (°C)","value":13.243}],"weather_through":"2026-10-04","model_version":"pnw-pilot-t1-synthetic-1cbe08ab21a8"}},{"type":"Feature","id":"494_-1247","geometry":{"type":"Polygon","coordinates":[[[-124.75,49.35],[-124.65,49.35],[-124.65,49.45],[-124.75,49.45],[-124.75,49.35]]]},"properties":{"group":"cantharellus","week":"2026-10-05","chance":0.1313,"uncertainty_low":null,"uncertainty_high":null,"applicable":true,"drivers":[{"label":"Rain, total of the last 14 days (mm)","value":55.5},{"label":"Rain, total of the last 3 days (mm)","value":4.5},{"label":"Air temperature, mean of the last 7 days (°C)","value":12.357}],"weather_through":"2026-10-04","model_version":"pnw-pilot-t1-synthetic-1cbe08ab21a8"}}]}