{"type":"FeatureCollection","features":[{"type":"Feature","id":"490_-1238","geometry":{"type":"Polygon","coordinates":[[[-123.85,48.95],[-123.75,48.95],[-123.75,49.05],[-123.85,49.05],[-123.85,48.95]]]},"properties":{"group":"cantharellus","week":"2026-10-05","chance":0.0778,"uncertainty_low":null,"uncertainty_high":null,"applicable":true,"drivers":[],"weather_through":"2026-10-04","model_version":"pnw-pilot-t1-calendar-e2c272b7acfa"}},{"type":"Feature","id":"490_-1236","geometry":{"type":"Polygon","coordinates":[[[-123.65,48.95],[-123.55,48.95],[-123.55,49.05],[-123.65,49.05],[-123.65,48.95]]]},"properties":{"group":"cantharellus","week":"2026-10-05","chance":0.0622,"uncertainty_low":null,"uncertainty_high":null,"applicable":true,"drivers":[],"weather_through":"2026-10-04","model_version":"pnw-pilot-t1-calendar-e2c272b7acfa"}},{"type":"Feature","id":"490_-1231","geometry":{"type":"Polygon","coordinates":[[[-123.15,48.95],[-123.05,48.95],[-123.05,49.05],[-123.15,49.05],[-123.15,48.95]]]},"properties":{"group":"cantharellus","week":"2026-10-05","chance":0.0132,"uncertainty_low":null,"uncertainty_high":null,"applicable":true,"drivers":[],"weather_through":"2026-10-04","model_version":"pnw-pilot-t1-calendar-e2c272b7acfa"}},{"type":"Feature","id":"491_-1240","geometry":{"type":"Polygon","coordinates":[[[-124.05,49.05],[-123.95,49.05],[-123.95,49.15],[-124.05,49.15],[-124.05,49.05]]]},"properties":{"group":"cantharellus","week":"2026-10-05","chance":0.0546,"uncertainty_low":null,"uncertainty_high":null,"applicable":true,"drivers":[],"weather_through":"2026-10-04","model_version":"pnw-pilot-t1-calendar-e2c272b7acfa"}},{"type":"Feature","id":"491_-1239","geometry":{"type":"Polygon","coordinates":[[[-123.95,49.05],[-123.85,49.05],[-123.85,49.15],[-123.95,49.15],[-123.95,49.05]]]},"properties":{"group":"cantharellus","week":"2026-10-05","chance":0.0778,"uncertainty_low":null,"uncertainty_high":null,"applicable":true,"drivers":[],"weather_through":"2026-10-04","model_version":"pnw-pilot-t1-calendar-e2c272b7acfa"}},{"type":"Feature","id":"491_-1238","geometry":{"type":"Polygon","coordinates":[[[-123.85,49.05],[-123.75,49.05],[-123.75,49.15],[-123.85,49.15],[-123.85,49.05]]]},"properties":{"group":"cantharellus","week":"2026-10-05","chance":0.0778,"uncertainty_low":null,"uncertainty_high":null,"applicable":true,"drivers":[],"weather_through":"2026-10-04","model_version":"pnw-pilot-t1-calendar-e2c272b7acfa"}},{"type":"Feature","id":"491_-1237","geometry":{"type":"Polygon","coordinates":[[[-123.75,49.05],[-123.65,49.05],[-123.65,49.15],[-123.75,49.15],[-123.75,49.05]]]},"properties":{"group":"cantharellus","week":"2026-10-05","chance":0.0778,"uncertainty_low":null,"uncertainty_high":null,"applicable":true,"drivers":[],"weather_through":"2026-10-04","model_version":"pnw-pilot-t1-calendar-e2c272b7acfa"}},{"type":"Feature","id":"491_-1232","geometry":{"type":"Polygon","coordinates":[[[-123.25,49.05],[-123.15,49.05],[-123.15,49.15],[-123.25,49.15],[-123.25,49.05]]]},"properties":{"group":"cantharellus","week":"2026-10-05","chance":0.0132,"uncertainty_low":null,"uncertainty_high":null,"applicable":true,"drivers":[],"weather_through":"2026-10-04","model_version":"pnw-pilot-t1-calendar-e2c272b7acfa"}},{"type":"Feature","id":"491_-1231","geometry":{"type":"Polygon","coordinates":[[[-123.15,49.05],[-123.05,49.05],[-123.05,49.15],[-123.15,49.15],[-123.15,49.05]]]},"properties":{"group":"cantharellus","week":"2026-10-05","chance":0.0132,"uncertainty_low":null,"uncertainty_high":null,"applicable":true,"drivers":[],"weather_through":"2026-10-04","model_version":"pnw-pilot-t1-calendar-e2c272b7acfa"}},{"type":"Feature","id":"492_-1240","geometry":{"type":"Polygon","coordinates":[[[-124.05,49.15],[-123.95,49.15],[-123.95,49.25],[-124.05,49.25],[-124.05,49.15]]]},"properties":{"group":"cantharellus","week":"2026-10-05","chance":0.049,"uncertainty_low":null,"uncertainty_high":null,"applicable":true,"drivers":[],"weather_through":"2026-10-04","model_version":"pnw-pilot-t1-calendar-e2c272b7acfa"}},{"type":"Feature","id":"492_-1239","geometry":{"type":"Polygon","coordinates":[[[-123.95,49.15],[-123.85,49.15],[-123.85,49.25],[-123.95,49.25],[-123.95,49.15]]]},"properties":{"group":"cantharellus","week":"2026-10-05","chance":0.07,"uncertainty_low":null,"uncertainty_high":null,"applicable":true,"drivers":[],"weather_through":"2026-10-04","model_version":"pnw-pilot-t1-calendar-e2c272b7acfa"}},{"type":"Feature","id":"492_-1238","geometry":{"type":"Polygon","coordinates":[[[-123.85,49.15],[-123.75,49.15],[-123.75,49.25],[-123.85,49.25],[-123.85,49.15]]]},"properties":{"group":"cantharellus","week":"2026-10-05","chance":0.07,"uncertainty_low":null,"uncertainty_high":null,"applicable":true,"drivers":[],"weather_through":"2026-10-04","model_version":"pnw-pilot-t1-calendar-e2c272b7acfa"}},{"type":"Feature","id":"492_-1232","geometry":{"type":"Polygon","coordinates":[[[-123.25,49.15],[-123.15,49.15],[-123.15,49.25],[-123.25,49.25],[-123.25,49.15]]]},"properties":{"group":"cantharellus","week":"2026-10-05","chance":0.0132,"uncertainty_low":null,"uncertainty_high":null,"applicable":true,"drivers":[],"weather_through":"2026-10-04","model_version":"pnw-pilot-t1-calendar-e2c272b7acfa"}},{"type":"Feature","id":"492_-1231","geometry":{"type":"Polygon","coordinates":[[[-123.15,49.15],[-123.05,49.15],[-123.05,49.25],[-123.15,49.25],[-123.15,49.15]]]},"properties":{"group":"cantharellus","week":"2026-10-05","chance":0.0132,"uncertainty_low":null,"uncertainty_high":null,"applicable":true,"drivers":[],"weather_through":"2026-10-04","model_version":"pnw-pilot-t1-calendar-e2c272b7acfa"}},{"type":"Feature","id":"493_-1234","geometry":{"type":"Polygon","coordinates":[[[-123.45,49.25],[-123.35,49.25],[-123.35,49.35],[-123.45,49.35],[-123.45,49.25]]]},"properties":{"group":"cantharellus","week":"2026-10-05","chance":0.0424,"uncertainty_low":null,"uncertainty_high":null,"applicable":true,"drivers":[],"weather_through":"2026-10-04","model_version":"pnw-pilot-t1-calendar-e2c272b7acfa"}},{"type":"Feature","id":"493_-1233","geometry":{"type":"Polygon","coordinates":[[[-123.35,49.25],[-123.25,49.25],[-123.25,49.35],[-123.35,49.35],[-123.35,49.25]]]},"properties":{"group":"cantharellus","week":"2026-10-05","chance":0.0317,"uncertainty_low":null,"uncertainty_high":null,"applicable":true,"drivers":[],"weather_through":"2026-10-04","model_version":"pnw-pilot-t1-calendar-e2c272b7acfa"}},{"type":"Feature","id":"493_-1232","geometry":{"type":"Polygon","coordinates":[[[-123.25,49.25],[-123.15,49.25],[-123.15,49.35],[-123.25,49.35],[-123.25,49.25]]]},"properties":{"group":"cantharellus","week":"2026-10-05","chance":0.0301,"uncertainty_low":null,"uncertainty_high":null,"applicable":true,"drivers":[],"weather_through":"2026-10-04","model_version":"pnw-pilot-t1-calendar-e2c272b7acfa"}},{"type":"Feature","id":"493_-1231","geometry":{"type":"Polygon","coordinates":[[[-123.15,49.25],[-123.05,49.25],[-123.05,49.35],[-123.15,49.35],[-123.15,49.25]]]},"properties":{"group":"cantharellus","week":"2026-10-05","chance":0.0334,"uncertainty_low":null,"uncertainty_high":null,"applicable":true,"drivers":[],"weather_through":"2026-10-04","model_version":"pnw-pilot-t1-calendar-e2c272b7acfa"}},{"type":"Feature","id":"494_-1237","geometry":{"type":"Polygon","coordinates":[[[-123.75,49.35],[-123.65,49.35],[-123.65,49.45],[-123.75,49.45],[-123.75,49.35]]]},"properties":{"group":"cantharellus","week":"2026-10-05","chance":0.0662,"uncertainty_low":null,"uncertainty_high":null,"applicable":true,"drivers":[],"weather_through":"2026-10-04","model_version":"pnw-pilot-t1-calendar-e2c272b7acfa"}},{"type":"Feature","id":"494_-1236","geometry":{"type":"Polygon","coordinates":[[[-123.65,49.35],[-123.55,49.35],[-123.55,49.45],[-123.65,49.45],[-123.65,49.35]]]},"properties":{"group":"cantharellus","week":"2026-10-05","chance":0.0602,"uncertainty_low":null,"uncertainty_high":null,"applicable":true,"drivers":[],"weather_through":"2026-10-04","model_version":"pnw-pilot-t1-calendar-e2c272b7acfa"}},{"type":"Feature","id":"494_-1235","geometry":{"type":"Polygon","coordinates":[[[-123.55,49.35],[-123.45,49.35],[-123.45,49.45],[-123.55,49.45],[-123.55,49.35]]]},"properties":{"group":"cantharellus","week":"2026-10-05","chance":0.0447,"uncertainty_low":null,"uncertainty_high":null,"applicable":true,"drivers":[],"weather_through":"2026-10-04","model_version":"pnw-pilot-t1-calendar-e2c272b7acfa"}},{"type":"Feature","id":"494_-1234","geometry":{"type":"Polygon","coordinates":[[[-123.45,49.35],[-123.35,49.35],[-123.35,49.45],[-123.45,49.45],[-123.45,49.35]]]},"properties":{"group":"cantharellus","week":"2026-10-05","chance":0.0435,"uncertainty_low":null,"uncertainty_high":null,"applicable":true,"drivers":[],"weather_through":"2026-10-04","model_version":"pnw-pilot-t1-calendar-e2c272b7acfa"}},{"type":"Feature","id":"494_-1233","geometry":{"type":"Polygon","coordinates":[[[-123.35,49.35],[-123.25,49.35],[-123.25,49.45],[-123.35,49.45],[-123.35,49.35]]]},"properties":{"group":"cantharellus","week":"2026-10-05","chance":0.0337,"uncertainty_low":null,"uncertainty_high":null,"applicable":true,"drivers":[],"weather_through":"2026-10-04","model_version":"pnw-pilot-t1-calendar-e2c272b7acfa"}},{"type":"Feature","id":"494_-1232","geometry":{"type":"Polygon","coordinates":[[[-123.25,49.35],[-123.15,49.35],[-123.15,49.45],[-123.25,49.45],[-123.25,49.35]]]},"properties":{"group":"cantharellus","week":"2026-10-05","chance":0.032,"uncertainty_low":null,"uncertainty_high":null,"applicable":true,"drivers":[],"weather_through":"2026-10-04","model_version":"pnw-pilot-t1-calendar-e2c272b7acfa"}},{"type":"Feature","id":"494_-1231","geometry":{"type":"Polygon","coordinates":[[[-123.15,49.35],[-123.05,49.35],[-123.05,49.45],[-123.15,49.45],[-123.15,49.35]]]},"properties":{"group":"cantharellus","week":"2026-10-05","chance":0.0355,"uncertainty_low":null,"uncertainty_high":null,"applicable":true,"drivers":[],"weather_through":"2026-10-04","model_version":"pnw-pilot-t1-calendar-e2c272b7acfa"}},{"type":"Feature","id":"495_-1238","geometry":{"type":"Polygon","coordinates":[[[-123.85,49.45],[-123.75,49.45],[-123.75,49.55],[-123.85,49.55],[-123.85,49.45]]]},"properties":{"group":"cantharellus","week":"2026-10-05","chance":0.0544,"uncertainty_low":null,"uncertainty_high":null,"applicable":true,"drivers":[],"weather_through":"2026-10-04","model_version":"pnw-pilot-t1-calendar-e2c272b7acfa"}},{"type":"Feature","id":"495_-1237","geometry":{"type":"Polygon","coordinates":[[[-123.75,49.45],[-123.65,49.45],[-123.65,49.55],[-123.75,49.55],[-123.75,49.45]]]},"properties":{"group":"cantharellus","week":"2026-10-05","chance":0.0544,"uncertainty_low":null,"uncertainty_high":null,"applicable":true,"drivers":[],"weather_through":"2026-10-04","model_version":"pnw-pilot-t1-calendar-e2c272b7acfa"}},{"type":"Feature","id":"495_-1234","geometry":{"type":"Polygon","coordinates":[[[-123.45,49.45],[-123.35,49.45],[-123.35,49.55],[-123.45,49.55],[-123.45,49.45]]]},"properties":{"group":"cantharellus","week":"2026-10-05","chance":0.0435,"uncertainty_low":null,"uncertainty_high":null,"applicable":true,"drivers":[],"weather_through":"2026-10-04","model_version":"pnw-pilot-t1-calendar-e2c272b7acfa"}},{"type":"Feature","id":"495_-1232","geometry":{"type":"Polygon","coordinates":[[[-123.25,49.45],[-123.15,49.45],[-123.15,49.55],[-123.25,49.55],[-123.25,49.45]]]},"properties":{"group":"cantharellus","week":"2026-10-05","chance":0.032,"uncertainty_low":null,"uncertainty_high":null,"applicable":true,"drivers":[],"weather_through":"2026-10-04","model_version":"pnw-pilot-t1-calendar-e2c272b7acfa"}}]}